{
  "type": "FeatureCollection",
  "name": "Ambulance_Stations_TASMANIA",
  "crs": {
    "type": "name",
    "properties": {
      "name": "urn:ogc:def:crs:OGC:1.3:CRS84"
    }
  },
  "metadata": {"source": "Digital Atlas of Australia — Ambulance Stations", "source_url": "https://digital.atlas.gov.au/datasets/ambulance-stations", "licence": "Creative Commons Attribution 4.0 International (CC BY 4.0)", "licence_url": "https://creativecommons.org/licenses/by/4.0/", "description": "Ambulance station point locations, Tasmania (split from national dataset)."}, "features": [
    {
      "type": "Feature",
      "properties": {
        "objectid": 236,
        "featuretype": "EMERGENCY FACILITY",
        "descripton": "An emergency management facility from which a particular agency\u2019s resources are commanded, coordinated and assigned to an incident or emergency",
        "class": "AMBULANCE STATION",
        "facility_name": "AVOCA AMBULANCE STATION",
        "facility_operationalstatus": "OPERATIONAL",
        "facility_address": null,
        "abs_suburb": "AVOCA",
        "facility_state": "TASMANIA",
        "abs_postcode": "7213",
        "facility_attribute_source": "DPIPWE",
        "facility_attribute_date": "2009-02-16T00:00:00Z",
        "facility_source": "DPIPWE",
        "facility_date": "2009-02-16T00:00:00Z",
        "facility_spatial_confidence": null,
        "facility_revised": "2014-12-12T00:00:00Z",
        "comment_": null,
        "facility_lat": "-41.78174005599993",
        "facility_long": "147.7259948630001",
        "validated": null,
        "gnaf_building_name": "AVOCA FIRE STATION",
        "gnaf_address_detail_pid": "GATAS719066318",
        "gnaf_formatted_address": "29 ST PAULS STREET",
        "gnaf_confidence": "1",
        "gnaf_postcode": "7213",
        "gnaf_suburb": "AVOCA",
        "distance_to_gnaf": 16,
        "gnaf_lat": "-41.78181977999998",
        "gnaf_long": "147.72615063000012"
      },
      "geometry": {
        "type": "Point",
        "coordinates": [
          147.72599979197744,
          -41.78172712057091
        ]
      }
    },
    {
      "type": "Feature",
      "properties": {
        "objectid": 237,
        "featuretype": "EMERGENCY FACILITY",
        "descripton": "An emergency management facility from which a particular agency\u2019s resources are commanded, coordinated and assigned to an incident or emergency",
        "class": "AMBULANCE STATION",
        "facility_name": "BEACONSFIELD AMBULANCE STATION",
        "facility_operationalstatus": "OPERATIONAL",
        "facility_address": null,
        "abs_suburb": "BEACONSFIELD",
        "facility_state": "TASMANIA",
        "abs_postcode": "7270",
        "facility_attribute_source": "DPIPWE",
        "facility_attribute_date": "2002-08-20T00:00:00Z",
        "facility_source": "DPIPWE",
        "facility_date": "2002-08-20T00:00:00Z",
        "facility_spatial_confidence": null,
        "facility_revised": "2014-12-12T00:00:00Z",
        "comment_": null,
        "facility_lat": "-41.19307219399997",
        "facility_long": "146.80602547",
        "validated": null,
        "gnaf_building_name": "WEST TAMAR HLTH & COMM SERVICE",
        "gnaf_address_detail_pid": "GATAS716583460",
        "gnaf_formatted_address": "13 BOLTON STREET",
        "gnaf_confidence": "2",
        "gnaf_postcode": "7270",
        "gnaf_suburb": "BEACONSFIELD",
        "distance_to_gnaf": 88,
        "gnaf_lat": "-41.19386124999994",
        "gnaf_long": "146.80600956000012"
      },
      "geometry": {
        "type": "Point",
        "coordinates": [
          146.8060306604589,
          -41.19305918361999
        ]
      }
    },
    {
      "type": "Feature",
      "properties": {
        "objectid": 238,
        "featuretype": "EMERGENCY FACILITY",
        "descripton": "An emergency management facility from which a particular agency\u2019s resources are commanded, coordinated and assigned to an incident or emergency",
        "class": "AMBULANCE STATION",
        "facility_name": "BICHENO AMBULANCE STATION",
        "facility_operationalstatus": "OPERATIONAL",
        "facility_address": null,
        "abs_suburb": "BICHENO",
        "facility_state": "TASMANIA",
        "abs_postcode": "7215",
        "facility_attribute_source": "DPIPWE",
        "facility_attribute_date": "2009-02-16T00:00:00Z",
        "facility_source": "DPIPWE",
        "facility_date": "2009-02-16T00:00:00Z",
        "facility_spatial_confidence": null,
        "facility_revised": "2014-12-12T00:00:00Z",
        "comment_": null,
        "facility_lat": "-41.872520503999965",
        "facility_long": "148.3044158240001",
        "validated": null,
        "gnaf_building_name": null,
        "gnaf_address_detail_pid": "GATAS702395563",
        "gnaf_formatted_address": "78 BURGESS STREET",
        "gnaf_confidence": "2",
        "gnaf_postcode": "7215",
        "gnaf_suburb": "BICHENO",
        "distance_to_gnaf": 31,
        "gnaf_lat": "-41.872257969999964",
        "gnaf_long": "148.3045354300001"
      },
      "geometry": {
        "type": "Point",
        "coordinates": [
          148.30442062556028,
          -41.87250761586165
        ]
      }
    },
    {
      "type": "Feature",
      "properties": {
        "objectid": 239,
        "featuretype": "EMERGENCY FACILITY",
        "descripton": "An emergency management facility from which a particular agency\u2019s resources are commanded, coordinated and assigned to an incident or emergency",
        "class": "AMBULANCE STATION",
        "facility_name": "BOTHWELL AMBULANCE STATION",
        "facility_operationalstatus": "OPERATIONAL",
        "facility_address": null,
        "abs_suburb": "BOTHWELL",
        "facility_state": "TASMANIA",
        "abs_postcode": "7030",
        "facility_attribute_source": "DPIPWE",
        "facility_attribute_date": "2009-02-16T00:00:00Z",
        "facility_source": "DPIPWE",
        "facility_date": "2009-02-16T00:00:00Z",
        "facility_spatial_confidence": null,
        "facility_revised": "2014-12-12T00:00:00Z",
        "comment_": null,
        "facility_lat": "-42.383686832999956",
        "facility_long": "147.00867365300007",
        "validated": null,
        "gnaf_building_name": null,
        "gnaf_address_detail_pid": "GATAS719497643",
        "gnaf_formatted_address": "13-15 PATRICK STREET",
        "gnaf_confidence": "1",
        "gnaf_postcode": "7030",
        "gnaf_suburb": "BOTHWELL",
        "distance_to_gnaf": 26,
        "gnaf_lat": "-42.38391729999995",
        "gnaf_long": "147.00872763000007"
      },
      "geometry": {
        "type": "Point",
        "coordinates": [
          147.0086786407346,
          -42.38367384476672
        ]
      }
    },
    {
      "type": "Feature",
      "properties": {
        "objectid": 240,
        "featuretype": "EMERGENCY FACILITY",
        "descripton": "An emergency management facility from which a particular agency\u2019s resources are commanded, coordinated and assigned to an incident or emergency",
        "class": "AMBULANCE STATION",
        "facility_name": "BRIDGEWATER AMBULANCE STATION",
        "facility_operationalstatus": "OPERATIONAL",
        "facility_address": null,
        "abs_suburb": "BRIDGEWATER",
        "facility_state": "TASMANIA",
        "abs_postcode": "7030",
        "facility_attribute_source": "DPIPWE",
        "facility_attribute_date": "2009-02-16T00:00:00Z",
        "facility_source": "DPIPWE",
        "facility_date": "2009-02-16T00:00:00Z",
        "facility_spatial_confidence": null,
        "facility_revised": "2014-12-12T00:00:00Z",
        "comment_": null,
        "facility_lat": "-42.737221045999945",
        "facility_long": "147.2511314420001",
        "validated": null,
        "gnaf_building_name": "FIRE & AMBULANCE STN",
        "gnaf_address_detail_pid": "GATAS702235066",
        "gnaf_formatted_address": "72 COWLE ROAD",
        "gnaf_confidence": "1",
        "gnaf_postcode": "7030",
        "gnaf_suburb": "BRIDGEWATER",
        "distance_to_gnaf": 12,
        "gnaf_lat": "-42.737141219999955",
        "gnaf_long": "147.2510415900001"
      },
      "geometry": {
        "type": "Point",
        "coordinates": [
          147.2511363302251,
          -42.73720807844891
        ]
      }
    },
    {
      "type": "Feature",
      "properties": {
        "objectid": 241,
        "featuretype": "EMERGENCY FACILITY",
        "descripton": "An emergency management facility from which a particular agency\u2019s resources are commanded, coordinated and assigned to an incident or emergency",
        "class": "AMBULANCE STATION",
        "facility_name": "CAMPBELL TOWN AMBULANCE STATION",
        "facility_operationalstatus": "OPERATIONAL",
        "facility_address": null,
        "abs_suburb": "CAMPBELL TOWN",
        "facility_state": "TASMANIA",
        "abs_postcode": "7210",
        "facility_attribute_source": "DPIPWE",
        "facility_attribute_date": "2005-06-10T00:00:00Z",
        "facility_source": "DPIPWE",
        "facility_date": "2005-06-10T00:00:00Z",
        "facility_spatial_confidence": null,
        "facility_revised": "2014-12-12T00:00:00Z",
        "comment_": null,
        "facility_lat": "-41.926051736999966",
        "facility_long": "147.49217529300006",
        "validated": null,
        "gnaf_building_name": "CAMPBELL TOWN AMBULANCE STN",
        "gnaf_address_detail_pid": "GATAS702202539",
        "gnaf_formatted_address": "111 BRIDGE STREET",
        "gnaf_confidence": "2",
        "gnaf_postcode": "7210",
        "gnaf_suburb": "CAMPBELL TOWN",
        "distance_to_gnaf": 12,
        "gnaf_lat": "-41.92606582999997",
        "gnaf_long": "147.49231471000007"
      },
      "geometry": {
        "type": "Point",
        "coordinates": [
          147.49218024788752,
          -41.92603878385117
        ]
      }
    },
    {
      "type": "Feature",
      "properties": {
        "objectid": 242,
        "featuretype": "EMERGENCY FACILITY",
        "descripton": "An emergency management facility from which a particular agency\u2019s resources are commanded, coordinated and assigned to an incident or emergency",
        "class": "AMBULANCE STATION",
        "facility_name": "COLES BAY AMBULANCE STATION",
        "facility_operationalstatus": "OPERATIONAL",
        "facility_address": null,
        "abs_suburb": "COLES BAY",
        "facility_state": "TASMANIA",
        "abs_postcode": "7215",
        "facility_attribute_source": "DPIPWE",
        "facility_attribute_date": "2009-02-16T00:00:00Z",
        "facility_source": "DPIPWE",
        "facility_date": "2009-02-16T00:00:00Z",
        "facility_spatial_confidence": null,
        "facility_revised": "2014-12-12T00:00:00Z",
        "comment_": null,
        "facility_lat": "-42.12463164299993",
        "facility_long": "148.2868281630001",
        "validated": null,
        "gnaf_building_name": null,
        "gnaf_address_detail_pid": "GATAS719401577",
        "gnaf_formatted_address": "11 COSGROVE STREET",
        "gnaf_confidence": "1",
        "gnaf_postcode": "7215",
        "gnaf_suburb": "COLES BAY",
        "distance_to_gnaf": 28,
        "gnaf_lat": "-42.124392229999955",
        "gnaf_long": "148.28673565000008"
      },
      "geometry": {
        "type": "Point",
        "coordinates": [
          148.2868329308932,
          -42.12461875483124
        ]
      }
    },
    {
      "type": "Feature",
      "properties": {
        "objectid": 243,
        "featuretype": "EMERGENCY FACILITY",
        "descripton": "An emergency management facility from which a particular agency\u2019s resources are commanded, coordinated and assigned to an incident or emergency",
        "class": "AMBULANCE STATION",
        "facility_name": "CURRIE AMBULANCE STATION",
        "facility_operationalstatus": "OPERATIONAL",
        "facility_address": null,
        "abs_suburb": "CURRIE",
        "facility_state": "TASMANIA",
        "abs_postcode": "7256",
        "facility_attribute_source": "DPIPWE",
        "facility_attribute_date": "2009-02-16T00:00:00Z",
        "facility_source": "DPIPWE",
        "facility_date": "2009-02-16T00:00:00Z",
        "facility_spatial_confidence": null,
        "facility_revised": "2014-12-12T00:00:00Z",
        "comment_": null,
        "facility_lat": "-39.92973136699993",
        "facility_long": "143.85231406900004",
        "validated": null,
        "gnaf_building_name": "CURRIE POLICE STATION",
        "gnaf_address_detail_pid": "GATAS702419276",
        "gnaf_formatted_address": "5 MEECH STREET",
        "gnaf_confidence": "1",
        "gnaf_postcode": "7256",
        "gnaf_suburb": "CURRIE",
        "distance_to_gnaf": 37,
        "gnaf_lat": "-39.929447739999944",
        "gnaf_long": "143.85253554000008"
      },
      "geometry": {
        "type": "Point",
        "coordinates": [
          143.85231997802234,
          -39.92971814274494
        ]
      }
    },
    {
      "type": "Feature",
      "properties": {
        "objectid": 244,
        "featuretype": "EMERGENCY FACILITY",
        "descripton": "An emergency management facility from which a particular agency\u2019s resources are commanded, coordinated and assigned to an incident or emergency",
        "class": "AMBULANCE STATION",
        "facility_name": "DELORAINE AMBULANCE STATION",
        "facility_operationalstatus": "OPERATIONAL",
        "facility_address": null,
        "abs_suburb": "DELORAINE",
        "facility_state": "TASMANIA",
        "abs_postcode": "7304",
        "facility_attribute_source": "DPIPWE",
        "facility_attribute_date": "2009-02-16T00:00:00Z",
        "facility_source": "DPIPWE",
        "facility_date": "2009-02-16T00:00:00Z",
        "facility_spatial_confidence": null,
        "facility_revised": "2014-12-12T00:00:00Z",
        "comment_": null,
        "facility_lat": "-41.52858114299994",
        "facility_long": "146.65933234600004",
        "validated": null,
        "gnaf_building_name": "DISTRICT HOSPITAL",
        "gnaf_address_detail_pid": "GATAS702410643",
        "gnaf_formatted_address": "19 LANSDOWNE PLACE",
        "gnaf_confidence": "2",
        "gnaf_postcode": "7304",
        "gnaf_suburb": "DELORAINE",
        "distance_to_gnaf": 52,
        "gnaf_lat": "-41.52818303999993",
        "gnaf_long": "146.6596530600001"
      },
      "geometry": {
        "type": "Point",
        "coordinates": [
          146.65933752045288,
          -41.52856812341751
        ]
      }
    },
    {
      "type": "Feature",
      "properties": {
        "objectid": 245,
        "featuretype": "EMERGENCY FACILITY",
        "descripton": "An emergency management facility from which a particular agency\u2019s resources are commanded, coordinated and assigned to an incident or emergency",
        "class": "AMBULANCE STATION",
        "facility_name": "DEVONPORT AMBULANCE STATION",
        "facility_operationalstatus": "OPERATIONAL",
        "facility_address": null,
        "abs_suburb": "DEVONPORT",
        "facility_state": "TASMANIA",
        "abs_postcode": "7310",
        "facility_attribute_source": "DPIPWE",
        "facility_attribute_date": "2004-06-03T00:00:00Z",
        "facility_source": "DPIPWE",
        "facility_date": "2004-06-03T00:00:00Z",
        "facility_spatial_confidence": null,
        "facility_revised": "2014-12-12T00:00:00Z",
        "comment_": null,
        "facility_lat": "-41.17594809999997",
        "facility_long": "146.36123502100008",
        "validated": null,
        "gnaf_building_name": "DEVONPORT FIRE STATION",
        "gnaf_address_detail_pid": "GATAS702356969",
        "gnaf_formatted_address": "5 VICTORIA PARADE",
        "gnaf_confidence": "1",
        "gnaf_postcode": "7310",
        "gnaf_suburb": "DEVONPORT",
        "distance_to_gnaf": 20,
        "gnaf_lat": "-41.17599863999993",
        "gnaf_long": "146.36100908000003"
      },
      "geometry": {
        "type": "Point",
        "coordinates": [
          146.36124030035256,
          -41.17593505612722
        ]
      }
    },
    {
      "type": "Feature",
      "properties": {
        "objectid": 246,
        "featuretype": "EMERGENCY FACILITY",
        "descripton": "An emergency management facility from which a particular agency\u2019s resources are commanded, coordinated and assigned to an incident or emergency",
        "class": "AMBULANCE STATION",
        "facility_name": "DODGES FERRY AMBULANCE STATION",
        "facility_operationalstatus": "OPERATIONAL",
        "facility_address": null,
        "abs_suburb": "DODGES FERRY",
        "facility_state": "TASMANIA",
        "abs_postcode": "7173",
        "facility_attribute_source": "DPIPWE",
        "facility_attribute_date": "2004-06-03T00:00:00Z",
        "facility_source": "DPIPWE",
        "facility_date": "2004-06-03T00:00:00Z",
        "facility_spatial_confidence": null,
        "facility_revised": "2014-12-12T00:00:00Z",
        "comment_": null,
        "facility_lat": "-42.85891800799993",
        "facility_long": "147.6140130560001",
        "validated": null,
        "gnaf_building_name": null,
        "gnaf_address_detail_pid": "GATAS716713044",
        "gnaf_formatted_address": "2 TIGER HEAD ROAD",
        "gnaf_confidence": "1",
        "gnaf_postcode": "7173",
        "gnaf_suburb": "DODGES FERRY",
        "distance_to_gnaf": 157,
        "gnaf_lat": "-42.85909422999998",
        "gnaf_long": "147.6121086600001"
      },
      "geometry": {
        "type": "Point",
        "coordinates": [
          147.61401785204328,
          -42.85890506961839
        ]
      }
    },
    {
      "type": "Feature",
      "properties": {
        "objectid": 247,
        "featuretype": "EMERGENCY FACILITY",
        "descripton": "An emergency management facility from which a particular agency\u2019s resources are commanded, coordinated and assigned to an incident or emergency",
        "class": "AMBULANCE STATION",
        "facility_name": "DOVER AMBULANCE STATION",
        "facility_operationalstatus": "OPERATIONAL",
        "facility_address": null,
        "abs_suburb": "DOVER",
        "facility_state": "TASMANIA",
        "abs_postcode": "7117",
        "facility_attribute_source": "DPIPWE",
        "facility_attribute_date": "2009-02-16T00:00:00Z",
        "facility_source": "DPIPWE",
        "facility_date": "2009-02-16T00:00:00Z",
        "facility_spatial_confidence": null,
        "facility_revised": "2014-12-12T00:00:00Z",
        "comment_": null,
        "facility_lat": "-43.31452908199998",
        "facility_long": "147.01697050000007",
        "validated": null,
        "gnaf_building_name": "ESP MULTI PURPOSE CENTRE",
        "gnaf_address_detail_pid": "GATAS702713998",
        "gnaf_formatted_address": "15 CHAPMAN AVENUE",
        "gnaf_confidence": "2",
        "gnaf_postcode": "7117",
        "gnaf_suburb": "DOVER",
        "distance_to_gnaf": 60,
        "gnaf_lat": "-43.31465430999998",
        "gnaf_long": "147.0162515500001"
      },
      "geometry": {
        "type": "Point",
        "coordinates": [
          147.01697535384673,
          -43.31451609943859
        ]
      }
    },
    {
      "type": "Feature",
      "properties": {
        "objectid": 248,
        "featuretype": "EMERGENCY FACILITY",
        "descripton": "An emergency management facility from which a particular agency\u2019s resources are commanded, coordinated and assigned to an incident or emergency",
        "class": "AMBULANCE STATION",
        "facility_name": "DUNALLEY AMBULANCE STATION",
        "facility_operationalstatus": "OPERATIONAL",
        "facility_address": null,
        "abs_suburb": "DUNALLEY",
        "facility_state": "TASMANIA",
        "abs_postcode": "7177",
        "facility_attribute_source": "DPIPWE",
        "facility_attribute_date": "2005-06-09T00:00:00Z",
        "facility_source": "DPIPWE",
        "facility_date": "2005-06-09T00:00:00Z",
        "facility_spatial_confidence": null,
        "facility_revised": "2014-12-12T00:00:00Z",
        "comment_": null,
        "facility_lat": "-42.884538807999945",
        "facility_long": "147.81082759000003",
        "validated": null,
        "gnaf_building_name": "DUNALLEY FIRE STATION",
        "gnaf_address_detail_pid": "GATAS702437120",
        "gnaf_formatted_address": "32 BAY STREET",
        "gnaf_confidence": "2",
        "gnaf_postcode": "7177",
        "gnaf_suburb": "DUNALLEY",
        "distance_to_gnaf": 34,
        "gnaf_lat": "-42.88453623999993",
        "gnaf_long": "147.8112464300001"
      },
      "geometry": {
        "type": "Point",
        "coordinates": [
          147.81083234179974,
          -42.88452588544155
        ]
      }
    },
    {
      "type": "Feature",
      "properties": {
        "objectid": 249,
        "featuretype": "EMERGENCY FACILITY",
        "descripton": "An emergency management facility from which a particular agency\u2019s resources are commanded, coordinated and assigned to an incident or emergency",
        "class": "AMBULANCE STATION",
        "facility_name": "GEORGE TOWN AMBULANCE STATION",
        "facility_operationalstatus": "OPERATIONAL",
        "facility_address": null,
        "abs_suburb": "GEORGE TOWN",
        "facility_state": "TASMANIA",
        "abs_postcode": "7253",
        "facility_attribute_source": "DPIPWE",
        "facility_attribute_date": "2004-06-03T00:00:00Z",
        "facility_source": "DPIPWE",
        "facility_date": "2004-06-03T00:00:00Z",
        "facility_spatial_confidence": null,
        "facility_revised": "2014-12-12T00:00:00Z",
        "comment_": null,
        "facility_lat": "-41.10437228999996",
        "facility_long": "146.82185383900003",
        "validated": null,
        "gnaf_building_name": null,
        "gnaf_address_detail_pid": "GATAS717911795",
        "gnaf_formatted_address": "43 ANNE STREET",
        "gnaf_confidence": "1",
        "gnaf_postcode": "7253",
        "gnaf_suburb": "GEORGE TOWN",
        "distance_to_gnaf": 2,
        "gnaf_lat": "-41.104378759999975",
        "gnaf_long": "146.82187125000007"
      },
      "geometry": {
        "type": "Point",
        "coordinates": [
          146.82185903818456,
          -41.10435928031706
        ]
      }
    },
    {
      "type": "Feature",
      "properties": {
        "objectid": 250,
        "featuretype": "EMERGENCY FACILITY",
        "descripton": "An emergency management facility from which a particular agency\u2019s resources are commanded, coordinated and assigned to an incident or emergency",
        "class": "AMBULANCE STATION",
        "facility_name": "GLENORCHY AMBULANCE STATION",
        "facility_operationalstatus": "OPERATIONAL",
        "facility_address": null,
        "abs_suburb": "GOODWOOD",
        "facility_state": "TASMANIA",
        "abs_postcode": "7010",
        "facility_attribute_source": "DPIPWE",
        "facility_attribute_date": "2009-02-16T00:00:00Z",
        "facility_source": "DPIPWE",
        "facility_date": "2009-02-16T00:00:00Z",
        "facility_spatial_confidence": null,
        "facility_revised": "2014-12-12T00:00:00Z",
        "comment_": null,
        "facility_lat": "-42.82744059799995",
        "facility_long": "147.288092451",
        "validated": null,
        "gnaf_building_name": null,
        "gnaf_address_detail_pid": "GATAS702238114",
        "gnaf_formatted_address": "1 GOODWOOD ROAD",
        "gnaf_confidence": "1",
        "gnaf_postcode": "7010",
        "gnaf_suburb": "GOODWOOD",
        "distance_to_gnaf": 9,
        "gnaf_lat": "-42.82735619999994",
        "gnaf_long": "147.28808717000004"
      },
      "geometry": {
        "type": "Point",
        "coordinates": [
          147.28809731867426,
          -42.8274276338181
        ]
      }
    },
    {
      "type": "Feature",
      "properties": {
        "objectid": 251,
        "featuretype": "EMERGENCY FACILITY",
        "descripton": "An emergency management facility from which a particular agency\u2019s resources are commanded, coordinated and assigned to an incident or emergency",
        "class": "AMBULANCE STATION",
        "facility_name": "HOBART AMBULANCE STATION",
        "facility_operationalstatus": "OPERATIONAL",
        "facility_address": null,
        "abs_suburb": "HOBART",
        "facility_state": "TASMANIA",
        "abs_postcode": "7000",
        "facility_attribute_source": "DPIPWE",
        "facility_attribute_date": "2009-02-16T00:00:00Z",
        "facility_source": "DPIPWE",
        "facility_date": "2009-02-16T00:00:00Z",
        "facility_spatial_confidence": null,
        "facility_revised": "2014-12-12T00:00:00Z",
        "comment_": null,
        "facility_lat": "-42.87780190899997",
        "facility_long": "147.327098846",
        "validated": null,
        "gnaf_building_name": null,
        "gnaf_address_detail_pid": "GATAS702306464",
        "gnaf_formatted_address": "1-5 MELVILLE STREET",
        "gnaf_confidence": "1",
        "gnaf_postcode": "7000",
        "gnaf_suburb": "HOBART",
        "distance_to_gnaf": 16,
        "gnaf_lat": "-42.87767065999998",
        "gnaf_long": "147.32701093000003"
      },
      "geometry": {
        "type": "Point",
        "coordinates": [
          147.32710369837645,
          -42.87778894813575
        ]
      }
    },
    {
      "type": "Feature",
      "properties": {
        "objectid": 252,
        "featuretype": "EMERGENCY FACILITY",
        "descripton": "An emergency management facility from which a particular agency\u2019s resources are commanded, coordinated and assigned to an incident or emergency",
        "class": "AMBULANCE STATION",
        "facility_name": "HUONVILLE AMBULANCE STATION",
        "facility_operationalstatus": "OPERATIONAL",
        "facility_address": null,
        "abs_suburb": "HUONVILLE",
        "facility_state": "TASMANIA",
        "abs_postcode": "7109",
        "facility_attribute_source": "DPIPWE",
        "facility_attribute_date": "2004-05-31T00:00:00Z",
        "facility_source": "DPIPWE",
        "facility_date": "2004-05-31T00:00:00Z",
        "facility_spatial_confidence": null,
        "facility_revised": "2014-12-12T00:00:00Z",
        "comment_": null,
        "facility_lat": "-43.03067951999998",
        "facility_long": "147.05149274400003",
        "validated": null,
        "gnaf_building_name": null,
        "gnaf_address_detail_pid": "GATAS702333599",
        "gnaf_formatted_address": "18 SALE STREET",
        "gnaf_confidence": "0",
        "gnaf_postcode": "7109",
        "gnaf_suburb": "HUONVILLE",
        "distance_to_gnaf": 13,
        "gnaf_lat": "-43.03057148999994",
        "gnaf_long": "147.051419"
      },
      "geometry": {
        "type": "Point",
        "coordinates": [
          147.051497631423,
          -43.030666538577194
        ]
      }
    },
    {
      "type": "Feature",
      "properties": {
        "objectid": 253,
        "featuretype": "EMERGENCY FACILITY",
        "descripton": "An emergency management facility from which a particular agency\u2019s resources are commanded, coordinated and assigned to an incident or emergency",
        "class": "AMBULANCE STATION",
        "facility_name": "KINGSTON AMBULANCE STATION",
        "facility_operationalstatus": "OPERATIONAL",
        "facility_address": null,
        "abs_suburb": "KINGSTON",
        "facility_state": "TASMANIA",
        "abs_postcode": "7050",
        "facility_attribute_source": "DPIPWE",
        "facility_attribute_date": "2005-03-01T00:00:00Z",
        "facility_source": "DPIPWE",
        "facility_date": "2005-03-01T00:00:00Z",
        "facility_spatial_confidence": null,
        "facility_revised": "2014-12-12T00:00:00Z",
        "comment_": null,
        "facility_lat": "-42.99253851399993",
        "facility_long": "147.30723184800001",
        "validated": null,
        "gnaf_building_name": "KINGSTON FIRE STATION",
        "gnaf_address_detail_pid": "GATAS702321205",
        "gnaf_formatted_address": "193 REDWOOD ROAD",
        "gnaf_confidence": "0",
        "gnaf_postcode": "7050",
        "gnaf_suburb": "KINGSTON",
        "distance_to_gnaf": 10,
        "gnaf_lat": "-42.99246992999997",
        "gnaf_long": "147.30716295000002"
      },
      "geometry": {
        "type": "Point",
        "coordinates": [
          147.30723668788323,
          -42.99252555220388
        ]
      }
    },
    {
      "type": "Feature",
      "properties": {
        "objectid": 254,
        "featuretype": "EMERGENCY FACILITY",
        "descripton": "An emergency management facility from which a particular agency\u2019s resources are commanded, coordinated and assigned to an incident or emergency",
        "class": "AMBULANCE STATION",
        "facility_name": "MAYDENA AMBULANCE STATION",
        "facility_operationalstatus": "OPERATIONAL",
        "facility_address": null,
        "abs_suburb": "MAYDENA",
        "facility_state": "TASMANIA",
        "abs_postcode": "7140",
        "facility_attribute_source": "DPIPWE",
        "facility_attribute_date": "2009-02-16T00:00:00Z",
        "facility_source": "DPIPWE",
        "facility_date": "2009-02-16T00:00:00Z",
        "facility_spatial_confidence": null,
        "facility_revised": "2014-12-12T00:00:00Z",
        "comment_": null,
        "facility_lat": "-42.75752096499997",
        "facility_long": "146.6246459580001",
        "validated": null,
        "gnaf_building_name": "MAYDENA FIRE STATION",
        "gnaf_address_detail_pid": "GATAS702270979",
        "gnaf_formatted_address": "40 JUNEE ROAD",
        "gnaf_confidence": "1",
        "gnaf_postcode": "7140",
        "gnaf_suburb": "MAYDENA",
        "distance_to_gnaf": 10,
        "gnaf_lat": "-42.757558519999975",
        "gnaf_long": "146.6245300800001"
      },
      "geometry": {
        "type": "Point",
        "coordinates": [
          146.6246509722358,
          -42.757507949592174
        ]
      }
    },
    {
      "type": "Feature",
      "properties": {
        "objectid": 255,
        "featuretype": "EMERGENCY FACILITY",
        "descripton": "An emergency management facility from which a particular agency\u2019s resources are commanded, coordinated and assigned to an incident or emergency",
        "class": "AMBULANCE STATION",
        "facility_name": "CENTRAL HIGHLANDS AMBULANCE STATION",
        "facility_operationalstatus": "OPERATIONAL",
        "facility_address": null,
        "abs_suburb": "MIENA",
        "facility_state": "TASMANIA",
        "abs_postcode": "7030",
        "facility_attribute_source": "DPIPWE",
        "facility_attribute_date": "2005-06-30T00:00:00Z",
        "facility_source": "DPIPWE",
        "facility_date": "2005-06-30T00:00:00Z",
        "facility_spatial_confidence": null,
        "facility_revised": "2014-12-12T00:00:00Z",
        "comment_": null,
        "facility_lat": "-41.99405034199998",
        "facility_long": "146.70755338800006",
        "validated": null,
        "gnaf_building_name": "MIENA COMMUNITY CENTRE",
        "gnaf_address_detail_pid": "GATAS702221505",
        "gnaf_formatted_address": "55-57 CIDER GUM ROAD",
        "gnaf_confidence": "2",
        "gnaf_postcode": "7030",
        "gnaf_suburb": "MIENA",
        "distance_to_gnaf": 57,
        "gnaf_lat": "-41.99366292999997",
        "gnaf_long": "146.7079961400001"
      },
      "geometry": {
        "type": "Point",
        "coordinates": [
          146.70755849017152,
          -41.99403732866198
        ]
      }
    },
    {
      "type": "Feature",
      "properties": {
        "objectid": 256,
        "featuretype": "EMERGENCY FACILITY",
        "descripton": "An emergency management facility from which a particular agency\u2019s resources are commanded, coordinated and assigned to an incident or emergency",
        "class": "AMBULANCE STATION",
        "facility_name": "CLARENCE AMBULANCE STATION",
        "facility_operationalstatus": "OPERATIONAL",
        "facility_address": null,
        "abs_suburb": "MORNINGTON",
        "facility_state": "TASMANIA",
        "abs_postcode": "7018",
        "facility_attribute_source": "DPIPWE",
        "facility_attribute_date": "2009-02-16T00:00:00Z",
        "facility_source": "DPIPWE",
        "facility_date": "2009-02-16T00:00:00Z",
        "facility_spatial_confidence": null,
        "facility_revised": "2014-12-12T00:00:00Z",
        "comment_": null,
        "facility_lat": "-42.85557491299994",
        "facility_long": "147.39874563800004",
        "validated": null,
        "gnaf_building_name": "CLARENCE FIRE STATION",
        "gnaf_address_detail_pid": "GATAS702203542",
        "gnaf_formatted_address": "360 CAMBRIDGE ROAD",
        "gnaf_confidence": "1",
        "gnaf_postcode": "7018",
        "gnaf_suburb": "MORNINGTON",
        "distance_to_gnaf": 18,
        "gnaf_lat": "-42.85552213999995",
        "gnaf_long": "147.3985355200001"
      },
      "geometry": {
        "type": "Point",
        "coordinates": [
          147.39875047882964,
          -42.855561957624104
        ]
      }
    },
    {
      "type": "Feature",
      "properties": {
        "objectid": 265,
        "featuretype": "EMERGENCY FACILITY",
        "descripton": "An emergency management facility from which a particular agency\u2019s resources are commanded, coordinated and assigned to an incident or emergency",
        "class": "AMBULANCE STATION",
        "facility_name": "NEW NORFOLK AMBULANCE STATION",
        "facility_operationalstatus": "OPERATIONAL",
        "facility_address": null,
        "abs_suburb": "NEW NORFOLK",
        "facility_state": "TASMANIA",
        "abs_postcode": "7140",
        "facility_attribute_source": "DPIPWE",
        "facility_attribute_date": "2009-02-16T00:00:00Z",
        "facility_source": "DPIPWE",
        "facility_date": "2009-02-16T00:00:00Z",
        "facility_spatial_confidence": null,
        "facility_revised": "2014-12-12T00:00:00Z",
        "comment_": null,
        "facility_lat": "-42.780929811999954",
        "facility_long": "147.06114393100006",
        "validated": null,
        "gnaf_building_name": "NEW NORFOLK AMBULANCE STATION",
        "gnaf_address_detail_pid": "GATAS702517199",
        "gnaf_formatted_address": "9 CIRCLE STREET",
        "gnaf_confidence": "2",
        "gnaf_postcode": "7140",
        "gnaf_suburb": "NEW NORFOLK",
        "distance_to_gnaf": 7,
        "gnaf_lat": "-42.78088747999993",
        "gnaf_long": "147.0610777500001"
      },
      "geometry": {
        "type": "Point",
        "coordinates": [
          147.06114885203613,
          -42.78091682997233
        ]
      }
    },
    {
      "type": "Feature",
      "properties": {
        "objectid": 266,
        "featuretype": "EMERGENCY FACILITY",
        "descripton": "An emergency management facility from which a particular agency\u2019s resources are commanded, coordinated and assigned to an incident or emergency",
        "class": "AMBULANCE STATION",
        "facility_name": "NUBEENA AMBULANCE STATION",
        "facility_operationalstatus": "OPERATIONAL",
        "facility_address": null,
        "abs_suburb": "NUBEENA",
        "facility_state": "TASMANIA",
        "abs_postcode": "7184",
        "facility_attribute_source": "DPIPWE",
        "facility_attribute_date": "2004-06-18T00:00:00Z",
        "facility_source": "DPIPWE",
        "facility_date": "2004-06-18T00:00:00Z",
        "facility_spatial_confidence": null,
        "facility_revised": "2014-12-12T00:00:00Z",
        "comment_": null,
        "facility_lat": "-43.09522660499994",
        "facility_long": "147.74292609600002",
        "validated": null,
        "gnaf_building_name": null,
        "gnaf_address_detail_pid": "GATAS702743822",
        "gnaf_formatted_address": "1598 NUBEENA ROAD",
        "gnaf_confidence": "1",
        "gnaf_postcode": "7184",
        "gnaf_suburb": "NUBEENA",
        "distance_to_gnaf": 63,
        "gnaf_lat": "-43.095395749999966",
        "gnaf_long": "147.74219216000006"
      },
      "geometry": {
        "type": "Point",
        "coordinates": [
          147.74293083055866,
          -43.095213678151495
        ]
      }
    },
    {
      "type": "Feature",
      "properties": {
        "objectid": 267,
        "featuretype": "EMERGENCY FACILITY",
        "descripton": "An emergency management facility from which a particular agency\u2019s resources are commanded, coordinated and assigned to an incident or emergency",
        "class": "AMBULANCE STATION",
        "facility_name": "OATLANDS AMBULANCE STATION",
        "facility_operationalstatus": "OPERATIONAL",
        "facility_address": null,
        "abs_suburb": "OATLANDS",
        "facility_state": "TASMANIA",
        "abs_postcode": "7120",
        "facility_attribute_source": "DPIPWE",
        "facility_attribute_date": "2009-02-16T00:00:00Z",
        "facility_source": "DPIPWE",
        "facility_date": "2009-02-16T00:00:00Z",
        "facility_spatial_confidence": null,
        "facility_revised": "2014-12-12T00:00:00Z",
        "comment_": null,
        "facility_lat": "-42.298986998999965",
        "facility_long": "147.3693734860001",
        "validated": null,
        "gnaf_building_name": "MIDLANDS HEALTH CENTRE",
        "gnaf_address_detail_pid": "GATAS702219293",
        "gnaf_formatted_address": "13 CHURCH STREET",
        "gnaf_confidence": "2",
        "gnaf_postcode": "7120",
        "gnaf_suburb": "OATLANDS",
        "distance_to_gnaf": 21,
        "gnaf_lat": "-42.298849179999934",
        "gnaf_long": "147.36919505000003"
      },
      "geometry": {
        "type": "Point",
        "coordinates": [
          147.36937841266993,
          -42.298974038278516
        ]
      }
    },
    {
      "type": "Feature",
      "properties": {
        "objectid": 268,
        "featuretype": "EMERGENCY FACILITY",
        "descripton": "An emergency management facility from which a particular agency\u2019s resources are commanded, coordinated and assigned to an incident or emergency",
        "class": "AMBULANCE STATION",
        "facility_name": "QUEENSTOWN AMBULANCE STATION",
        "facility_operationalstatus": "OPERATIONAL",
        "facility_address": null,
        "abs_suburb": "QUEENSTOWN",
        "facility_state": "TASMANIA",
        "abs_postcode": "7467",
        "facility_attribute_source": "DPIPWE",
        "facility_attribute_date": "2009-10-30T00:00:00Z",
        "facility_source": "DPIPWE",
        "facility_date": "2009-10-30T00:00:00Z",
        "facility_spatial_confidence": null,
        "facility_revised": "2014-12-12T00:00:00Z",
        "comment_": null,
        "facility_lat": "-42.08142041799994",
        "facility_long": "145.55859309900006",
        "validated": null,
        "gnaf_building_name": null,
        "gnaf_address_detail_pid": "GATAS718482048",
        "gnaf_formatted_address": "60-64 ORR STREET",
        "gnaf_confidence": "1",
        "gnaf_postcode": "7467",
        "gnaf_suburb": "QUEENSTOWN",
        "distance_to_gnaf": 32,
        "gnaf_lat": "-42.081234379999955",
        "gnaf_long": "145.55830126000012"
      },
      "geometry": {
        "type": "Point",
        "coordinates": [
          145.55859842113028,
          -42.08140732094654
        ]
      }
    },
    {
      "type": "Feature",
      "properties": {
        "objectid": 269,
        "featuretype": "EMERGENCY FACILITY",
        "descripton": "An emergency management facility from which a particular agency\u2019s resources are commanded, coordinated and assigned to an incident or emergency",
        "class": "AMBULANCE STATION",
        "facility_name": "ROSEBERY AMBULANCE STATION",
        "facility_operationalstatus": "OPERATIONAL",
        "facility_address": null,
        "abs_suburb": "ROSEBERY",
        "facility_state": "TASMANIA",
        "abs_postcode": "7470",
        "facility_attribute_source": "DPIPWE",
        "facility_attribute_date": "2009-02-16T00:00:00Z",
        "facility_source": "DPIPWE",
        "facility_date": "2009-02-16T00:00:00Z",
        "facility_spatial_confidence": null,
        "facility_revised": "2014-12-12T00:00:00Z",
        "comment_": null,
        "facility_lat": "-41.77958661799994",
        "facility_long": "145.54605966300005",
        "validated": null,
        "gnaf_building_name": null,
        "gnaf_address_detail_pid": "GATAS702228629",
        "gnaf_formatted_address": "11 DALMENY STREET",
        "gnaf_confidence": "0",
        "gnaf_postcode": "7470",
        "gnaf_suburb": "ROSEBERY",
        "distance_to_gnaf": 17,
        "gnaf_lat": "-41.77943308999994",
        "gnaf_long": "145.54602703000012"
      },
      "geometry": {
        "type": "Point",
        "coordinates": [
          145.54606502604264,
          -41.77957351839037
        ]
      }
    },
    {
      "type": "Feature",
      "properties": {
        "objectid": 270,
        "featuretype": "EMERGENCY FACILITY",
        "descripton": "An emergency management facility from which a particular agency\u2019s resources are commanded, coordinated and assigned to an incident or emergency",
        "class": "AMBULANCE STATION",
        "facility_name": "SCOTTSDALE AMBULANCE STATION",
        "facility_operationalstatus": "OPERATIONAL",
        "facility_address": null,
        "abs_suburb": "SCOTTSDALE",
        "facility_state": "TASMANIA",
        "abs_postcode": "7260",
        "facility_attribute_source": "DPIPWE",
        "facility_attribute_date": "2004-06-18T00:00:00Z",
        "facility_source": "DPIPWE",
        "facility_date": "2004-06-18T00:00:00Z",
        "facility_spatial_confidence": null,
        "facility_revised": "2014-12-12T00:00:00Z",
        "comment_": null,
        "facility_lat": "-41.15449458799998",
        "facility_long": "147.52127079900004",
        "validated": null,
        "gnaf_building_name": null,
        "gnaf_address_detail_pid": "GATAS719401642",
        "gnaf_formatted_address": "28 FOSTERS ROAD",
        "gnaf_confidence": "1",
        "gnaf_postcode": "7260",
        "gnaf_suburb": "SCOTTSDALE",
        "distance_to_gnaf": 21,
        "gnaf_lat": "-41.15462163999996",
        "gnaf_long": "147.52145394000001"
      },
      "geometry": {
        "type": "Point",
        "coordinates": [
          147.521275855923,
          -41.154481632778534
        ]
      }
    },
    {
      "type": "Feature",
      "properties": {
        "objectid": 271,
        "featuretype": "EMERGENCY FACILITY",
        "descripton": "An emergency management facility from which a particular agency\u2019s resources are commanded, coordinated and assigned to an incident or emergency",
        "class": "AMBULANCE STATION",
        "facility_name": "SHEFFIELD AMBULANCE STATION",
        "facility_operationalstatus": "OPERATIONAL",
        "facility_address": null,
        "abs_suburb": "SHEFFIELD",
        "facility_state": "TASMANIA",
        "abs_postcode": "7306",
        "facility_attribute_source": "DPIPWE",
        "facility_attribute_date": "2009-10-30T00:00:00Z",
        "facility_source": "DPIPWE",
        "facility_date": "2009-10-30T00:00:00Z",
        "facility_spatial_confidence": null,
        "facility_revised": "2014-12-12T00:00:00Z",
        "comment_": null,
        "facility_lat": "-41.380887849999965",
        "facility_long": "146.32888961700007",
        "validated": null,
        "gnaf_building_name": "STATE EMERGENCY SERVICE",
        "gnaf_address_detail_pid": "GATAS702184054",
        "gnaf_formatted_address": "13 ALBERT STREET",
        "gnaf_confidence": "2",
        "gnaf_postcode": "7306",
        "gnaf_suburb": "SHEFFIELD",
        "distance_to_gnaf": 10,
        "gnaf_lat": "-41.380816419999974",
        "gnaf_long": "146.3288234700001"
      },
      "geometry": {
        "type": "Point",
        "coordinates": [
          146.32889487599235,
          -41.38087480489124
        ]
      }
    },
    {
      "type": "Feature",
      "properties": {
        "objectid": 272,
        "featuretype": "EMERGENCY FACILITY",
        "descripton": "An emergency management facility from which a particular agency\u2019s resources are commanded, coordinated and assigned to an incident or emergency",
        "class": "AMBULANCE STATION",
        "facility_name": "SMITHTON AMBULANCE STATION",
        "facility_operationalstatus": "OPERATIONAL",
        "facility_address": null,
        "abs_suburb": "SMITHTON",
        "facility_state": "TASMANIA",
        "abs_postcode": "7330",
        "facility_attribute_source": "DPIPWE",
        "facility_attribute_date": "1999-09-28T00:00:00Z",
        "facility_source": "DPIPWE",
        "facility_date": "1999-09-28T00:00:00Z",
        "facility_spatial_confidence": null,
        "facility_revised": "2014-12-12T00:00:00Z",
        "comment_": null,
        "facility_lat": "-40.848561407999966",
        "facility_long": "145.12969807100012",
        "validated": null,
        "gnaf_building_name": "SMITHTON AMBULANCE STATION",
        "gnaf_address_detail_pid": "GATAS718182025",
        "gnaf_formatted_address": "76 BRITTONS ROAD",
        "gnaf_confidence": "1",
        "gnaf_postcode": "7330",
        "gnaf_suburb": "SMITHTON",
        "distance_to_gnaf": 9,
        "gnaf_lat": "-40.84863672999995",
        "gnaf_long": "145.12965854000004"
      },
      "geometry": {
        "type": "Point",
        "coordinates": [
          145.1297036308302,
          -40.84854827400007
        ]
      }
    },
    {
      "type": "Feature",
      "properties": {
        "objectid": 289,
        "featuretype": "EMERGENCY FACILITY",
        "descripton": "An emergency management facility from which a particular agency\u2019s resources are commanded, coordinated and assigned to an incident or emergency",
        "class": "AMBULANCE STATION",
        "facility_name": "TRIABUNNA AMBULANCE STATION",
        "facility_operationalstatus": "OPERATIONAL",
        "facility_address": null,
        "abs_suburb": "TRIABUNNA",
        "facility_state": "TASMANIA",
        "abs_postcode": "7190",
        "facility_attribute_source": "DPIPWE",
        "facility_attribute_date": "2011-11-23T00:00:00Z",
        "facility_source": "DPIPWE",
        "facility_date": "2011-11-23T00:00:00Z",
        "facility_spatial_confidence": null,
        "facility_revised": "2014-12-12T00:00:00Z",
        "comment_": null,
        "facility_lat": "-42.50939255999998",
        "facility_long": "147.911836052",
        "validated": null,
        "gnaf_building_name": "SPRING BAY COMMUNITY & HEALTH CENTRE",
        "gnaf_address_detail_pid": "GATAS720640055",
        "gnaf_formatted_address": "7 ESPLANADE WEST",
        "gnaf_confidence": "1",
        "gnaf_postcode": "7190",
        "gnaf_suburb": "TRIABUNNA",
        "distance_to_gnaf": 28,
        "gnaf_lat": "-42.50963169999994",
        "gnaf_long": "147.91173254000012"
      },
      "geometry": {
        "type": "Point",
        "coordinates": [
          147.9118408385357,
          -42.50937964350204
        ]
      }
    },
    {
      "type": "Feature",
      "properties": {
        "objectid": 290,
        "featuretype": "EMERGENCY FACILITY",
        "descripton": "An emergency management facility from which a particular agency\u2019s resources are commanded, coordinated and assigned to an incident or emergency",
        "class": "AMBULANCE STATION",
        "facility_name": "TULLAH AMBULANCE STATION",
        "facility_operationalstatus": "OPERATIONAL",
        "facility_address": null,
        "abs_suburb": "TULLAH",
        "facility_state": "TASMANIA",
        "abs_postcode": "7321",
        "facility_attribute_source": "DPIPWE",
        "facility_attribute_date": "2004-05-05T00:00:00Z",
        "facility_source": "DPIPWE",
        "facility_date": "2004-05-05T00:00:00Z",
        "facility_spatial_confidence": null,
        "facility_revised": "2014-12-12T00:00:00Z",
        "comment_": null,
        "facility_lat": "-41.73798238799998",
        "facility_long": "145.614387243",
        "validated": null,
        "gnaf_building_name": "TULLAH AMBULANCE STATION",
        "gnaf_address_detail_pid": "GATAS702333590",
        "gnaf_formatted_address": "4 SALE STREET",
        "gnaf_confidence": "2",
        "gnaf_postcode": "7321",
        "gnaf_suburb": "TULLAH",
        "distance_to_gnaf": 1,
        "gnaf_lat": "-41.73797566999997",
        "gnaf_long": "145.61439637"
      },
      "geometry": {
        "type": "Point",
        "coordinates": [
          145.6143925976418,
          -41.7379692930123
        ]
      }
    },
    {
      "type": "Feature",
      "properties": {
        "objectid": 291,
        "featuretype": "EMERGENCY FACILITY",
        "descripton": "An emergency management facility from which a particular agency\u2019s resources are commanded, coordinated and assigned to an incident or emergency",
        "class": "AMBULANCE STATION",
        "facility_name": "ULVERSTONE AMBULANCE STATION",
        "facility_operationalstatus": "OPERATIONAL",
        "facility_address": null,
        "abs_suburb": "ULVERSTONE",
        "facility_state": "TASMANIA",
        "abs_postcode": "7315",
        "facility_attribute_source": "DPIPWE",
        "facility_attribute_date": "1999-09-22T00:00:00Z",
        "facility_source": "DPIPWE",
        "facility_date": "1999-09-22T00:00:00Z",
        "facility_spatial_confidence": null,
        "facility_revised": "2014-12-12T00:00:00Z",
        "comment_": null,
        "facility_lat": "-41.15682892299998",
        "facility_long": "146.173158316",
        "validated": null,
        "gnaf_building_name": "ULVERSTONE AMBULANCE STATION",
        "gnaf_address_detail_pid": "GATAS702358036",
        "gnaf_formatted_address": "46 VICTORIA STREET",
        "gnaf_confidence": "1",
        "gnaf_postcode": "7315",
        "gnaf_suburb": "ULVERSTONE",
        "distance_to_gnaf": 11,
        "gnaf_lat": "-41.15682414999998",
        "gnaf_long": "146.1730273600001"
      },
      "geometry": {
        "type": "Point",
        "coordinates": [
          146.1731636345049,
          -41.156815865138995
        ]
      }
    },
    {
      "type": "Feature",
      "properties": {
        "objectid": 292,
        "featuretype": "EMERGENCY FACILITY",
        "descripton": "An emergency management facility from which a particular agency\u2019s resources are commanded, coordinated and assigned to an incident or emergency",
        "class": "AMBULANCE STATION",
        "facility_name": "WARATAH AMBULANCE STATION",
        "facility_operationalstatus": "OPERATIONAL",
        "facility_address": null,
        "abs_suburb": "WARATAH",
        "facility_state": "TASMANIA",
        "abs_postcode": "7321",
        "facility_attribute_source": "DPIPWE",
        "facility_attribute_date": "2009-02-16T00:00:00Z",
        "facility_source": "DPIPWE",
        "facility_date": "2009-02-16T00:00:00Z",
        "facility_spatial_confidence": null,
        "facility_revised": "2014-12-12T00:00:00Z",
        "comment_": null,
        "facility_lat": "-41.44298599399997",
        "facility_long": "145.53240256300012",
        "validated": null,
        "gnaf_building_name": null,
        "gnaf_address_detail_pid": "GATAS716621028",
        "gnaf_formatted_address": "9 LITTLE QUIGGIN STREET",
        "gnaf_confidence": "2",
        "gnaf_postcode": "7321",
        "gnaf_suburb": "WARATAH",
        "distance_to_gnaf": 6,
        "gnaf_lat": "-41.44293346999996",
        "gnaf_long": "145.53241122000009"
      },
      "geometry": {
        "type": "Point",
        "coordinates": [
          145.53240797110584,
          -41.442972891544585
        ]
      }
    },
    {
      "type": "Feature",
      "properties": {
        "objectid": 293,
        "featuretype": "EMERGENCY FACILITY",
        "descripton": "An emergency management facility from which a particular agency\u2019s resources are commanded, coordinated and assigned to an incident or emergency",
        "class": "AMBULANCE STATION",
        "facility_name": "FLINDERS ISLAND AMBULANCE STATION",
        "facility_operationalstatus": "OPERATIONAL",
        "facility_address": null,
        "abs_suburb": "WHITEMARK",
        "facility_state": "TASMANIA",
        "abs_postcode": "7255",
        "facility_attribute_source": "DPIPWE",
        "facility_attribute_date": "2009-10-30T00:00:00Z",
        "facility_source": "DPIPWE",
        "facility_date": "2009-10-30T00:00:00Z",
        "facility_spatial_confidence": null,
        "facility_revised": "2014-12-12T00:00:00Z",
        "comment_": null,
        "facility_lat": "-40.12553976999993",
        "facility_long": "148.01802829300004",
        "validated": null,
        "gnaf_building_name": "STATE EMERGENCY SERVICE",
        "gnaf_address_detail_pid": "GATAS717913867",
        "gnaf_formatted_address": "21 PATRICK STREET",
        "gnaf_confidence": "1",
        "gnaf_postcode": "7255",
        "gnaf_suburb": "WHITEMARK",
        "distance_to_gnaf": 18,
        "gnaf_lat": "-40.125394349999965",
        "gnaf_long": "148.0181297700001"
      },
      "geometry": {
        "type": "Point",
        "coordinates": [
          148.018033397366,
          -40.12552684845305
        ]
      }
    },
    {
      "type": "Feature",
      "properties": {
        "objectid": 294,
        "featuretype": "EMERGENCY FACILITY",
        "descripton": "An emergency management facility from which a particular agency\u2019s resources are commanded, coordinated and assigned to an incident or emergency",
        "class": "AMBULANCE STATION",
        "facility_name": "WYNYARD AMBULANCE STATION",
        "facility_operationalstatus": "OPERATIONAL",
        "facility_address": null,
        "abs_suburb": "WYNYARD",
        "facility_state": "TASMANIA",
        "abs_postcode": "7325",
        "facility_attribute_source": "DPIPWE",
        "facility_attribute_date": "2009-02-16T00:00:00Z",
        "facility_source": "DPIPWE",
        "facility_date": "2009-02-16T00:00:00Z",
        "facility_spatial_confidence": null,
        "facility_revised": "2014-12-12T00:00:00Z",
        "comment_": null,
        "facility_lat": "-40.99051623399998",
        "facility_long": "145.7298031480001",
        "validated": null,
        "gnaf_building_name": null,
        "gnaf_address_detail_pid": "GATAS702224422",
        "gnaf_formatted_address": "35 DODGIN STREET",
        "gnaf_confidence": "2",
        "gnaf_postcode": "7325",
        "gnaf_suburb": "WYNYARD",
        "distance_to_gnaf": 10,
        "gnaf_lat": "-40.99046575999995",
        "gnaf_long": "145.7296995700001"
      },
      "geometry": {
        "type": "Point",
        "coordinates": [
          145.72980857390334,
          -40.99050314304464
        ]
      }
    },
    {
      "type": "Feature",
      "properties": {
        "objectid": 295,
        "featuretype": "EMERGENCY FACILITY",
        "descripton": "An emergency management facility from which a particular agency\u2019s resources are commanded, coordinated and assigned to an incident or emergency",
        "class": "AMBULANCE STATION",
        "facility_name": "ZEEHAN AMBULANCE STATION",
        "facility_operationalstatus": "OPERATIONAL",
        "facility_address": null,
        "abs_suburb": "ZEEHAN",
        "facility_state": "TASMANIA",
        "abs_postcode": "7469",
        "facility_attribute_source": "DPIPWE",
        "facility_attribute_date": "2004-04-29T00:00:00Z",
        "facility_source": "DPIPWE",
        "facility_date": "2004-04-29T00:00:00Z",
        "facility_spatial_confidence": null,
        "facility_revised": "2014-12-12T00:00:00Z",
        "comment_": null,
        "facility_lat": "-41.882659314999955",
        "facility_long": "145.33774218200006",
        "validated": null,
        "gnaf_building_name": null,
        "gnaf_address_detail_pid": "GATAS702624586",
        "gnaf_formatted_address": "3 ALTCAR STREET",
        "gnaf_confidence": "1",
        "gnaf_postcode": "7469",
        "gnaf_suburb": "ZEEHAN",
        "distance_to_gnaf": 24,
        "gnaf_lat": "-41.88287798999994",
        "gnaf_long": "145.33777593000002"
      },
      "geometry": {
        "type": "Point",
        "coordinates": [
          145.33774757388295,
          -41.88264620128212
        ]
      }
    },
    {
      "type": "Feature",
      "properties": {
        "objectid": 296,
        "featuretype": "EMERGENCY FACILITY",
        "descripton": "An emergency management facility from which a particular agency\u2019s resources are commanded, coordinated and assigned to an incident or emergency",
        "class": "AMBULANCE STATION",
        "facility_name": "WAYATINAH AMBULANCE STATION",
        "facility_operationalstatus": "OPERATIONAL",
        "facility_address": null,
        "abs_suburb": "WAYATINAH",
        "facility_state": "TASMANIA",
        "abs_postcode": "7140",
        "facility_attribute_source": "DPIPWE",
        "facility_attribute_date": "2002-03-28T00:00:00Z",
        "facility_source": "DPIPWE",
        "facility_date": "2002-03-28T00:00:00Z",
        "facility_spatial_confidence": null,
        "facility_revised": "2014-12-12T00:00:00Z",
        "comment_": "NO GNAF POINT",
        "facility_lat": "-42.389428804999966",
        "facility_long": "146.5039740520001",
        "validated": null,
        "gnaf_building_name": null,
        "gnaf_address_detail_pid": null,
        "gnaf_formatted_address": null,
        "gnaf_confidence": null,
        "gnaf_postcode": null,
        "gnaf_suburb": null,
        "distance_to_gnaf": null,
        "gnaf_lat": null,
        "gnaf_long": null
      },
      "geometry": {
        "type": "Point",
        "coordinates": [
          146.5039791415312,
          -42.38941577853199
        ]
      }
    },
    {
      "type": "Feature",
      "properties": {
        "objectid": 321,
        "featuretype": "EMERGENCY FACILITY",
        "descripton": "An emergency management facility from which a particular agency\u2019s resources are commanded, coordinated and assigned to an incident or emergency",
        "class": "AMBULANCE STATION",
        "facility_name": "SORELL AMBULANCE STATION",
        "facility_operationalstatus": "OPERATIONAL",
        "facility_address": null,
        "abs_suburb": "SORELL",
        "facility_state": "TASMANIA",
        "abs_postcode": "7172",
        "facility_attribute_source": "DPIPWE",
        "facility_attribute_date": "2004-06-24T00:00:00Z",
        "facility_source": "DPIPWE",
        "facility_date": "2004-06-24T00:00:00Z",
        "facility_spatial_confidence": null,
        "facility_revised": "2014-12-12T00:00:00Z",
        "comment_": null,
        "facility_lat": "-42.78162300899993",
        "facility_long": "147.56110378800008",
        "validated": null,
        "gnaf_building_name": null,
        "gnaf_address_detail_pid": "GATAS702208710",
        "gnaf_formatted_address": "44 COLE STREET",
        "gnaf_confidence": "2",
        "gnaf_postcode": "7172",
        "gnaf_suburb": "SORELL",
        "distance_to_gnaf": 15,
        "gnaf_lat": "-42.78149229999997",
        "gnaf_long": "147.56111075"
      },
      "geometry": {
        "type": "Point",
        "coordinates": [
          147.56110860620572,
          -42.78161006600889
        ]
      }
    },
    {
      "type": "Feature",
      "properties": {
        "objectid": 322,
        "featuretype": "EMERGENCY FACILITY",
        "descripton": "An emergency management facility from which a particular agency\u2019s resources are commanded, coordinated and assigned to an incident or emergency",
        "class": "AMBULANCE STATION",
        "facility_name": "BRUNY AMBULANCE STATION",
        "facility_operationalstatus": "OPERATIONAL",
        "facility_address": null,
        "abs_suburb": "SOUTH BRUNY",
        "facility_state": "TASMANIA",
        "abs_postcode": "7150",
        "facility_attribute_source": "DPIPWE",
        "facility_attribute_date": "2009-02-16T00:00:00Z",
        "facility_source": "DPIPWE",
        "facility_date": "2009-02-16T00:00:00Z",
        "facility_spatial_confidence": null,
        "facility_revised": "2014-12-12T00:00:00Z",
        "comment_": null,
        "facility_lat": "-43.312397783999984",
        "facility_long": "147.30207337700006",
        "validated": null,
        "gnaf_building_name": "SOUTH BRUNY FIRE STATION",
        "gnaf_address_detail_pid": "GATAS702221589",
        "gnaf_formatted_address": "3341 BRUNY ISLAND MAIN ROAD",
        "gnaf_confidence": "0",
        "gnaf_postcode": "7150",
        "gnaf_suburb": "SOUTH BRUNY",
        "distance_to_gnaf": 11,
        "gnaf_lat": "-43.31247407999996",
        "gnaf_long": "147.30199660000005"
      },
      "geometry": {
        "type": "Point",
        "coordinates": [
          147.30207817138043,
          -43.31238482351622
        ]
      }
    },
    {
      "type": "Feature",
      "properties": {
        "objectid": 323,
        "featuretype": "EMERGENCY FACILITY",
        "descripton": "An emergency management facility from which a particular agency\u2019s resources are commanded, coordinated and assigned to an incident or emergency",
        "class": "AMBULANCE STATION",
        "facility_name": "BURNIE AMBULANCE STATION",
        "facility_operationalstatus": "OPERATIONAL",
        "facility_address": null,
        "abs_suburb": "SOUTH BURNIE",
        "facility_state": "TASMANIA",
        "abs_postcode": "7320",
        "facility_attribute_source": "DPIPWE",
        "facility_attribute_date": "2003-10-29T00:00:00Z",
        "facility_source": "DPIPWE",
        "facility_date": "2003-10-29T00:00:00Z",
        "facility_spatial_confidence": null,
        "facility_revised": "2014-12-12T00:00:00Z",
        "comment_": null,
        "facility_lat": "-41.05880444199994",
        "facility_long": "145.90735705300006",
        "validated": null,
        "gnaf_building_name": null,
        "gnaf_address_detail_pid": "GATAS702346866",
        "gnaf_formatted_address": "2-4 STRAHAN STREET",
        "gnaf_confidence": "1",
        "gnaf_postcode": "7320",
        "gnaf_suburb": "SOUTH BURNIE",
        "distance_to_gnaf": 28,
        "gnaf_lat": "-41.059025609999935",
        "gnaf_long": "145.90720937000003"
      },
      "geometry": {
        "type": "Point",
        "coordinates": [
          145.9073624357918,
          -41.05879136421172
        ]
      }
    },
    {
      "type": "Feature",
      "properties": {
        "objectid": 324,
        "featuretype": "EMERGENCY FACILITY",
        "descripton": "An emergency management facility from which a particular agency\u2019s resources are commanded, coordinated and assigned to an incident or emergency",
        "class": "AMBULANCE STATION",
        "facility_name": "LAUNCESTON AMBULANCE STATION",
        "facility_operationalstatus": "OPERATIONAL",
        "facility_address": null,
        "abs_suburb": "SOUTH LAUNCESTON",
        "facility_state": "TASMANIA",
        "abs_postcode": "7249",
        "facility_attribute_source": "DPIPWE",
        "facility_attribute_date": "2009-02-16T00:00:00Z",
        "facility_source": "DPIPWE",
        "facility_date": "2009-02-16T00:00:00Z",
        "facility_spatial_confidence": null,
        "facility_revised": "2014-12-12T00:00:00Z",
        "comment_": null,
        "facility_lat": "-41.45968664399993",
        "facility_long": "147.15127232800012",
        "validated": null,
        "gnaf_building_name": "AMBULANCE STATION",
        "gnaf_address_detail_pid": "GATAS702367237",
        "gnaf_formatted_address": "450 WELLINGTON STREET",
        "gnaf_confidence": "2",
        "gnaf_postcode": "7249",
        "gnaf_suburb": "SOUTH LAUNCESTON",
        "distance_to_gnaf": 18,
        "gnaf_lat": "-41.45952291999998",
        "gnaf_long": "147.1512773500001"
      },
      "geometry": {
        "type": "Point",
        "coordinates": [
          147.15127741504347,
          -41.45967366160929
        ]
      }
    },
    {
      "type": "Feature",
      "properties": {
        "objectid": 325,
        "featuretype": "EMERGENCY FACILITY",
        "descripton": "An emergency management facility from which a particular agency\u2019s resources are commanded, coordinated and assigned to an incident or emergency",
        "class": "AMBULANCE STATION",
        "facility_name": "ST HELENS AMBULANCE STATION",
        "facility_operationalstatus": "OPERATIONAL",
        "facility_address": null,
        "abs_suburb": "ST HELENS",
        "facility_state": "TASMANIA",
        "abs_postcode": "7216",
        "facility_attribute_source": "DPIPWE",
        "facility_attribute_date": "2003-02-25T00:00:00Z",
        "facility_source": "DPIPWE",
        "facility_date": "2003-02-25T00:00:00Z",
        "facility_spatial_confidence": null,
        "facility_revised": "2014-12-12T00:00:00Z",
        "comment_": null,
        "facility_lat": "-41.32273664599995",
        "facility_long": "148.24794296800007",
        "validated": null,
        "gnaf_building_name": "ST HELENS AMBULANCE STATION",
        "gnaf_address_detail_pid": "GATAS702206347",
        "gnaf_formatted_address": "3 BOWEN STREET",
        "gnaf_confidence": "2",
        "gnaf_postcode": "7216",
        "gnaf_suburb": "ST HELENS",
        "distance_to_gnaf": 11,
        "gnaf_lat": "-41.32277076999998",
        "gnaf_long": "148.24781570000005"
      },
      "geometry": {
        "type": "Point",
        "coordinates": [
          148.24794786053732,
          -41.32272375011752
        ]
      }
    },
    {
      "type": "Feature",
      "properties": {
        "objectid": 326,
        "featuretype": "EMERGENCY FACILITY",
        "descripton": "An emergency management facility from which a particular agency\u2019s resources are commanded, coordinated and assigned to an incident or emergency",
        "class": "AMBULANCE STATION",
        "facility_name": "ST MARYS AMBULANCE STATION",
        "facility_operationalstatus": "OPERATIONAL",
        "facility_address": null,
        "abs_suburb": "ST MARYS",
        "facility_state": "TASMANIA",
        "abs_postcode": "7215",
        "facility_attribute_source": "DPIPWE",
        "facility_attribute_date": "2004-06-18T00:00:00Z",
        "facility_source": "DPIPWE",
        "facility_date": "2004-06-18T00:00:00Z",
        "facility_spatial_confidence": null,
        "facility_revised": "2014-12-12T00:00:00Z",
        "comment_": null,
        "facility_lat": "-41.575618876999954",
        "facility_long": "148.18144021900002",
        "validated": null,
        "gnaf_building_name": "ST MARYS COMMUNITY HEALTH CENT",
        "gnaf_address_detail_pid": "GATAS716711806",
        "gnaf_formatted_address": "13-17 GARDINERS CREEK ROAD",
        "gnaf_confidence": "1",
        "gnaf_postcode": "7215",
        "gnaf_suburb": "ST MARYS",
        "distance_to_gnaf": 31,
        "gnaf_lat": "-41.57586085999998",
        "gnaf_long": "148.1812607500001"
      },
      "geometry": {
        "type": "Point",
        "coordinates": [
          148.18144508799895,
          -41.57560597712696
        ]
      }
    },
    {
      "type": "Feature",
      "properties": {
        "objectid": 327,
        "featuretype": "EMERGENCY FACILITY",
        "descripton": "An emergency management facility from which a particular agency\u2019s resources are commanded, coordinated and assigned to an incident or emergency",
        "class": "AMBULANCE STATION",
        "facility_name": "STRAHAN AMBULANCE STATION",
        "facility_operationalstatus": "OPERATIONAL",
        "facility_address": null,
        "abs_suburb": "STRAHAN",
        "facility_state": "TASMANIA",
        "abs_postcode": "7468",
        "facility_attribute_source": "DPIPWE",
        "facility_attribute_date": "2009-02-16T00:00:00Z",
        "facility_source": "DPIPWE",
        "facility_date": "2009-02-16T00:00:00Z",
        "facility_spatial_confidence": null,
        "facility_revised": "2014-12-12T00:00:00Z",
        "comment_": null,
        "facility_lat": "-42.15331791999995",
        "facility_long": "145.3212603170001",
        "validated": null,
        "gnaf_building_name": "NURSE AND MEDICAL CENTRE",
        "gnaf_address_detail_pid": "GATAS717412674",
        "gnaf_formatted_address": "1-3 BAY STREET",
        "gnaf_confidence": "1",
        "gnaf_postcode": "7468",
        "gnaf_suburb": "STRAHAN",
        "distance_to_gnaf": 17,
        "gnaf_lat": "-42.15325722999995",
        "gnaf_long": "145.32144871000003"
      },
      "geometry": {
        "type": "Point",
        "coordinates": [
          145.32126567813833,
          -42.153304806616866
        ]
      }
    },
    {
      "type": "Feature",
      "properties": {
        "objectid": 328,
        "featuretype": "EMERGENCY FACILITY",
        "descripton": "An emergency management facility from which a particular agency\u2019s resources are commanded, coordinated and assigned to an incident or emergency",
        "class": "AMBULANCE STATION",
        "facility_name": "SWANSEA AMBULANCE STATION",
        "facility_operationalstatus": "OPERATIONAL",
        "facility_address": null,
        "abs_suburb": "SWANSEA",
        "facility_state": "TASMANIA",
        "abs_postcode": "7190",
        "facility_attribute_source": "DPIPWE",
        "facility_attribute_date": "2009-02-16T00:00:00Z",
        "facility_source": "DPIPWE",
        "facility_date": "2009-02-16T00:00:00Z",
        "facility_spatial_confidence": null,
        "facility_revised": "2014-12-12T00:00:00Z",
        "comment_": null,
        "facility_lat": "-42.12495730399996",
        "facility_long": "148.0764581310001",
        "validated": null,
        "gnaf_building_name": null,
        "gnaf_address_detail_pid": "GATAS720119277",
        "gnaf_formatted_address": "4 ARNOL STREET",
        "gnaf_confidence": "2",
        "gnaf_postcode": "7190",
        "gnaf_suburb": "SWANSEA",
        "distance_to_gnaf": 12,
        "gnaf_lat": "-42.124941959999944",
        "gnaf_long": "148.07631917000003"
      },
      "geometry": {
        "type": "Point",
        "coordinates": [
          148.07646294081886,
          -42.12494439867687
        ]
      }
    }
  ]
}