{"type":"FeatureCollection","features":[{"type":"Feature","id":1,"geometry":{"type":"Point","coordinates":[147.35228021534533,-42.94991283059748]},"properties":{"OBJECTID":1,"BRIGADE":"TAROONA","TFS_GROUP":"DERWENT","DISTRICT":"HOBART","REGION":"SOUTH","BRIG_NUMBER":2007,"ADDRESS":"Nubeena Cr, Taroona, Tas 7053","LIST_ADDRESS":"NUBEENA CR TAROONA TAS 7053","STATION_TYPE":"Volunteer","EASTING":528737.105,"NORTHING":5244687.08,"UPDATED":"20221004"}},{"type":"Feature","id":2,"geometry":{"type":"Point","coordinates":[148.06094600817127,-42.12678581576366]},"properties":{"OBJECTID":2,"BRIGADE":"SWANSEA","TFS_GROUP":"GLAMORGAN","DISTRICT":"EAST COAST","REGION":"SOUTH","BRIG_NUMBER":2426,"ADDRESS":"76 Maria St, Swansea, Tas 7190","LIST_ADDRESS":"76 MARIA ST SWANSEA TAS 7190","STATION_TYPE":"Volunteer","EASTING":587670.9974,"NORTHING":5335447.9996,"UPDATED":"20221004"}},{"type":"Feature","id":3,"geometry":{"type":"Point","coordinates":[148.1831220018188,-41.580570434450664]},"properties":{"OBJECTID":3,"BRIGADE":"ST MARYS","TFS_GROUP":"GOLDEN GATE","DISTRICT":"SOUTH ESK","REGION":"NORTH","BRIG_NUMBER":3526,"ADDRESS":"20-24 Main St, St Marys, Tas 7215","LIST_ADDRESS":"20-24 MAIN ST ST MARYS TAS 7215","STATION_TYPE":"Volunteer","EASTING":598625.0009,"NORTHING":5396115.0024,"UPDATED":"20221004"}},{"type":"Feature","id":4,"geometry":{"type":"Point","coordinates":[147.91771297785127,-42.50747121126036]},"properties":{"OBJECTID":4,"BRIGADE":"TRIABUNNA","TFS_GROUP":"SPRING BAY","DISTRICT":"EAST COAST","REGION":"SOUTH","BRIG_NUMBER":4913,"ADDRESS":"35 Vicary St, Triabunna, Tas 7190","LIST_ADDRESS":"35 VICARY ST TRIABUNNA TAS 7190","STATION_TYPE":"Volunteer","EASTING":575396.2346,"NORTHING":5293469.3193,"UPDATED":"20221004"}},{"type":"Feature","id":5,"geometry":{"type":"Point","coordinates":[147.46127004015983,-42.45457002196614]},"properties":{"OBJECTID":5,"BRIGADE":"TUNNACK","TFS_GROUP":"DULVERTON","DISTRICT":"MIDLANDS","REGION":"SOUTH","BRIG_NUMBER":2634,"ADDRESS":"27 Scotts Rd, Tunnack, Tas 7120","LIST_ADDRESS":"27 SCOTTS RD TUNNACK TAS 7120","STATION_TYPE":"Volunteer","EASTING":537856.2965,"NORTHING":5299571.8648,"UPDATED":"20221004"}},{"type":"Feature","id":6,"geometry":{"type":"Point","coordinates":[144.87943677581504,-40.960174356869096]},"properties":{"OBJECTID":6,"BRIGADE":"TOGARI","TFS_GROUP":"CIRCULAR HEAD","DISTRICT":"ARTHUR","REGION":"NORTH WEST","BRIG_NUMBER":4427,"ADDRESS":"7 Salmon River Rd, Togari, Tas 7330","LIST_ADDRESS":"7 SALMON RIVER RD TOGARI TAS 7330","STATION_TYPE":"Volunteer","EASTING":321544.2734,"NORTHING":5463498.5807,"UPDATED":"20221004"}},{"type":"Feature","id":7,"geometry":{"type":"Point","coordinates":[147.3336295254688,-42.691237439395536]},"properties":{"OBJECTID":7,"BRIGADE":"TEA TREE","TFS_GROUP":"COAL RIVER","DISTRICT":"EAST COAST","REGION":"SOUTH","BRIG_NUMBER":2725,"ADDRESS":"742 Tea Tree Rd, Tea Tree, Tas 7017","LIST_ADDRESS":"742 TEA TREE RD TEA TREE TAS 7017","STATION_TYPE":"Volunteer","EASTING":527329.3714,"NORTHING":5273417.8816,"UPDATED":"20221004"}},{"type":"Feature","id":8,"geometry":{"type":"Point","coordinates":[146.1645669338901,-41.16402559493743]},"properties":{"OBJECTID":8,"BRIGADE":"ULVERSTONE","TFS_GROUP":"LEVEN","DISTRICT":"MERSEY","REGION":"NORTH WEST","BRIG_NUMBER":4141,"ADDRESS":"46-52 Lovett St, Ulverstone, Tas 7315","LIST_ADDRESS":"46-52 LOVETT ST ULVERSTONE TAS 7315","STATION_TYPE":"Volunteer","EASTING":429912.9344,"NORTHING":5442697.9381,"UPDATED":"20221004"}},{"type":"Feature","id":9,"geometry":{"type":"Point","coordinates":[146.9286270287926,-42.99758853969059]},"properties":{"OBJECTID":9,"BRIGADE":"UPPER HUON","TFS_GROUP":"HUON","DISTRICT":"SOUTH WEST","REGION":"SOUTH","BRIG_NUMBER":2522,"ADDRESS":"1278 Glen Huon Rd, Judbury, Tas 7109","LIST_ADDRESS":"1278 GLEN HUON RD JUDBURY TAS 7109","STATION_TYPE":"Volunteer","EASTING":494182.2792,"NORTHING":5239450.5214,"UPDATED":"20221004"}},{"type":"Feature","id":10,"geometry":{"type":"Point","coordinates":[147.42871965411175,-42.13944604297412]},"properties":{"OBJECTID":10,"BRIGADE":"TUNBRIDGE","TFS_GROUP":"DULVERTON","DISTRICT":"MIDLANDS","REGION":"SOUTH","BRIG_NUMBER":2633,"ADDRESS":"Thomas St, Tunbridge, Tas 7120","LIST_ADDRESS":"THOMAS ST TUNBRIDGE TAS 7120","STATION_TYPE":"Volunteer","EASTING":535427.9517,"NORTHING":5334652.1212,"UPDATED":"20221004"}},{"type":"Feature","id":11,"geometry":{"type":"Point","coordinates":[145.53204421124522,-41.44385832372716]},"properties":{"OBJECTID":11,"BRIGADE":"WARATAH","TFS_GROUP":"WEST COAST","DISTRICT":"ARTHUR","REGION":"NORTH WEST","BRIG_NUMBER":4635,"ADDRESS":"19 Smith St, Waratah, Tas 7321","LIST_ADDRESS":"19 SMITH ST WARATAH TAS 7321","STATION_TYPE":"Volunteer","EASTING":377372.9013,"NORTHING":5410928.675,"UPDATED":"20221004"}},{"type":"Feature","id":12,"geometry":{"type":"Point","coordinates":[147.90436018590617,-41.193419672380166]},"properties":{"OBJECTID":12,"BRIGADE":"WELDBOROUGH","TFS_GROUP":"BRIESIES","DISTRICT":"NORTH EAST","REGION":"NORTH","BRIG_NUMBER":3634,"ADDRESS":"29740 Main Rd, Weldborough, Tas 7264","LIST_ADDRESS":"29740 MAIN RD WELDBOROUGH TAS 7264","STATION_TYPE":"Volunteer","EASTING":575835.7226,"NORTHING":5439376.9681,"UPDATED":"20221004"}},{"type":"Feature","id":13,"geometry":{"type":"Point","coordinates":[147.6174718730652,-40.926861340815165]},"properties":{"OBJECTID":13,"BRIGADE":"WATERHOUSE","TFS_GROUP":"MT CAMERON","DISTRICT":"NORTH EAST","REGION":"NORTH","BRIG_NUMBER":3655,"ADDRESS":"2301 Waterhouse Rd, Waterhouse, Tas 7262","LIST_ADDRESS":"2301 WATERHOUSE RD WATERHOUSE TAS 7262","STATION_TYPE":"Volunteer","EASTING":551987.8365,"NORTHING":5469178.4531,"UPDATED":"20221004"}},{"type":"Feature","id":14,"geometry":{"type":"Point","coordinates":[147.27215974914083,-42.84215913775758]},"properties":{"OBJECTID":14,"BRIGADE":"WELLINGTON","TFS_GROUP":"DERWENT","DISTRICT":"HOBART","REGION":"SOUTH","BRIG_NUMBER":2732,"ADDRESS":"28 Vieste Dr, Glenorchy, Tas 7010","LIST_ADDRESS":"28 VIESTE DR GLENORCHY TAS 7010","STATION_TYPE":"Volunteer","EASTING":522239.9969,"NORTHING":5256677.0034,"UPDATED":"20221004"}},{"type":"Feature","id":15,"geometry":{"type":"Point","coordinates":[146.45563279548458,-41.18987429474619]},"properties":{"OBJECTID":15,"BRIGADE":"WESLEY VALE","TFS_GROUP":"PARDOE","DISTRICT":"MERSEY","REGION":"NORTH WEST","BRIG_NUMBER":4526,"ADDRESS":"5 Westwind Dr, Wesley Vale, Tas 7307","LIST_ADDRESS":"5 WESTWIND DR WESLEY VALE TAS 7307","STATION_TYPE":"Volunteer","EASTING":454349.4273,"NORTHING":5440021.923,"UPDATED":"20221004"}},{"type":"Feature","id":16,"geometry":{"type":"Point","coordinates":[147.6228703140365,-42.760807611967316]},"properties":{"OBJECTID":16,"BRIGADE":"WATTLE HILL","TFS_GROUP":"SORELL","DISTRICT":"EAST COAST","REGION":"SOUTH","BRIG_NUMBER":2443,"ADDRESS":"506 Nugent Rd, Wattle Hill, Tas 7172","LIST_ADDRESS":"506 NUGENT RD WATTLE HILL TAS 7172","STATION_TYPE":"Volunteer","EASTING":550965.6998,"NORTHING":5265558.4661,"UPDATED":"20221004"}},{"type":"Feature","id":17,"geometry":{"type":"Point","coordinates":[146.83365914379178,-41.526801740683204]},"properties":{"OBJECTID":17,"BRIGADE":"WESTBURY","TFS_GROUP":"QUAMBY","DISTRICT":"TAMAR","REGION":"NORTH","BRIG_NUMBER":3467,"ADDRESS":"31 William St, Westbury, Tas 7303","LIST_ADDRESS":"31 WILLIAM ST WESTBURY TAS 7303","STATION_TYPE":"Volunteer","EASTING":486122.4545,"NORTHING":5402746.9088,"UPDATED":"20221004"}},{"type":"Feature","id":18,"geometry":{"type":"Point","coordinates":[147.10704165554364,-41.016829746979546]},"properties":{"OBJECTID":18,"BRIGADE":"WEYMOUTH","TFS_GROUP":"DALRYMPLE","DISTRICT":"NORTH EAST","REGION":"NORTH","BRIG_NUMBER":3622,"ADDRESS":"929 Weymouth Rd, Weymouth, Tas 7252","LIST_ADDRESS":"929 WEYMOUTH RD WEYMOUTH TAS 7252","STATION_TYPE":"Volunteer","EASTING":508254.5208,"NORTHING":5460011.9776,"UPDATED":"20221004"}},{"type":"Feature","id":19,"geometry":{"type":"Point","coordinates":[146.79033023556892,-42.66884313113042]},"properties":{"OBJECTID":19,"BRIGADE":"WESTERWAY","TFS_GROUP":"UPPER DERWENT","DISTRICT":"MIDLANDS","REGION":"SOUTH","BRIG_NUMBER":2709,"ADDRESS":"60 Ellendale Rd, Westerway, Tas 7140","LIST_ADDRESS":"60 ELLENDALE RD WESTERWAY TAS 7140","STATION_TYPE":"Volunteer","EASTING":482818.6688,"NORTHING":5275937.2368,"UPDATED":"20221004"}},{"type":"Feature","id":20,"geometry":{"type":"Point","coordinates":[148.0181297702777,-40.12539434331923]},"properties":{"OBJECTID":20,"BRIGADE":"WHITEMARK","TFS_GROUP":"FLINDERS","DISTRICT":"NORTH EAST","REGION":"NORTH","BRIG_NUMBER":3606,"ADDRESS":"21 Patrick St, Whitemark, Tas 7255","LIST_ADDRESS":"21 PATRICK ST WHITEMARK TAS 7255","STATION_TYPE":"Volunteer","EASTING":586748.8573,"NORTHING":5557828.3358,"UPDATED":"20221004"}},{"type":"Feature","id":21,"geometry":{"type":"Point","coordinates":[146.93078612328972,-41.582494876931335]},"properties":{"OBJECTID":21,"BRIGADE":"WHITEMORE","TFS_GROUP":"QUAMBY","DISTRICT":"TAMAR","REGION":"NORTH","BRIG_NUMBER":3469,"ADDRESS":"769 Whitemore Rd, Whitemore, Tas 7303","LIST_ADDRESS":"769 WHITEMORE RD WHITEMORE TAS 7303","STATION_TYPE":"Volunteer","EASTING":494230.5549,"NORTHING":5396574.8872,"UPDATED":"20221004"}},{"type":"Feature","id":22,"geometry":{"type":"Point","coordinates":[147.03483488346157,-43.16923282775012]},"properties":{"OBJECTID":22,"BRIGADE":"WATTLE GROVE","TFS_GROUP":"D ENTRECASTEAUX","DISTRICT":"SOUTH WEST","REGION":"SOUTH","BRIG_NUMBER":2546,"ADDRESS":"310 Wattle Grove Rd, Wattle Grove, Tas 7109","LIST_ADDRESS":"310 WATTLE GROVE RD WATTLE GROVE TAS 7109","STATION_TYPE":"Volunteer","EASTING":502777.7611,"NORTHING":5220245.8075,"UPDATED":"20221004"}},{"type":"Feature","id":23,"geometry":{"type":"Point","coordinates":[146.17590572003627,-41.38531274217478]},"properties":{"OBJECTID":23,"BRIGADE":"WILMOT","TFS_GROUP":"BARRINGTON","DISTRICT":"MERSEY","REGION":"NORTH WEST","BRIG_NUMBER":4507,"ADDRESS":"61 Main St, Wilmot, Tas 7310","LIST_ADDRESS":"61 MAIN ST WILMOT TAS 7310","STATION_TYPE":"Volunteer","EASTING":431097.2953,"NORTHING":5418140.5238,"UPDATED":"20221004"}},{"type":"Feature","id":24,"geometry":{"type":"Point","coordinates":[146.8385122660631,-41.29007722259295]},"properties":{"OBJECTID":24,"BRIGADE":"WINKLEIGH","TFS_GROUP":"WEST TAMAR","DISTRICT":"TAMAR","REGION":"NORTH","BRIG_NUMBER":3411,"ADDRESS":"1068 Winkleigh Rd, Winkleigh, Tas 7275","LIST_ADDRESS":"1068 WINKLEIGH RD WINKLEIGH TAS 7275","STATION_TYPE":"Volunteer","EASTING":486478.35000000003,"NORTHING":5429028.2273,"UPDATED":"20221004"}},{"type":"Feature","id":25,"geometry":{"type":"Point","coordinates":[145.72969954674133,-40.99046575918525]},"properties":{"OBJECTID":25,"BRIGADE":"WYNYARD","TFS_GROUP":"CAPE COUNTRY","DISTRICT":"ARTHUR","REGION":"NORTH WEST","BRIG_NUMBER":4103,"ADDRESS":"35 Dodgin St, Wynyard, Tas 7325","LIST_ADDRESS":"35 DODGIN ST WYNYARD TAS 7325","STATION_TYPE":"Volunteer","EASTING":393149.154,"NORTHING":5461524.3126,"UPDATED":"20221004"}},{"type":"Feature","id":26,"geometry":{"type":"Point","coordinates":[145.7144016515762,-41.12803894086112]},"properties":{"OBJECTID":26,"BRIGADE":"YOLLA","TFS_GROUP":"CAPE COUNTRY","DISTRICT":"ARTHUR","REGION":"NORTH WEST","BRIG_NUMBER":4454,"ADDRESS":"1617 Murchison Hwy, Yolla, Tas 7325","LIST_ADDRESS":"1617 MURCHISON HWY YOLLA TAS 7325","STATION_TYPE":"Volunteer","EASTING":392087.4744,"NORTHING":5446232.8623,"UPDATED":"20221004"}},{"type":"Feature","id":27,"geometry":{"type":"Point","coordinates":[147.8262748206385,-41.09583364834154]},"properties":{"OBJECTID":27,"BRIGADE":"WINNALEAH","TFS_GROUP":"BRIESIES","DISTRICT":"NORTH EAST","REGION":"NORTH","BRIG_NUMBER":3645,"ADDRESS":"Lot 1 Main St, Winnaleah, Tas 7265","LIST_ADDRESS":"Lot 1 MAIN ST WINNALEAH TAS 7265","STATION_TYPE":"Volunteer","EASTING":569390.5597,"NORTHING":5450275.5041,"UPDATED":"20221004"}},{"type":"Feature","id":28,"geometry":{"type":"Point","coordinates":[145.33751054831095,-41.886943034934795]},"properties":{"OBJECTID":28,"BRIGADE":"ZEEHAN","TFS_GROUP":"WEST COAST","DISTRICT":"ARTHUR","REGION":"NORTH WEST","BRIG_NUMBER":4146,"ADDRESS":"91 Main St, Zeehan, Tas 7469","LIST_ADDRESS":"91 MAIN ST ZEEHAN TAS 7469","STATION_TYPE":"Volunteer","EASTING":362070.9971,"NORTHING":5361439.9986,"UPDATED":"20221004"}},{"type":"Feature","id":29,"geometry":{"type":"Point","coordinates":[147.5733984995253,-42.47314868741009]},"properties":{"OBJECTID":29,"BRIGADE":"WOODSDALE","TFS_GROUP":"DULVERTON","DISTRICT":"MIDLANDS","REGION":"SOUTH","BRIG_NUMBER":2636,"ADDRESS":"2278 Woodsdale Rd, Woodsdale, Tas 7120","LIST_ADDRESS":"2278 WOODSDALE RD WOODSDALE TAS 7120","STATION_TYPE":"Volunteer","EASTING":547228.7597,"NORTHING":5297519.3933,"UPDATED":"20221004"}},{"type":"Feature","id":30,"geometry":{"type":"Point","coordinates":[146.90491328215944,-42.0376037630591]},"properties":{"OBJECTID":30,"BRIGADE":"ARTHURS LAKE","TFS_GROUP":"HIGHLAND LAKES","DISTRICT":"MIDLANDS","REGION":"SOUTH","BRIG_NUMBER":2602,"ADDRESS":"83 Wilburville Rd, Wilburville, Tas 7030","LIST_ADDRESS":"83 WILBURVILLE RD WILBURVILLE TAS 7030","STATION_TYPE":"Volunteer","EASTING":492129.7819,"NORTHING":5346044.2858,"UPDATED":"20221004"}},{"type":"Feature","id":31,"geometry":{"type":"Point","coordinates":[148.2747759343628,-41.03382999572902]},"properties":{"OBJECTID":31,"BRIGADE":"ANSONS BAY","TFS_GROUP":"MT CAMERON","DISTRICT":"NORTH EAST","REGION":"NORTH","BRIG_NUMBER":3637,"ADDRESS":"54 North Ansons Rd, Ansons Bay, Tas 7264","LIST_ADDRESS":"54 NORTH ANSONS RD ANSONS BAY TAS 7264","STATION_TYPE":"Volunteer","EASTING":607157.0107,"NORTHING":5456704.8077,"UPDATED":"20221004"}},{"type":"Feature","id":63,"geometry":{"type":"Point","coordinates":[147.35087185550748,-42.81048141066063]},"properties":{"OBJECTID":63,"BRIGADE":"RISDON VALE","TFS_GROUP":"CLARENCE","DISTRICT":"HOBART","REGION":"SOUTH","BRIG_NUMBER":2006,"ADDRESS":"23 Sugarloaf Rd, Risdon Vale, Tas 7016","LIST_ADDRESS":"23 SUGARLOAF RD RISDON VALE TAS 7016","STATION_TYPE":"Volunteer","EASTING":528686.7398,"NORTHING":5260170.8791,"UPDATED":"20221004"}},{"type":"Feature","id":64,"geometry":{"type":"Point","coordinates":[147.43027890396777,-42.89006389367126]},"properties":{"OBJECTID":64,"BRIGADE":"ROKEBY","TFS_GROUP":"CLARENCE","DISTRICT":"HOBART","REGION":"SOUTH","BRIG_NUMBER":2005,"ADDRESS":"37 Tollard Dr, Rokeby, Tas 7019","LIST_ADDRESS":"37 TOLLARD DR ROKEBY TAS 7019","STATION_TYPE":"Composite","EASTING":535133.8104,"NORTHING":5251303.5167,"UPDATED":"20221004"}},{"type":"Feature","id":65,"geometry":{"type":"Point","coordinates":[145.54602707075088,-41.779433098927456]},"properties":{"OBJECTID":65,"BRIGADE":"ROSEBERY/TULLAH","TFS_GROUP":"WEST COAST","DISTRICT":"ARTHUR","REGION":"NORTH WEST","BRIG_NUMBER":4601,"ADDRESS":"11 Dalmeny St, Rosebery, Tas 7470","LIST_ADDRESS":"11 DALMENY ST ROSEBERY TAS 7470","STATION_TYPE":"Volunteer","EASTING":379169.0031,"NORTHING":5373690.9992,"UPDATED":"20221004"}},{"type":"Feature","id":66,"geometry":{"type":"Point","coordinates":[147.12539656433307,-41.37659803625965]},"properties":{"OBJECTID":66,"BRIGADE":"ROCHERLEA","TFS_GROUP":"LAUNCESTON","DISTRICT":"LAUNCESTON","REGION":"NORTH","BRIG_NUMBER":3002,"ADDRESS":"226 George Town Rd, Rocherlea, Tas 7248","LIST_ADDRESS":"226 GEORGE TOWN RD ROCHERLEA TAS 7248","STATION_TYPE":"Composite","EASTING":510485.789,"NORTHING":5419428.0279,"UPDATED":"20221004"}},{"type":"Feature","id":67,"geometry":{"type":"Point","coordinates":[146.8998859019944,-41.18580337163133]},"properties":{"OBJECTID":67,"BRIGADE":"ROWELLA","TFS_GROUP":"WEST TAMAR","DISTRICT":"TAMAR","REGION":"NORTH","BRIG_NUMBER":3409,"ADDRESS":"430 Rowella Rd, Rowella, Tas 7270","LIST_ADDRESS":"430 ROWELLA RD ROWELLA TAS 7270","STATION_TYPE":"Volunteer","EASTING":491603.9394,"NORTHING":5440611.8374,"UPDATED":"20221004"}},{"type":"Feature","id":68,"geometry":{"type":"Point","coordinates":[147.49661012815312,-42.026266059024785]},"properties":{"OBJECTID":68,"BRIGADE":"ROSS","TFS_GROUP":"ELIZABETH","DISTRICT":"SOUTH ESK","REGION":"NORTH","BRIG_NUMBER":3552,"ADDRESS":"9 Bond St, Ross, Tas 7209","LIST_ADDRESS":"9 BOND ST ROSS TAS 7209","STATION_TYPE":"Volunteer","EASTING":541191.2384,"NORTHING":5347172.5226,"UPDATED":"20221004"}},{"type":"Feature","id":69,"geometry":{"type":"Point","coordinates":[147.4386561979471,-42.73090060527789]},"properties":{"OBJECTID":69,"BRIGADE":"RICHMOND","TFS_GROUP":"COAL RIVER","DISTRICT":"EAST COAST","REGION":"SOUTH","BRIG_NUMBER":2434,"ADDRESS":"12 Victoria St, Richmond, Tas 7025","LIST_ADDRESS":"12 VICTORIA ST RICHMOND TAS 7025","STATION_TYPE":"Volunteer","EASTING":535909.8053,"NORTHING":5268974.2521,"UPDATED":"20221004"}},{"type":"Feature","id":70,"geometry":{"type":"Point","coordinates":[147.7463614753959,-41.66684993096979]},"properties":{"OBJECTID":70,"BRIGADE":"ROSSARDEN","TFS_GROUP":"GOLDEN GATE","DISTRICT":"SOUTH ESK","REGION":"NORTH","BRIG_NUMBER":3525,"ADDRESS":"1-3 Schell St, Rossarden, Tas 7213","LIST_ADDRESS":"1-3 SCHELL ST ROSSARDEN TAS 7213","STATION_TYPE":"Volunteer","EASTING":562124.4778,"NORTHING":5386906.734,"UPDATED":"20221004"}},{"type":"Feature","id":71,"geometry":{"type":"Point","coordinates":[147.19513634615095,-42.985427320440714]},"properties":{"OBJECTID":71,"BRIGADE":"SANDFLY","TFS_GROUP":"NORTHWEST BAY","DISTRICT":"SOUTH WEST","REGION":"SOUTH","BRIG_NUMBER":2534,"ADDRESS":"9 Pelverata Rd, Sandfly, Tas 7150","LIST_ADDRESS":"9 PELVERATA RD SANDFLY TAS 7150","STATION_TYPE":"Volunteer","EASTING":515909.0024,"NORTHING":5240785.0021,"UPDATED":"20221004"}},{"type":"Feature","id":72,"geometry":{"type":"Point","coordinates":[146.60119819723525,-41.160893632378595]},"properties":{"OBJECTID":72,"BRIGADE":"RUBICON","TFS_GROUP":"PARDOE","DISTRICT":"MERSEY","REGION":"NORTH WEST","BRIG_NUMBER":4527,"ADDRESS":"Marana Dr, Bakers Beach, Tas 7307","LIST_ADDRESS":"MARANA DR BAKERS BEACH TAS 7307","STATION_TYPE":"Volunteer","EASTING":466541.8137,"NORTHING":5443305.3291,"UPDATED":"20221004"}},{"type":"Feature","id":73,"geometry":{"type":"Point","coordinates":[147.5611060807382,-42.64169368611673]},"properties":{"OBJECTID":73,"BRIGADE":"RUNNYMEDE","TFS_GROUP":"SPRING BAY","DISTRICT":"EAST COAST","REGION":"SOUTH","BRIG_NUMBER":2435,"ADDRESS":"60 Woodsdale Rd, Runnymede, Tas 7190","LIST_ADDRESS":"60 WOODSDALE RD RUNNYMEDE TAS 7190","STATION_TYPE":"Volunteer","EASTING":545999.7416,"NORTHING":5278820.6775,"UPDATED":"20221004"}},{"type":"Feature","id":74,"geometry":{"type":"Point","coordinates":[146.51668624220414,-41.3016711968949]},"properties":{"OBJECTID":74,"BRIGADE":"SASSAFRAS","TFS_GROUP":"PARDOE","DISTRICT":"MERSEY","REGION":"NORTH WEST","BRIG_NUMBER":4524,"ADDRESS":"7723 Bass Hwy, Sassafras, Tas 7307","LIST_ADDRESS":"7723 BASS HWY SASSAFRAS TAS 7307","STATION_TYPE":"Volunteer","EASTING":459538.4045,"NORTHING":5427641.0561,"UPDATED":"20221004"}},{"type":"Feature","id":75,"geometry":{"type":"Point","coordinates":[147.50039298412023,-42.94638946838123]},"properties":{"OBJECTID":75,"BRIGADE":"SANDFORD","TFS_GROUP":"CLARENCE","DISTRICT":"HOBART","REGION":"SOUTH","BRIG_NUMBER":2742,"ADDRESS":"1089 South Arm Rd, Sandford, Tas 7020","LIST_ADDRESS":"1089 SOUTH ARM RD SANDFORD TAS 7020","STATION_TYPE":"Volunteer","EASTING":540935.8124,"NORTHING":5244522.1616,"UPDATED":"20221004"}},{"type":"Feature","id":76,"geometry":{"type":"Point","coordinates":[148.2613292648772,-41.45391623113679]},"properties":{"OBJECTID":76,"BRIGADE":"SCAMANDER","TFS_GROUP":"BEAUMARIS","DISTRICT":"SOUTH ESK","REGION":"NORTH","BRIG_NUMBER":3633,"ADDRESS":"12 Campbell St, Scamander, Tas 7215","LIST_ADDRESS":"12 CAMPBELL ST SCAMANDER TAS 7215","STATION_TYPE":"Volunteer","EASTING":605349.699,"NORTHING":5410084.1951,"UPDATED":"20221004"}},{"type":"Feature","id":77,"geometry":{"type":"Point","coordinates":[145.5650022743289,-40.918122264578514]},"properties":{"OBJECTID":77,"BRIGADE":"SISTERS BEACH","TFS_GROUP":"CAPE COUNTRY","DISTRICT":"ARTHUR","REGION":"NORTH WEST","BRIG_NUMBER":4449,"ADDRESS":"34 Honeysuckle Av, Sisters Beach, Tas 7321","LIST_ADDRESS":"34 HONEYSUCKLE AV SISTERS BEACH TAS 7321","STATION_TYPE":"Volunteer","EASTING":379163.4502,"NORTHING":5469340.8502,"UPDATED":"20221004"}},{"type":"Feature","id":78,"geometry":{"type":"Point","coordinates":[147.5105571682351,-41.159563656892566]},"properties":{"OBJECTID":78,"BRIGADE":"SCOTTSDALE","TFS_GROUP":"DORSET","DISTRICT":"NORTH EAST","REGION":"NORTH","BRIG_NUMBER":3164,"ADDRESS":"33 William St, Scottsdale, Tas 7260","LIST_ADDRESS":"33 WILLIAM ST SCOTTSDALE TAS 7260","STATION_TYPE":"Volunteer","EASTING":542834.9973,"NORTHING":5443404.0018,"UPDATED":"20221004"}},{"type":"Feature","id":79,"geometry":{"type":"Point","coordinates":[147.25420780751983,-43.06819186688116]},"properties":{"OBJECTID":79,"BRIGADE":"SNUG","TFS_GROUP":"NORTHWEST BAY","DISTRICT":"SOUTH WEST","REGION":"SOUTH","BRIG_NUMBER":2537,"ADDRESS":"10 Wellbor Av, Snug, Tas 7054","LIST_ADDRESS":"10 WELLBOR RD SNUG TAS 7054","STATION_TYPE":"Volunteer","EASTING":520697.1356,"NORTHING":5231581.2145,"UPDATED":"20221004"}},{"type":"Feature","id":80,"geometry":{"type":"Point","coordinates":[145.12340489053116,-40.84393705735863]},"properties":{"OBJECTID":80,"BRIGADE":"SMITHTON","TFS_GROUP":"CIRCULAR HEAD","DISTRICT":"ARTHUR","REGION":"NORTH WEST","BRIG_NUMBER":4104,"ADDRESS":"35a Gibson St, Smithton, Tas 7330","LIST_ADDRESS":"35A GIBSON ST SMITHTON TAS 7330","STATION_TYPE":"Volunteer","EASTING":341799.6558,"NORTHING":5476872.4905,"UPDATED":"20221004"}},{"type":"Feature","id":81,"geometry":{"type":"Point","coordinates":[146.323829798584,-41.38260668674338]},"properties":{"OBJECTID":81,"BRIGADE":"SHEFFIELD","TFS_GROUP":"ROLAND","DISTRICT":"MERSEY","REGION":"NORTH WEST","BRIG_NUMBER":4109,"ADDRESS":"37 High St, Sheffield, Tas 7306","LIST_ADDRESS":"37 HIGH ST SHEFFIELD TAS 7306","STATION_TYPE":"Volunteer","EASTING":443462.9977,"NORTHING":5418548.003,"UPDATED":"20221004"}},{"type":"Feature","id":82,"geometry":{"type":"Point","coordinates":[147.51130265493654,-42.85539831168665]},"properties":{"OBJECTID":82,"BRIGADE":"SEVEN MILE BEACH","TFS_GROUP":"CLARENCE","DISTRICT":"HOBART","REGION":"SOUTH","BRIG_NUMBER":2743,"ADDRESS":"76 Surf Rd, Seven Mile Beach, Tas 7170","LIST_ADDRESS":"76 SURF RD SEVEN MILE BEACH TAS 7170","STATION_TYPE":"Volunteer","EASTING":541773.0745,"NORTHING":5255115.9972,"UPDATED":"20221004"}},{"type":"Feature","id":83,"geometry":{"type":"Point","coordinates":[147.55941746270136,-42.77950700980414]},"properties":{"OBJECTID":83,"BRIGADE":"SORELL","TFS_GROUP":"SORELL","DISTRICT":"EAST COAST","REGION":"SOUTH","BRIG_NUMBER":2146,"ADDRESS":"47 Cole St, Sorell, Tas 7172","LIST_ADDRESS":"47 COLE ST SORELL TAS 7172","STATION_TYPE":"Volunteer","EASTING":545759.9563,"NORTHING":5263518.3761,"UPDATED":"20221004"}},{"type":"Feature","id":84,"geometry":{"type":"Point","coordinates":[147.41578785043797,-43.02802792351927]},"properties":{"OBJECTID":84,"BRIGADE":"SOUTH ARM","TFS_GROUP":"CLARENCE","DISTRICT":"HOBART","REGION":"SOUTH","BRIG_NUMBER":2744,"ADDRESS":"1 Jetty Rd, South Arm, Tas 7022","LIST_ADDRESS":"1 JETTY RD SOUTH ARM TAS 7022","STATION_TYPE":"Volunteer","EASTING":533874.7951,"NORTHING":5235988.8723,"UPDATED":"20221004"}},{"type":"Feature","id":85,"geometry":{"type":"Point","coordinates":[145.83016294376472,-41.045066189290836]},"properties":{"OBJECTID":85,"BRIGADE":"SOMERSET","TFS_GROUP":"CAPE COUNTRY","DISTRICT":"ARTHUR","REGION":"NORTH WEST","BRIG_NUMBER":4105,"ADDRESS":"4b Old Cam Rd, Somerset, Tas 7322","LIST_ADDRESS":"4B OLD CAM RD SOMERSET TAS 7322","STATION_TYPE":"Volunteer","EASTING":401681.0011,"NORTHING":5455581.0032,"UPDATED":"20221004"}},{"type":"Feature","id":86,"geometry":{"type":"Point","coordinates":[146.15617270846434,-41.2665977942141]},"properties":{"OBJECTID":86,"BRIGADE":"SPRENT","TFS_GROUP":"LEVEN","DISTRICT":"MERSEY","REGION":"NORTH WEST","BRIG_NUMBER":4546,"ADDRESS":"1296 Castra Rd, Sprent, Tas 7315","LIST_ADDRESS":"1296 CASTRA RD SPRENT TAS 7315","STATION_TYPE":"Volunteer","EASTING":429319.2166,"NORTHING":5431304.0655,"UPDATED":"20221004"}},{"type":"Feature","id":87,"geometry":{"type":"Point","coordinates":[145.2931308034451,-40.76275040348071]},"properties":{"OBJECTID":87,"BRIGADE":"STANLEY","TFS_GROUP":"CIRCULAR HEAD","DISTRICT":"ARTHUR","REGION":"NORTH WEST","BRIG_NUMBER":4112,"ADDRESS":"7 Marine Esp, Stanley, Tas 7331","LIST_ADDRESS":"7 MARINE ESP STANLEY TAS 7331","STATION_TYPE":"Volunteer","EASTING":355933.0024,"NORTHING":5486177.9989,"UPDATED":"20221004"}},{"type":"Feature","id":88,"geometry":{"type":"Point","coordinates":[147.30199664182098,-43.31247409553723]},"properties":{"OBJECTID":88,"BRIGADE":"SOUTH BRUNY","TFS_GROUP":"D ENTRECASTEAUX","DISTRICT":"SOUTH WEST","REGION":"SOUTH","BRIG_NUMBER":2502,"ADDRESS":"3341 Bruny Island Main Rd, South Bruny, Tas 7150","LIST_ADDRESS":"3341 BRUNY ISLAND MAIN RD SOUTH BRUNY TAS 7150","STATION_TYPE":"Volunteer","EASTING":524490.1526,"NORTHING":5204440.2618,"UPDATED":"20221004"}},{"type":"Feature","id":89,"geometry":{"type":"Point","coordinates":[146.97961716322052,-43.434253759474494]},"properties":{"OBJECTID":89,"BRIGADE":"SOUTHPORT","TFS_GROUP":"ESPERANCE","DISTRICT":"SOUTH WEST","REGION":"SOUTH","BRIG_NUMBER":2516,"ADDRESS":"3 Cathkit St, Southport, Tas 7109","LIST_ADDRESS":"3 CATHKIT ST SOUTHPORT TAS 7109","STATION_TYPE":"Volunteer","EASTING":498350.3763,"NORTHING":5190960.0239,"UPDATED":"20221004"}},{"type":"Feature","id":90,"geometry":{"type":"Point","coordinates":[148.24575066055877,-41.322906037278635]},"properties":{"OBJECTID":90,"BRIGADE":"ST HELENS","TFS_GROUP":"BEAUMARIS","DISTRICT":"SOUTH ESK","REGION":"NORTH","BRIG_NUMBER":3135,"ADDRESS":"18 Circassian St, St Helens, Tas 7216","LIST_ADDRESS":"18 CIRCASSIAN ST ST HELENS TAS 7216","STATION_TYPE":"Volunteer","EASTING":604257.6232,"NORTHING":5424647.8422,"UPDATED":"20221004"}},{"type":"Feature","id":91,"geometry":{"type":"Point","coordinates":[145.92340415539832,-41.17134295535817]},"properties":{"OBJECTID":91,"BRIGADE":"STOWPORT/NATONE","TFS_GROUP":"CAPE COUNTRY","DISTRICT":"ARTHUR","REGION":"NORTH WEST","BRIG_NUMBER":4404,"ADDRESS":"133 Upper Natone Rd, Natone, Tas 7321","LIST_ADDRESS":"133 UPPER NATONE RD NATONE TAS 7321","STATION_TYPE":"Volunteer","EASTING":409690.8048,"NORTHING":5441663.3726,"UPDATED":"20221004"}},{"type":"Feature","id":92,"geometry":{"type":"Point","coordinates":[145.3289150742104,-42.1496541340469]},"properties":{"OBJECTID":92,"BRIGADE":"STRAHAN","TFS_GROUP":"WEST COAST","DISTRICT":"ARTHUR","REGION":"NORTH WEST","BRIG_NUMBER":4621,"ADDRESS":"18 Reid St, Strahan, Tas 7468","LIST_ADDRESS":"18 REID ST STRAHAN TAS 7468","STATION_TYPE":"Volunteer","EASTING":361927.4872,"NORTHING":5332256.2255,"UPDATED":"20221004"}},{"type":"Feature","id":93,"geometry":{"type":"Point","coordinates":[146.37955629585588,-41.23089801106247]},"properties":{"OBJECTID":93,"BRIGADE":"TARLETON","TFS_GROUP":"BARRINGTON","DISTRICT":"MERSEY","REGION":"NORTH WEST","BRIG_NUMBER":4525,"ADDRESS":"445 Mersey Main Rd, Tarleton, Tas 7310","LIST_ADDRESS":"445 MERSEY MAIN RD TARLETON TAS 7310","STATION_TYPE":"Volunteer","EASTING":448002.1214,"NORTHING":5435424.9898,"UPDATED":"20221004"}},{"type":"Feature","id":124,"geometry":{"type":"Point","coordinates":[147.25211593665034,-41.56793417015393]},"properties":{"OBJECTID":124,"BRIGADE":"EVANDALE","TFS_GROUP":"BEN LOMOND","DISTRICT":"SOUTH ESK","REGION":"NORTH","BRIG_NUMBER":3511,"ADDRESS":"15a Arthur St, Evandale, Tas 7212","LIST_ADDRESS":"15A ARTHUR ST EVANDALE TAS 7212","STATION_TYPE":"Volunteer","EASTING":521020.2977,"NORTHING":5398163.0531,"UPDATED":"20221004"}},{"type":"Feature","id":125,"geometry":{"type":"Point","coordinates":[146.56387030909642,-41.46171333183429]},"properties":{"OBJECTID":125,"BRIGADE":"ELIZABETH TOWN","TFS_GROUP":"WESTERN TIERS","DISTRICT":"TAMAR","REGION":"NORTH","BRIG_NUMBER":3424,"ADDRESS":"5816 Bass Hwy, Elizabeth Town, Tas 7304","LIST_ADDRESS":"5816 BASS HWY ELIZABETH TOWN TAS 7304","STATION_TYPE":"Volunteer","EASTING":463545.8488,"NORTHING":5409817.6133,"UPDATED":"20221004"}},{"type":"Feature","id":126,"geometry":{"type":"Point","coordinates":[146.7162520670358,-42.61597595278867]},"properties":{"OBJECTID":126,"BRIGADE":"ELLENDALE","TFS_GROUP":"UPPER DERWENT","DISTRICT":"MIDLANDS","REGION":"SOUTH","BRIG_NUMBER":2622,"ADDRESS":"962 Ellendale Rd, Ellendale, Tas 7140","LIST_ADDRESS":"962 ELLENDALE RD ELLENDALE TAS 7140","STATION_TYPE":"Volunteer","EASTING":476728.6556,"NORTHING":5281789.9696,"UPDATED":"20221004"}},{"type":"Feature","id":127,"geometry":{"type":"Point","coordinates":[147.35054160875788,-41.75999672181201]},"properties":{"OBJECTID":127,"BRIGADE":"EPPING","TFS_GROUP":"ELIZABETH","DISTRICT":"SOUTH ESK","REGION":"NORTH","BRIG_NUMBER":3504,"ADDRESS":"4 Barton Rd, Epping Forest, Tas 7211","LIST_ADDRESS":"4 BARTON RD EPPING FOREST TAS 7211","STATION_TYPE":"Volunteer","EASTING":529139.8757,"NORTHING":5376811.1365,"UPDATED":"20221004"}},{"type":"Feature","id":128,"geometry":{"type":"Point","coordinates":[148.26887633048105,-41.50675231133128]},"properties":{"OBJECTID":128,"BRIGADE":"FALMOUTH","TFS_GROUP":"BEAUMARIS","DISTRICT":"SOUTH ESK","REGION":"NORTH","BRIG_NUMBER":3522,"ADDRESS":"91 Grant St, Falmouth, Tas 7215","LIST_ADDRESS":"91 GRANT ST FALMOUTH TAS 7215","STATION_TYPE":"Volunteer","EASTING":605894.003,"NORTHING":5404209.003,"UPDATED":"20221004"}},{"type":"Feature","id":129,"geometry":{"type":"Point","coordinates":[147.96472455742918,-41.639430421104485]},"properties":{"OBJECTID":129,"BRIGADE":"FINGAL","TFS_GROUP":"GOLDEN GATE","DISTRICT":"SOUTH ESK","REGION":"NORTH","BRIG_NUMBER":3523,"ADDRESS":"5 Stieglitz St, Fingal, Tas 7214","LIST_ADDRESS":"5 STIEGLITZ ST FINGAL TAS 7214","STATION_TYPE":"Volunteer","EASTING":580346.0934,"NORTHING":5389806.6788,"UPDATED":"20221004"}},{"type":"Feature","id":130,"geometry":{"type":"Point","coordinates":[147.26011587622654,-42.92323456321317]},"properties":{"OBJECTID":130,"BRIGADE":"FERN TREE","TFS_GROUP":"DERWENT","DISTRICT":"HOBART","REGION":"SOUTH","BRIG_NUMBER":2142,"ADDRESS":"7 Summerleas Rd, Fern Tree, Tas 7054","LIST_ADDRESS":"7 SUMMERLEAS RD FERN TREE TAS 7054","STATION_TYPE":"Volunteer","EASTING":521227.9965,"NORTHING":5247677.002,"UPDATED":"20221004"}},{"type":"Feature","id":131,"geometry":{"type":"Point","coordinates":[145.2498513564618,-40.84898332757098]},"properties":{"OBJECTID":131,"BRIGADE":"FOREST","TFS_GROUP":"CIRCULAR HEAD","DISTRICT":"ARTHUR","REGION":"NORTH WEST","BRIG_NUMBER":4412,"ADDRESS":"422 Mengha Rd, Forest, Tas 7330","LIST_ADDRESS":"422 MENGHA RD FOREST TAS 7330","STATION_TYPE":"Volunteer","EASTING":352393.0838,"NORTHING":5476567.4141,"UPDATED":"20221004"}},{"type":"Feature","id":132,"geometry":{"type":"Point","coordinates":[146.24430548674138,-41.179870409732594]},"properties":{"OBJECTID":132,"BRIGADE":"FORTH VALLEY","TFS_GROUP":"BARRINGTON","DISTRICT":"MERSEY","REGION":"NORTH WEST","BRIG_NUMBER":4561,"ADDRESS":"794 Forth Rd, Forth, Tas 7310","LIST_ADDRESS":"794 FORTH RD FORTH TAS 7310","STATION_TYPE":"Volunteer","EASTING":436617.7778,"NORTHING":5441000.0831,"UPDATED":"20221004"}},{"type":"Feature","id":133,"geometry":{"type":"Point","coordinates":[146.92446658665708,-43.16605536389195]},"properties":{"OBJECTID":133,"BRIGADE":"GEEVESTON","TFS_GROUP":"ESPERANCE","DISTRICT":"SOUTH WEST","REGION":"SOUTH","BRIG_NUMBER":2118,"ADDRESS":"14 School Rd, Geeveston, Tas 7116","LIST_ADDRESS":"14 SCHOOL RD GEEVESTON TAS 7116","STATION_TYPE":"Volunteer","EASTING":493860.0011,"NORTHING":5220742.001,"UPDATED":"20221004"}},{"type":"Feature","id":134,"geometry":{"type":"Point","coordinates":[147.00948557239403,-43.091690531475145]},"properties":{"OBJECTID":134,"BRIGADE":"FRANKLIN","TFS_GROUP":"HUON","DISTRICT":"SOUTH WEST","REGION":"SOUTH","BRIG_NUMBER":2127,"ADDRESS":"3423 Huon Hwy, Franklin, Tas 7113","LIST_ADDRESS":"3423 HUON HWY FRANKLIN TAS 7113","STATION_TYPE":"Volunteer","EASTING":500772.0027,"NORTHING":5229003.0009,"UPDATED":"20221004"}},{"type":"Feature","id":135,"geometry":{"type":"Point","coordinates":[148.00780812676484,-40.95789175504173]},"properties":{"OBJECTID":135,"BRIGADE":"GLADSTONE","TFS_GROUP":"MT CAMERON","DISTRICT":"NORTH EAST","REGION":"NORTH","BRIG_NUMBER":3642,"ADDRESS":"57 Chaffey St, Gladstone, Tas 7264","LIST_ADDRESS":"57 CHAFFEY ST GLADSTONE TAS 7264","STATION_TYPE":"Volunteer","EASTING":584812.7497,"NORTHING":5465428.3615,"UPDATED":"20221004"}},{"type":"Feature","id":136,"geometry":{"type":"Point","coordinates":[146.9971065075045,-43.23903722400185]},"properties":{"OBJECTID":136,"BRIGADE":"GLENDEVIE","TFS_GROUP":"ESPERANCE","DISTRICT":"SOUTH WEST","REGION":"SOUTH","BRIG_NUMBER":2513,"ADDRESS":"64 Police Point Rd, Glendevie, Tas 7109","LIST_ADDRESS":"64 POLICE POINT RD GLENDEVIE TAS 7109","STATION_TYPE":"Volunteer","EASTING":499765.0725,"NORTHING":5212639.9663,"UPDATED":"20221004"}},{"type":"Feature","id":137,"geometry":{"type":"Point","coordinates":[146.87175223755082,-41.338186105077895]},"properties":{"OBJECTID":137,"BRIGADE":"GLENGARRY","TFS_GROUP":"WEST TAMAR","DISTRICT":"TAMAR","REGION":"NORTH","BRIG_NUMBER":3403,"ADDRESS":"850 Frankford Rd, Glengarry, Tas 7275","LIST_ADDRESS":"852 FRANKFORD RD GLENGARRY TAS 7275","STATION_TYPE":"Volunteer","EASTING":489176.9649,"NORTHING":5423855.9383,"UPDATED":"20221004"}},{"type":"Feature","id":138,"geometry":{"type":"Point","coordinates":[147.28808720970832,-42.8273561943031]},"properties":{"OBJECTID":138,"BRIGADE":"GLENORCHY","TFS_GROUP":"HOBART","DISTRICT":"HOBART","REGION":"SOUTH","BRIG_NUMBER":2002,"ADDRESS":"1 Goodwood Rd, Glenorchy, Tas 7010","LIST_ADDRESS":"1 GOODWOOD RD GOODWOOD TAS 7010","STATION_TYPE":"Career","EASTING":523547.1566,"NORTHING":5258316.4721,"UPDATED":"20221004"}},{"type":"Feature","id":139,"geometry":{"type":"Point","coordinates":[146.82639605720888,-41.10459526120297]},"properties":{"OBJECTID":139,"BRIGADE":"GEORGE TOWN","TFS_GROUP":"DALRYMPLE","DISTRICT":"NORTH EAST","REGION":"NORTH","BRIG_NUMBER":3111,"ADDRESS":"52 Goulburn St, George Town, Tas 7253","LIST_ADDRESS":"52 GOULBURN ST GEORGE TOWN TAS 7253","STATION_TYPE":"Volunteer","EASTING":485422.7448,"NORTHING":5449617.2473,"UPDATED":"20221004"}},{"type":"Feature","id":140,"geometry":{"type":"Point","coordinates":[144.05081716623292,-40.04806709467063]},"properties":{"OBJECTID":140,"BRIGADE":"GRASSY","TFS_GROUP":"KING ISLAND","DISTRICT":"ARTHUR","REGION":"NORTH WEST","BRIG_NUMBER":4433,"ADDRESS":"6 Fern Tree Dr, Grassy, Tas 7256","LIST_ADDRESS":"6 FERN TREE DR GRASSY TAS 7256","STATION_TYPE":"Volunteer","EASTING":248415.9165,"NORTHING":5562739.6308,"UPDATED":"20221004"}},{"type":"Feature","id":141,"geometry":{"type":"Point","coordinates":[146.70751127606505,-41.994002098286145]},"properties":{"OBJECTID":141,"BRIGADE":"GREAT LAKE","TFS_GROUP":"HIGHLAND LAKES","DISTRICT":"MIDLANDS","REGION":"SOUTH","BRIG_NUMBER":2604,"ADDRESS":"55-57 Cider Gum Rd, Miena, Tas 7030","LIST_ADDRESS":"55-57 CIDER GUM RD MIENA TAS 7030","STATION_TYPE":"Volunteer","EASTING":475814.5247,"NORTHING":5350886.1385,"UPDATED":"20221004"}},{"type":"Feature","id":142,"geometry":{"type":"Point","coordinates":[146.96976431991172,-41.29230894649434]},"properties":{"OBJECTID":142,"BRIGADE":"GRAVELLY BEACH","TFS_GROUP":"WEST TAMAR","DISTRICT":"TAMAR","REGION":"NORTH","BRIG_NUMBER":3108,"ADDRESS":"4 Tomah Pl, Gravelly Beach, Tas 7276","LIST_ADDRESS":"4 TOMAH PL GRAVELLY BEACH TAS 7276","STATION_TYPE":"Volunteer","EASTING":497468.4004,"NORTHING":5428792.6055,"UPDATED":"20221004"}},{"type":"Feature","id":143,"geometry":{"type":"Point","coordinates":[146.9359900592391,-42.67899948411811]},"properties":{"OBJECTID":143,"BRIGADE":"GRETNA","TFS_GROUP":"UPPER DERWENT","DISTRICT":"MIDLANDS","REGION":"SOUTH","BRIG_NUMBER":2623,"ADDRESS":"3457 Lyell Hwy, Gretna, Tas 7140","LIST_ADDRESS":"3457 LYELL HWY GRETNA TAS 7140","STATION_TYPE":"Volunteer","EASTING":494645.1094,"NORTHING":5274868.9047,"UPDATED":"20221004"}},{"type":"Feature","id":144,"geometry":{"type":"Point","coordinates":[147.07007022070619,-41.50282300119139]},"properties":{"OBJECTID":144,"BRIGADE":"HADSPEN","TFS_GROUP":"QUAMBY","DISTRICT":"TAMAR","REGION":"NORTH","BRIG_NUMBER":3464,"ADDRESS":"8-10 Main St, Hadspen, Tas 7290","LIST_ADDRESS":"8-10 MAIN ST HADSPEN TAS 7290","STATION_TYPE":"Volunteer","EASTING":505848.0009,"NORTHING":5405420.0009,"UPDATED":"20221004"}},{"type":"Feature","id":145,"geometry":{"type":"Point","coordinates":[146.03826020180034,-41.27761890638926]},"properties":{"OBJECTID":145,"BRIGADE":"GUNNS PLAINS","TFS_GROUP":"LEVEN","DISTRICT":"MERSEY","REGION":"NORTH WEST","BRIG_NUMBER":4545,"ADDRESS":"961 Gunns Plains Rd, Gunns Plains, Tas 7315","LIST_ADDRESS":"961 GUNNS PLAINS RD GUNNS PLAINS TAS 7315","STATION_TYPE":"Volunteer","EASTING":419456.0458,"NORTHING":5429977.8849,"UPDATED":"20221004"}},{"type":"Feature","id":146,"geometry":{"type":"Point","coordinates":[145.44395543873898,-40.87353519159802]},"properties":{"OBJECTID":146,"BRIGADE":"HELLYER","TFS_GROUP":"CIRCULAR HEAD","DISTRICT":"ARTHUR","REGION":"NORTH WEST","BRIG_NUMBER":4415,"ADDRESS":"35 Boobyalla Dr, Hellyer, Tas 7321","LIST_ADDRESS":"35 BOOBYALLA DR HELLYER TAS 7321","STATION_TYPE":"Volunteer","EASTING":368882.1094,"NORTHING":5474116.3067,"UPDATED":"20221004"}},{"type":"Feature","id":147,"geometry":{"type":"Point","coordinates":[146.83644999108893,-42.55379000713798]},"properties":{"OBJECTID":147,"BRIGADE":"HAMILTON","TFS_GROUP":"UPPER DERWENT","DISTRICT":"MIDLANDS","REGION":"SOUTH","BRIG_NUMBER":2624,"ADDRESS":"15 Franklin Pl, Hamilton, Tas 7140","LIST_ADDRESS":"15 FRANKLIN PL HAMILTON TAS 7140","STATION_TYPE":"Volunteer","EASTING":486518.3375,"NORTHING":5288689.5535,"UPDATED":"20221004"}},{"type":"Feature","id":148,"geometry":{"type":"Point","coordinates":[147.09377499676287,-42.97616569533744]},"properties":{"OBJECTID":148,"BRIGADE":"GROVE","TFS_GROUP":"HUON","DISTRICT":"SOUTH WEST","REGION":"SOUTH","BRIG_NUMBER":2523,"ADDRESS":"41 Crabtree Rd, Grove, Tas 7109","LIST_ADDRESS":"41 CRABTREE RD GROVE TAS 7109","STATION_TYPE":"Volunteer","EASTING":507646.3993,"NORTHING":5241827.6919,"UPDATED":"20221004"}},{"type":"Feature","id":149,"geometry":{"type":"Point","coordinates":[145.98441946683744,-41.07967443831552]},"properties":{"OBJECTID":149,"BRIGADE":"HEYBRIDGE","TFS_GROUP":"LEVEN","DISTRICT":"MERSEY","REGION":"NORTH WEST","BRIG_NUMBER":4535,"ADDRESS":"59 River Av, Heybridge, Tas 7316","LIST_ADDRESS":"59 RIVER AV HEYBRIDGE TAS 7316","STATION_TYPE":"Volunteer","EASTING":414690.4385,"NORTHING":5451901.4138,"UPDATED":"20221004"}},{"type":"Feature","id":150,"geometry":{"type":"Point","coordinates":[147.32634020358793,-42.87807479557967]},"properties":{"OBJECTID":150,"BRIGADE":"HOBART","TFS_GROUP":"HOBART","DISTRICT":"HOBART","REGION":"SOUTH","BRIG_NUMBER":2001,"ADDRESS":"77-79 Argyle St, Hobart, Tas 7000","LIST_ADDRESS":"77-79 ARGYLE ST HOBART TAS 7000","STATION_TYPE":"Career","EASTING":526651.9964,"NORTHING":5252672.9994,"UPDATED":"20221004"}},{"type":"Feature","id":151,"geometry":{"type":"Point","coordinates":[146.71249353565,-41.6316574629715]},"properties":{"OBJECTID":151,"BRIGADE":"GOLDEN VALLEY","TFS_GROUP":"WESTERN TIERS","DISTRICT":"TAMAR","REGION":"NORTH","BRIG_NUMBER":3428,"ADDRESS":"13307 Highland Lakes Rd, Golden Valley, Tas 7304","LIST_ADDRESS":"13307 HIGHLAND LAKES RD GOLDEN VALLEY TAS 7304","STATION_TYPE":"Volunteer","EASTING":476052.5653,"NORTHING":5391079.1932,"UPDATED":"20221004"}},{"type":"Feature","id":152,"geometry":{"type":"Point","coordinates":[147.29170165401752,-43.02333179430512]},"properties":{"OBJECTID":152,"BRIGADE":"HOWDEN","TFS_GROUP":"NORTHWEST BAY","DISTRICT":"SOUTH WEST","REGION":"SOUTH","BRIG_NUMBER":2533,"ADDRESS":"392 Howden Rd, Howden, Tas 7054","LIST_ADDRESS":"392 HOWDEN RD HOWDEN TAS 7054","STATION_TYPE":"Volunteer","EASTING":523767.13,"NORTHING":5236552.9628,"UPDATED":"20221004"}},{"type":"Feature","id":153,"geometry":{"type":"Point","coordinates":[147.04632705424748,-43.02819841221451]},"properties":{"OBJECTID":153,"BRIGADE":"HUONVILLE","TFS_GROUP":"HUON","DISTRICT":"SOUTH WEST","REGION":"SOUTH","BRIG_NUMBER":2126,"ADDRESS":"39 Wilmot Rd, Huonville, Tas 7109","LIST_ADDRESS":"39 WILMOT RD HUONVILLE TAS 7109","STATION_TYPE":"Volunteer","EASTING":503774.3146,"NORTHING":5236052.7694,"UPDATED":"20221004"}},{"type":"Feature","id":154,"geometry":{"type":"Point","coordinates":[146.99575167288458,-41.23801358848257]},"properties":{"OBJECTID":154,"BRIGADE":"HILLWOOD","TFS_GROUP":"DALRYMPLE","DISTRICT":"NORTH EAST","REGION":"NORTH","BRIG_NUMBER":3614,"ADDRESS":"Hillwood Jetty Rd, Hillwood, Tas 7252","LIST_ADDRESS":"HILLWOOD JETTY RD HILLWOOD TAS 7252","STATION_TYPE":"Volunteer","EASTING":499643.9976,"NORTHING":5434820.6158,"UPDATED":"20221004"}},{"type":"Feature","id":94,"geometry":{"type":"Point","coordinates":[147.27685422983132,-42.96135849664071]},"properties":{"OBJECTID":94,"BRIGADE":"SUMMERLEAS","TFS_GROUP":"NORTHWEST BAY","DISTRICT":"SOUTH WEST","REGION":"SOUTH","BRIG_NUMBER":2538,"ADDRESS":"327 Summerleas Rd, Kingston, Tas 7050","LIST_ADDRESS":"327 SUMMERLEAS RD KINGSTON TAS 7050","STATION_TYPE":"Volunteer","EASTING":522524.1849,"NORTHING":5243509.862,"UPDATED":"20221004"}},{"type":"Feature","id":95,"geometry":{"type":"Point","coordinates":[147.49452409723125,-41.92722151640528]},"properties":{"OBJECTID":95,"BRIGADE":"CAMPBELL TOWN","TFS_GROUP":"ELIZABETH","DISTRICT":"SOUTH ESK","REGION":"NORTH","BRIG_NUMBER":3107,"ADDRESS":"79 High St, Campbell Town, Tas 7210","LIST_ADDRESS":"79 HIGH ST CAMPBELL TOWN TAS 7210","STATION_TYPE":"Volunteer","EASTING":541001.9992,"NORTHING":5358186.0014,"UPDATED":"20221004"}},{"type":"Feature","id":96,"geometry":{"type":"Point","coordinates":[147.4472323088617,-42.83429686996587]},"properties":{"OBJECTID":96,"BRIGADE":"CAMBRIDGE","TFS_GROUP":"CLARENCE","DISTRICT":"HOBART","REGION":"SOUTH","BRIG_NUMBER":2746,"ADDRESS":"1040 Cambridge Rd, Cambridge, Tas 7170","LIST_ADDRESS":"1040 CAMBRIDGE RD CAMBRIDGE TAS 7170","STATION_TYPE":"Volunteer","EASTING":536551.0007,"NORTHING":5257488.9997,"UPDATED":"20221004"}},{"type":"Feature","id":97,"geometry":{"type":"Point","coordinates":[147.2393160164401,-43.12227433696122]},"properties":{"OBJECTID":97,"BRIGADE":"CHANNEL","TFS_GROUP":"D ENTRECASTEAUX","DISTRICT":"SOUTH WEST","REGION":"SOUTH","BRIG_NUMBER":2532,"ADDRESS":"50 Saddle Rd, Kettering, Tas 7155","LIST_ADDRESS":"50 SADDLE RD KETTERING TAS 7155","STATION_TYPE":"Volunteer","EASTING":519467.5337,"NORTHING":5225578.9101,"UPDATED":"20221004"}},{"type":"Feature","id":98,"geometry":{"type":"Point","coordinates":[146.4803522015867,-41.55688124836941]},"properties":{"OBJECTID":98,"BRIGADE":"CHUDLEIGH","TFS_GROUP":"WESTERN TIERS","DISTRICT":"TAMAR","REGION":"NORTH","BRIG_NUMBER":3422,"ADDRESS":"55 Jones St, Chudleigh, Tas 7304","LIST_ADDRESS":"55 JONES ST CHUDLEIGH TAS 7304","STATION_TYPE":"Volunteer","EASTING":456666.6548,"NORTHING":5399290.4805,"UPDATED":"20221004"}},{"type":"Feature","id":99,"geometry":{"type":"Point","coordinates":[148.0263815175095,-40.37028853246223]},"properties":{"OBJECTID":99,"BRIGADE":"CAPE BARREN ISLAND","TFS_GROUP":"FLINDERS","DISTRICT":"NORTH EAST","REGION":"NORTH","BRIG_NUMBER":3601,"ADDRESS":"40 Rooks River Rd, Cape Barren Island, Tas 7257","LIST_ADDRESS":"40 ROOKS RIVER RD CAPE BARREN ISLAND TAS 7257","STATION_TYPE":"Volunteer","EASTING":587238.4764,"NORTHING":5530529.7749,"UPDATED":"20221004"}},{"type":"Feature","id":100,"geometry":{"type":"Point","coordinates":[146.1277330787334,-41.33189600478163]},"properties":{"OBJECTID":100,"BRIGADE":"CASTRA","TFS_GROUP":"LEVEN","DISTRICT":"MERSEY","REGION":"NORTH WEST","BRIG_NUMBER":4541,"ADDRESS":"2161 Castra Rd, 2161 Castra Rd, Tas 7315","LIST_ADDRESS":"2161 CASTRA RD UPPER CASTRA TAS 7315","STATION_TYPE":"Volunteer","EASTING":427009.8716,"NORTHING":5424031.3251,"UPDATED":"20221004"}},{"type":"Feature","id":101,"geometry":{"type":"Point","coordinates":[147.254416852673,-42.80124149427123]},"properties":{"OBJECTID":101,"BRIGADE":"CLAREMONT","TFS_GROUP":"DERWENT","DISTRICT":"HOBART","REGION":"SOUTH","BRIG_NUMBER":2004,"ADDRESS":"714 Main Rd, Berriedale, Tas 7011","LIST_ADDRESS":"714 MAIN RD BERRIEDALE TAS 7011","STATION_TYPE":"Composite","EASTING":520803.8192,"NORTHING":5261225.23,"UPDATED":"20221004"}},{"type":"Feature","id":102,"geometry":{"type":"Point","coordinates":[147.39853554730297,-42.855522153454444]},"properties":{"OBJECTID":102,"BRIGADE":"CLARENCE","TFS_GROUP":"HOBART","DISTRICT":"HOBART","REGION":"SOUTH","BRIG_NUMBER":2003,"ADDRESS":"360 Cambridge Rd, Mornington, Tas 7018","LIST_ADDRESS":"360 CAMBRIDGE RD MORNINGTON TAS 7018","STATION_TYPE":"Career","EASTING":532560.0015,"NORTHING":5255151.999,"UPDATED":"20221004"}},{"type":"Feature","id":103,"geometry":{"type":"Point","coordinates":[146.2746236698013,-41.43457519891806]},"properties":{"OBJECTID":103,"BRIGADE":"CLAUDE ROAD","TFS_GROUP":"ROLAND","DISTRICT":"MERSEY","REGION":"NORTH WEST","BRIG_NUMBER":4503,"ADDRESS":"785 Claude Rd, Claude Road, Tas 7306","LIST_ADDRESS":"785 CLAUDE RD CLAUDE ROAD TAS 7306","STATION_TYPE":"Volunteer","EASTING":439396.9853,"NORTHING":5412745.2673,"UPDATED":"20221004"}},{"type":"Feature","id":104,"geometry":{"type":"Point","coordinates":[147.36139965878476,-42.531415318173934]},"properties":{"OBJECTID":104,"BRIGADE":"COLEBROOK","TFS_GROUP":"COAL RIVER","DISTRICT":"EAST COAST","REGION":"SOUTH","BRIG_NUMBER":2432,"ADDRESS":"63 Richmond St, Colebrook, Tas 7027","LIST_ADDRESS":"63 RICHMOND ST COLEBROOK TAS 7027","STATION_TYPE":"Volunteer","EASTING":529537.9762,"NORTHING":5291323.5595,"UPDATED":"20221004"}},{"type":"Feature","id":105,"geometry":{"type":"Point","coordinates":[147.03378202740586,-43.1060590845438]},"properties":{"OBJECTID":105,"BRIGADE":"CRADOC","TFS_GROUP":"HUON","DISTRICT":"SOUTH WEST","REGION":"SOUTH","BRIG_NUMBER":2541,"ADDRESS":"8243-8247 Channel Hwy, Cradoc, Tas 7109","LIST_ADDRESS":"8243-8247 CHANNEL HWY CRADOC TAS 7109","STATION_TYPE":"Volunteer","EASTING":502748.7767,"NORTHING":5227406.8598,"UPDATED":"20221004"}},{"type":"Feature","id":106,"geometry":{"type":"Point","coordinates":[147.1999063176646,-42.838996170427485]},"properties":{"OBJECTID":106,"BRIGADE":"COLLINSVALE","TFS_GROUP":"DERWENT","DISTRICT":"HOBART","REGION":"SOUTH","BRIG_NUMBER":2731,"ADDRESS":"14 Hall Rd, Collinsvale, Tas 7012","LIST_ADDRESS":"14 HALL RD COLLINSVALE TAS 7012","STATION_TYPE":"Volunteer","EASTING":516476.0352,"NORTHING":5257108.7625,"UPDATED":"20221004"}},{"type":"Feature","id":107,"geometry":{"type":"Point","coordinates":[148.0683585762141,-42.0063625237254]},"properties":{"OBJECTID":107,"BRIGADE":"CRANBROOK","TFS_GROUP":"GLAMORGAN","DISTRICT":"EAST COAST","REGION":"SOUTH","BRIG_NUMBER":2424,"ADDRESS":"14887 Tasman Hwy, Cranbrook, Tas 7190","LIST_ADDRESS":"14887 TASMAN HWY CRANBROOK TAS 7190","STATION_TYPE":"Volunteer","EASTING":588470.6465,"NORTHING":5348965.3313,"UPDATED":"20221004"}},{"type":"Feature","id":108,"geometry":{"type":"Point","coordinates":[148.286735652203,-42.12439220963976]},"properties":{"OBJECTID":108,"BRIGADE":"COLES BAY","TFS_GROUP":"GLAMORGAN","DISTRICT":"EAST COAST","REGION":"SOUTH","BRIG_NUMBER":2423,"ADDRESS":"11 Cosgrove St, Coles Bay, Tas 7215","LIST_ADDRESS":"11 COSGROVE ST COLES BAY TAS 7215","STATION_TYPE":"Volunteer","EASTING":606357.5048,"NORTHING":5335611.3775,"UPDATED":"20221004"}},{"type":"Feature","id":109,"geometry":{"type":"Point","coordinates":[147.08066695710514,-41.686209446067906]},"properties":{"OBJECTID":109,"BRIGADE":"CRESSY","TFS_GROUP":"NORFOLK PLAINS","DISTRICT":"SOUTH ESK","REGION":"NORTH","BRIG_NUMBER":3139,"ADDRESS":"73 Main St, Cressy, Tas 7302","LIST_ADDRESS":"73 MAIN ST CRESSY TAS 7302","STATION_TYPE":"Volunteer","EASTING":506713.3665,"NORTHING":5385059.4828,"UPDATED":"20221004"}},{"type":"Feature","id":110,"geometry":{"type":"Point","coordinates":[143.8495390033494,-39.9305259898033]},"properties":{"OBJECTID":110,"BRIGADE":"CURRIE","TFS_GROUP":"KING ISLAND","DISTRICT":"ARTHUR","REGION":"NORTH WEST","BRIG_NUMBER":4111,"ADDRESS":"3 Edward St, Currie, Tas 7256","LIST_ADDRESS":"3 EDWARD ST CURRIE TAS 7256","STATION_TYPE":"Volunteer","EASTING":230781.1136,"NORTHING":5575200.2514,"UPDATED":"20221004"}},{"type":"Feature","id":111,"geometry":{"type":"Point","coordinates":[147.07369203928553,-43.159032795562446]},"properties":{"OBJECTID":111,"BRIGADE":"CYGNET","TFS_GROUP":"D ENTRECASTEAUX","DISTRICT":"SOUTH WEST","REGION":"SOUTH","BRIG_NUMBER":2149,"ADDRESS":"4 George St, Cygnet, Tas 7112","LIST_ADDRESS":"4 GEORGE ST CYGNET TAS 7112","STATION_TYPE":"Volunteer","EASTING":505991.0025,"NORTHING":5221522.0009,"UPDATED":"20221004"}},{"type":"Feature","id":112,"geometry":{"type":"Point","coordinates":[146.65159624397455,-41.523132436903744]},"properties":{"OBJECTID":112,"BRIGADE":"DELORAINE","TFS_GROUP":"WESTERN TIERS","DISTRICT":"TAMAR","REGION":"NORTH","BRIG_NUMBER":3123,"ADDRESS":"85a Emu Bay Rd, Deloraine, Tas 7304","LIST_ADDRESS":"85A EMU BAY RD DELORAINE TAS 7304","STATION_TYPE":"Volunteer","EASTING":470931.5854,"NORTHING":5403109.0398,"UPDATED":"20221004"}},{"type":"Feature","id":113,"geometry":{"type":"Point","coordinates":[146.36100907213716,-41.175998641334665]},"properties":{"OBJECTID":113,"BRIGADE":"DEVONPORT","TFS_GROUP":"BARRINGTON","DISTRICT":"DEVONPORT","REGION":"NORTH WEST","BRIG_NUMBER":4201,"ADDRESS":"5 Victoria Pde, Devonport, Tas 7310","LIST_ADDRESS":"5 VICTORIA PDE DEVONPORT TAS 7310","STATION_TYPE":"Composite","EASTING":446402.939,"NORTHING":5441508.3471,"UPDATED":"20221004"}},{"type":"Feature","id":114,"geometry":{"type":"Point","coordinates":[145.92861746526765,-41.59337767993163]},"properties":{"OBJECTID":114,"BRIGADE":"CRADLE MOUNTAIN","TFS_GROUP":"BARRINGTON","DISTRICT":"MERSEY","REGION":"NORTH WEST","BRIG_NUMBER":4511,"ADDRESS":"4038 Cradle Mountain Rd, Cradle Mountain, Tas 7306","LIST_ADDRESS":"4038 CRADLE MOUNTAIN RD CRADLE MOUNTAIN TAS 7306","STATION_TYPE":"Volunteer","EASTING":410565.064,"NORTHING":5394713.8173,"UPDATED":"20221004"}},{"type":"Feature","id":115,"geometry":{"type":"Point","coordinates":[147.1173870693772,-43.21242174710124]},"properties":{"OBJECTID":115,"BRIGADE":"DEEP BAY","TFS_GROUP":"D ENTRECASTEAUX","DISTRICT":"SOUTH WEST","REGION":"SOUTH","BRIG_NUMBER":2542,"ADDRESS":"8 Cliffords Rd, Deep Bay, Tas 7112","LIST_ADDRESS":"8 CLIFFORDS RD DEEP BAY TAS 7112","STATION_TYPE":"Volunteer","EASTING":509535.0005,"NORTHING":5215589.0029,"UPDATED":"20221004"}},{"type":"Feature","id":116,"geometry":{"type":"Point","coordinates":[147.80369101539398,-41.14941090913972]},"properties":{"OBJECTID":116,"BRIGADE":"DERBY","TFS_GROUP":"DORSET","DISTRICT":"NORTH EAST","REGION":"NORTH","BRIG_NUMBER":3646,"ADDRESS":"99 Main St, Derby, Tas 7264","LIST_ADDRESS":"99 MAIN ST DERBY TAS 7264","STATION_TYPE":"Volunteer","EASTING":567439.081,"NORTHING":5444345.4468,"UPDATED":"20221004"}},{"type":"Feature","id":117,"geometry":{"type":"Point","coordinates":[147.0531651119369,-41.31284768157725]},"properties":{"OBJECTID":117,"BRIGADE":"DILSTON","TFS_GROUP":"MT ARTHUR GROUP","DISTRICT":"NORTH EAST","REGION":"NORTH","BRIG_NUMBER":3445,"ADDRESS":"642 John Lees Dr, Dilston, Tas 7252","LIST_ADDRESS":"642 JOHN LEES DR DILSTON TAS 7252","STATION_TYPE":"Volunteer","EASTING":505983.9256,"NORTHING":5426572.6693,"UPDATED":"20221004"}},{"type":"Feature","id":118,"geometry":{"type":"Point","coordinates":[147.81124646227937,-42.884536238245126]},"properties":{"OBJECTID":118,"BRIGADE":"DUNALLEY","TFS_GROUP":"SORELL","DISTRICT":"EAST COAST","REGION":"SOUTH","BRIG_NUMBER":2442,"ADDRESS":"32 Bay St, Dunalley, Tas 7177","LIST_ADDRESS":"32 BAY ST DUNALLEY TAS 7177","STATION_TYPE":"Volunteer","EASTING":566247.2085,"NORTHING":5251687.9558,"UPDATED":"20221004"}},{"type":"Feature","id":119,"geometry":{"type":"Point","coordinates":[147.92297371068278,-43.01493585263266]},"properties":{"OBJECTID":119,"BRIGADE":"EAGLEHAWK NECK","TFS_GROUP":"TASMAN","DISTRICT":"EAST COAST","REGION":"SOUTH","BRIG_NUMBER":2461,"ADDRESS":"15 Old Jetty Rd, Eaglehawk Neck, Tas 7179","LIST_ADDRESS":"FLINDERS BAY RD MURDUNNA TAS 7178","STATION_TYPE":"Volunteer","EASTING":575212.0725,"NORTHING":5237113.3169,"UPDATED":"20221004"}},{"type":"Feature","id":120,"geometry":{"type":"Point","coordinates":[147.62560306548755,-42.84492495589389]},"properties":{"OBJECTID":120,"BRIGADE":"DODGES FERRY","TFS_GROUP":"SORELL","DISTRICT":"EAST COAST","REGION":"SOUTH","BRIG_NUMBER":2441,"ADDRESS":"460 Old Forcett Rd, Dodges Ferry, Tas 7173","LIST_ADDRESS":"460 OLD FORCETT RD DODGES FERRY TAS 7173","STATION_TYPE":"Volunteer","EASTING":551120.0018,"NORTHING":5256216.0032,"UPDATED":"20221004"}},{"type":"Feature","id":121,"geometry":{"type":"Point","coordinates":[145.09556113039616,-40.96868995238148]},"properties":{"OBJECTID":121,"BRIGADE":"EDITH CREEK","TFS_GROUP":"CIRCULAR HEAD","DISTRICT":"ARTHUR","REGION":"NORTH WEST","BRIG_NUMBER":4424,"ADDRESS":"1261 Trowutta Rd, Edith Creek, Tas 7330","LIST_ADDRESS":"1261 TROWUTTA RD EDITH CREEK TAS 7330","STATION_TYPE":"Volunteer","EASTING":339753.8072,"NORTHING":5462972.1833,"UPDATED":"20221004"}},{"type":"Feature","id":122,"geometry":{"type":"Point","coordinates":[147.0170296196585,-43.31250464709462]},"properties":{"OBJECTID":122,"BRIGADE":"DOVER","TFS_GROUP":"ESPERANCE","DISTRICT":"SOUTH WEST","REGION":"SOUTH","BRIG_NUMBER":2512,"ADDRESS":"9 Station Rd, Dover, Tas 7117","LIST_ADDRESS":"9 STATION RD DOVER TAS 7117","STATION_TYPE":"Volunteer","EASTING":501381.001,"NORTHING":5204481.0025,"UPDATED":"20221004"}},{"type":"Feature","id":123,"geometry":{"type":"Point","coordinates":[147.92721654629617,-39.98812450107857]},"properties":{"OBJECTID":123,"BRIGADE":"EMITA","TFS_GROUP":"FLINDERS","DISTRICT":"NORTH EAST","REGION":"NORTH","BRIG_NUMBER":3602,"ADDRESS":"1957 Palana Rd, Emita, Tas 7255","LIST_ADDRESS":"1957 PALANA RD EMITA TAS 7255","STATION_TYPE":"Volunteer","EASTING":579161.2441,"NORTHING":5573149.1999,"UPDATED":"20221004"}},{"type":"Feature","id":32,"geometry":{"type":"Point","coordinates":[147.21767352973063,-42.61726313113627]},"properties":{"OBJECTID":32,"BRIGADE":"BAGDAD","TFS_GROUP":"JORDAN","DISTRICT":"MIDLANDS","REGION":"SOUTH","BRIG_NUMBER":2611,"ADDRESS":"1661 Midland Hwy, Bagdad, Tas 7030","LIST_ADDRESS":"1661 MIDLAND HWY BAGDAD TAS 7030","STATION_TYPE":"Volunteer","EASTING":518004.207,"NORTHING":5281749.6158,"UPDATED":"20221004"}},{"type":"Feature","id":33,"geometry":{"type":"Point","coordinates":[147.72615061578836,-41.7818197620631]},"properties":{"OBJECTID":33,"BRIGADE":"AVOCA","TFS_GROUP":"GOLDEN GATE","DISTRICT":"SOUTH ESK","REGION":"NORTH","BRIG_NUMBER":3521,"ADDRESS":"29 St Pauls St, Avoca, Tas 7213","LIST_ADDRESS":"29 ST PAULS ST AVOCA TAS 7213","STATION_TYPE":"Volunteer","EASTING":560343.2434,"NORTHING":5374192.8254,"UPDATED":"20221004"}},{"type":"Feature","id":34,"geometry":{"type":"Point","coordinates":[144.66690817160196,-41.05261933114746]},"properties":{"OBJECTID":34,"BRIGADE":"ARTHUR RIVER","TFS_GROUP":"CIRCULAR HEAD","DISTRICT":"ARTHUR","REGION":"NORTH WEST","BRIG_NUMBER":4411,"ADDRESS":"2a Gardiner St, Arthur River, Tas 7330","LIST_ADDRESS":"2A GARDINER ST ARTHUR RIVER TAS 7330","STATION_TYPE":"Volunteer","EASTING":303931.9877,"NORTHING":5452779.1607,"UPDATED":"20221004"}},{"type":"Feature","id":35,"geometry":{"type":"Point","coordinates":[146.37945554440688,-41.44065073808157]},"properties":{"OBJECTID":35,"BRIGADE":"BEULAH","TFS_GROUP":"ROLAND","DISTRICT":"MERSEY","REGION":"NORTH WEST","BRIG_NUMBER":4502,"ADDRESS":"8 Daveys Rd, Beulah, Tas 7306","LIST_ADDRESS":"8 DAVEYS RD BEULAH TAS 7306","STATION_TYPE":"Volunteer","EASTING":448160.2554,"NORTHING":5412138.848,"UPDATED":"20221004"}},{"type":"Feature","id":36,"geometry":{"type":"Point","coordinates":[148.30261667526014,-41.876892336902]},"properties":{"OBJECTID":36,"BRIGADE":"BICHENO","TFS_GROUP":"GLAMORGAN","DISTRICT":"EAST COAST","REGION":"SOUTH","BRIG_NUMBER":2422,"ADDRESS":"20 Morrison St, Bicheno, Tas 7215","LIST_ADDRESS":"20 MORRISON ST BICHENO TAS 7215","STATION_TYPE":"Volunteer","EASTING":608088.3299,"NORTHING":5363071.8648,"UPDATED":"20221004"}},{"type":"Feature","id":37,"geometry":{"type":"Point","coordinates":[147.2448470721035,-41.86007121348231]},"properties":{"OBJECTID":37,"BRIGADE":"BARTON","TFS_GROUP":"ELIZABETH","DISTRICT":"SOUTH ESK","REGION":"NORTH","BRIG_NUMBER":3501,"ADDRESS":"2464 Macquarie Rd, Campbell Town, Tas 7210","LIST_ADDRESS":"2464 MACQUARIE RD CAMPBELL TOWN TAS 7210","STATION_TYPE":"Volunteer","EASTING":520151.157,"NORTHING":5366098.7534,"UPDATED":"20221004"}},{"type":"Feature","id":38,"geometry":{"type":"Point","coordinates":[146.8179996273174,-41.20140608828176]},"properties":{"OBJECTID":38,"BRIGADE":"BEACONSFIELD","TFS_GROUP":"WEST TAMAR","DISTRICT":"TAMAR","REGION":"NORTH","BRIG_NUMBER":3105,"ADDRESS":"1 John St, Beaconsfield, Tas 7270","LIST_ADDRESS":"JOHN ST BEACONSFIELD TAS 7270","STATION_TYPE":"Volunteer","EASTING":484740.175,"NORTHING":5438868.595,"UPDATED":"20221004"}},{"type":"Feature","id":39,"geometry":{"type":"Point","coordinates":[146.99468023877046,-41.61647868463398]},"properties":{"OBJECTID":39,"BRIGADE":"BISHOPSBOURNE","TFS_GROUP":"NORFOLK PLAINS","DISTRICT":"SOUTH ESK","REGION":"NORTH","BRIG_NUMBER":3531,"ADDRESS":"1111 Bishopsbourne Rd, Bishopsbourne, Tas 7301","LIST_ADDRESS":"1111 BISHOPSBOURNE RD BISHOPSBOURNE TAS 7301","STATION_TYPE":"Volunteer","EASTING":499647.1506,"NORTHING":5392871.6372,"UPDATED":"20221004"}},{"type":"Feature","id":40,"geometry":{"type":"Point","coordinates":[148.31091450876093,-41.25105548144051]},"properties":{"OBJECTID":40,"BRIGADE":"BINALONG BAY","TFS_GROUP":"BEAUMARIS","DISTRICT":"SOUTH ESK","REGION":"NORTH","BRIG_NUMBER":3635,"ADDRESS":"7 Bay View Av, Binalong Bay, Tas 7216","LIST_ADDRESS":"7 BAY VIEW AV BINALONG BAY TAS 7216","STATION_TYPE":"Volunteer","EASTING":609831.7902,"NORTHING":5432544.2502,"UPDATED":"20221004"}},{"type":"Feature","id":41,"geometry":{"type":"Point","coordinates":[145.63738319471025,-40.94379993210687]},"properties":{"OBJECTID":41,"BRIGADE":"BOAT HARBOUR","TFS_GROUP":"CAPE COUNTRY","DISTRICT":"ARTHUR","REGION":"NORTH WEST","BRIG_NUMBER":4441,"ADDRESS":"25 Dobsons Lane Boat, Boat Harbour, Tas 7321","LIST_ADDRESS":"25 DOBSONS LANE BOAT HARBOUR TAS 7321","STATION_TYPE":"Volunteer","EASTING":385303.0073,"NORTHING":5466587.788,"UPDATED":"20221004"}},{"type":"Feature","id":42,"geometry":{"type":"Point","coordinates":[147.00346208544474,-42.38225513257465]},"properties":{"OBJECTID":42,"BRIGADE":"BOTHWELL","TFS_GROUP":"JORDAN","DISTRICT":"MIDLANDS","REGION":"SOUTH","BRIG_NUMBER":2601,"ADDRESS":"6 Barrack St, Bothwell, Tas 7030","LIST_ADDRESS":"6 BARRACK ST BOTHWELL TAS 7030","STATION_TYPE":"Volunteer","EASTING":500284.9993,"NORTHING":5307781.0013,"UPDATED":"20221004"}},{"type":"Feature","id":43,"geometry":{"type":"Point","coordinates":[146.9439943484579,-41.65124501571577]},"properties":{"OBJECTID":43,"BRIGADE":"BRACKNELL","TFS_GROUP":"QUAMBY","DISTRICT":"TAMAR","REGION":"NORTH","BRIG_NUMBER":3461,"ADDRESS":"29 Louisa St, Bracknell, Tas 7302","LIST_ADDRESS":"29 LOUISA ST BRACKNELL TAS 7302","STATION_TYPE":"Volunteer","EASTING":495302.4423,"NORTHING":5388859.211,"UPDATED":"20221004"}},{"type":"Feature","id":44,"geometry":{"type":"Point","coordinates":[147.57331013045416,-41.470728820137516]},"properties":{"OBJECTID":44,"BRIGADE":"BLESSINGTON","TFS_GROUP":"BEN LOMOND","DISTRICT":"SOUTH ESK","REGION":"NORTH","BRIG_NUMBER":3441,"ADDRESS":"15 Roses Tier Rd, Upper Blessington, Tas 7212","LIST_ADDRESS":"15 ROSES TIER RD UPPER BLESSINGTON TAS 7212","STATION_TYPE":"Volunteer","EASTING":547871.6914,"NORTHING":5408826.8189,"UPDATED":"20221004"}},{"type":"Feature","id":45,"geometry":{"type":"Point","coordinates":[147.7433942852152,-41.17062869112753]},"properties":{"OBJECTID":45,"BRIGADE":"BRANXHOLM","TFS_GROUP":"DORSET","DISTRICT":"NORTH EAST","REGION":"NORTH","BRIG_NUMBER":3641,"ADDRESS":"26 Donald St, Branxholm, Tas 7261","LIST_ADDRESS":"26 DONALD ST BRANXHOLM TAS 7261","STATION_TYPE":"Volunteer","EASTING":562359.324,"NORTHING":5442034.9313,"UPDATED":"20221004"}},{"type":"Feature","id":46,"geometry":{"type":"Point","coordinates":[147.25104162792735,-42.73714122466304]},"properties":{"OBJECTID":46,"BRIGADE":"BRIDGEWATER","TFS_GROUP":"CLARENCE","DISTRICT":"HOBART","REGION":"SOUTH","BRIG_NUMBER":2720,"ADDRESS":"72 Cowle Rd, Bridgewater, Tas 7030","LIST_ADDRESS":"72 COWLE RD BRIDGEWATER TAS 7030","STATION_TYPE":"Composite","EASTING":520549.0026,"NORTHING":5268344.0005,"UPDATED":"20221004"}},{"type":"Feature","id":47,"geometry":{"type":"Point","coordinates":[147.39505035259685,-41.00449538756042]},"properties":{"OBJECTID":47,"BRIGADE":"BRIDPORT","TFS_GROUP":"DORSET","DISTRICT":"NORTH EAST","REGION":"NORTH","BRIG_NUMBER":3651,"ADDRESS":"69 Main St, Bridport, Tas 7262","LIST_ADDRESS":"69 MAIN ST BRIDPORT TAS 7262","STATION_TYPE":"Volunteer","EASTING":533222.1192,"NORTHING":5460668.7601,"UPDATED":"20221004"}},{"type":"Feature","id":48,"geometry":{"type":"Point","coordinates":[146.50504185189337,-42.25037250741894]},"properties":{"OBJECTID":48,"BRIGADE":"BRADYS LAKE","TFS_GROUP":"HIGHLAND LAKES","DISTRICT":"MIDLANDS","REGION":"SOUTH","BRIG_NUMBER":2628,"ADDRESS":"223 Bradys Lake Rd, Bradys Lake, Tas 7140","LIST_ADDRESS":"223 BRADYS LAKE RD BRADYS LAKE TAS 7140","STATION_TYPE":"Volunteer","EASTING":459169.7732,"NORTHING":5322306.0137,"UPDATED":"20221004"}},{"type":"Feature","id":49,"geometry":{"type":"Point","coordinates":[147.1265117760459,-42.656476429055]},"properties":{"OBJECTID":49,"BRIGADE":"BROADMARSH","TFS_GROUP":"JORDAN","DISTRICT":"MIDLANDS","REGION":"SOUTH","BRIG_NUMBER":2723,"ADDRESS":"1218 Elderslie Rd, Broadmarsh, Tas 7030","LIST_ADDRESS":"1218 ELDERSLIE RD BROADMARSH TAS 7030","STATION_TYPE":"Volunteer","EASTING":510369.0263,"NORTHING":5277324.0066,"UPDATED":"20221004"}},{"type":"Feature","id":50,"geometry":{"type":"Point","coordinates":[147.71646348200514,-42.60619624212094]},"properties":{"OBJECTID":50,"BRIGADE":"BUCKLAND","TFS_GROUP":"SPRING BAY","DISTRICT":"EAST COAST","REGION":"SOUT","BRIG_NUMBER":2451,"ADDRESS":"3 Kent St, Buckland, Tas 7190","LIST_ADDRESS":"3 KENT ST BUCKLAND TAS 7190","STATION_TYPE":"Volunteer","EASTING":558769.4444,"NORTHING":5282666.1808,"UPDATED":"20221004"}},{"type":"Feature","id":51,"geometry":{"type":"Point","coordinates":[145.90299480853724,-41.05275469826003]},"properties":{"OBJECTID":51,"BRIGADE":"BURNIE","TFS_GROUP":"CAPE COUNTRY","DISTRICT":"BURNIE","REGION":"NORTH WEST","BRIG_NUMBER":4001,"ADDRESS":"50 Alexander St, Burnie, Tas 7320","LIST_ADDRESS":"50 ALEXANDER ST BURNIE TAS 7320","STATION_TYPE":"Volunteer","EASTING":407812.999,"NORTHING":5454807.0014,"UPDATED":"20221004"}},{"type":"Feature","id":52,"geometry":{"type":"Point","coordinates":[146.98255000272303,-41.38002002063106]},"properties":{"OBJECTID":52,"BRIGADE":"BRIDGENORTH","TFS_GROUP":"WEST TAMAR","DISTRICT":"TAMAR","REGION":"NORTH","BRIG_NUMBER":3401,"ADDRESS":"629 Bridgenorth Rd, Bridgenorth, Tas 7277","LIST_ADDRESS":"629 BRIDGENORTH RD BRIDGENORTH TAS 7277","STATION_TYPE":"Volunteer","EASTING":498627.3444,"NORTHING":5419000.2309,"UPDATED":"20221004"}},{"type":"Feature","id":53,"geometry":{"type":"Point","coordinates":[147.25050317505108,-42.701263409712006]},"properties":{"OBJECTID":53,"BRIGADE":"BRIGHTON","TFS_GROUP":"JORDAN","DISTRICT":"MIDLANDS","REGION":"SOUTH","BRIG_NUMBER":2722,"ADDRESS":"134 Brighton Rd, Brighton, Tas 7030","LIST_ADDRESS":"134 BRIGHTON RD BRIGHTON TAS 7030","STATION_TYPE":"Volunteer","EASTING":520516.7444,"NORTHING":5272328.1087,"UPDATED":"20221004"}},{"type":"Feature","id":54,"geometry":{"type":"Point","coordinates":[147.42331630923732,-42.66497924099011]},"properties":{"OBJECTID":54,"BRIGADE":"CAMPANIA","TFS_GROUP":"COAL RIVER","DISTRICT":"EAST COAST","REGION":"SOUTH","BRIG_NUMBER":2431,"ADDRESS":"8 Union St, Campania, Tas 7026","LIST_ADDRESS":"8 UNION ST CAMPANIA TAS 7026","STATION_TYPE":"Volunteer","EASTING":534690.7068,"NORTHING":5276300.7461,"UPDATED":"20221004"}},{"type":"Feature","id":55,"geometry":{"type":"Point","coordinates":[146.88780892167028,-42.695932948976434]},"properties":{"OBJECTID":55,"BRIGADE":"BUSHY PARK","TFS_GROUP":"LOWER DERWENT","DISTRICT":"MIDLANDS","REGION":"SOUTH","BRIG_NUMBER":2701,"ADDRESS":"639 Gordon River Rd, Bushy Park, Tas 7140","LIST_ADDRESS":"639 GORDON RIVER RD BUSHY PARK TAS 7140","STATION_TYPE":"Volunteer","EASTING":491093.2882,"NORTHING":5272123.6515,"UPDATED":"20221004"}},{"type":"Feature","id":56,"geometry":{"type":"Point","coordinates":[147.01116874214858,-41.53325081942359]},"properties":{"OBJECTID":56,"BRIGADE":"CARRICK","TFS_GROUP":"QUAMBY","DISTRICT":"TAMAR","REGION":"NORTH","BRIG_NUMBER":3462,"ADDRESS":"21 South St, Carrick, Tas 7291","LIST_ADDRESS":"21 SOUTH ST CARRICK TAS 7291","STATION_TYPE":"Volunteer","EASTING":500931.6972,"NORTHING":5402044.2289,"UPDATED":"20221004"}},{"type":"Feature","id":57,"geometry":{"type":"Point","coordinates":[147.20831889567168,-41.50822190106124]},"properties":{"OBJECTID":57,"BRIGADE":"RELBIA","TFS_GROUP":"BEN LOMOND","DISTRICT":"SOUTH ESK","REGION":"NORTH","BRIG_NUMBER":3513,"ADDRESS":"405 Relbia Rd, Relbia, Tas 7258","LIST_ADDRESS":"405 RELBIA RD RELBIA TAS 7258","STATION_TYPE":"Volunteer","EASTING":517490.3953,"NORTHING":5404855.2151,"UPDATED":"20221004"}},{"type":"Feature","id":58,"geometry":{"type":"Point","coordinates":[147.18166863991806,-41.42148187028576]},"properties":{"OBJECTID":58,"BRIGADE":"RAVENSWOOD","TFS_GROUP":"LAUNCESTON","DISTRICT":"LAUNCESTON","REGION":"NORTH","BRIG_NUMBER":3004,"ADDRESS":"41 Faraday St, Ravenswood, Tas 7250","LIST_ADDRESS":"41 FARADAY ST RAVENSWOOD TAS 7250","STATION_TYPE":"Volunteer","EASTING":515180.8711,"NORTHING":5414436.8122,"UPDATED":"20221004"}},{"type":"Feature","id":59,"geometry":{"type":"Point","coordinates":[146.42098108649355,-41.34556806211046]},"properties":{"OBJECTID":59,"BRIGADE":"RAILTON","TFS_GROUP":"ROLAND","DISTRICT":"MERSEY","REGION":"NORTH WEST","BRIG_NUMBER":4108,"ADDRESS":"11 Crockers St, Railton, Tas 7305","LIST_ADDRESS":"11 CROCKERS ST RAILTON TAS 7305","STATION_TYPE":"Volunteer","EASTING":451558.74,"NORTHING":5422718.754,"UPDATED":"20221004"}},{"type":"Feature","id":60,"geometry":{"type":"Point","coordinates":[145.99974345267177,-41.19978975743397]},"properties":{"OBJECTID":60,"BRIGADE":"RIANA","TFS_GROUP":"LEVEN","DISTRICT":"MERSEY","REGION":"NORTH WEST","BRIG_NUMBER":4534,"ADDRESS":"1201 Pine Rd, Riana, Tas 7316","LIST_ADDRESS":"1201 PINE RD RIANA TAS 7316","STATION_TYPE":"Volunteer","EASTING":416186.4097,"NORTHING":5438476.3926,"UPDATED":"20221004"}},{"type":"Feature","id":61,"geometry":{"type":"Point","coordinates":[145.83455790996973,-41.14719649405339]},"properties":{"OBJECTID":61,"BRIGADE":"RIDGLEY","TFS_GROUP":"CAPE COUNTRY","DISTRICT":"ARTHUR","REGION":"NORTH WEST","BRIG_NUMBER":4403,"ADDRESS":"994 Ridgley Hwy, Ridgley, Tas 7321","LIST_ADDRESS":"994 RIDGLEY HWY RIDGLEY TAS 7321","STATION_TYPE":"Volunteer","EASTING":402201.9984,"NORTHING":5444248.001,"UPDATED":"20221004"}},{"type":"Feature","id":62,"geometry":{"type":"Point","coordinates":[147.7380128520472,-41.23871786585008]},"properties":{"OBJECTID":62,"BRIGADE":"RINGAROOMA","TFS_GROUP":"DORSET","DISTRICT":"NORTH EAST","REGION":"NORTH","BRIG_NUMBER":3643,"ADDRESS":"27 Ruby Flats Rd, Ringarooma, Tas 7263","LIST_ADDRESS":"27 RUBY FLATS RD RINGAROOMA TAS 7263","STATION_TYPE":"Volunteer","EASTING":561843.7589,"NORTHING":5434479.8754,"UPDATED":"20221004"}},{"type":"Feature","id":185,"geometry":{"type":"Point","coordinates":[147.16068551483053,-42.804239958140265]},"properties":{"OBJECTID":185,"BRIGADE":"MOLESWORTH","TFS_GROUP":"DERWENT","DISTRICT":"HOBART","REGION":"SOUTH","BRIG_NUMBER":2708,"ADDRESS":"560 Molesworth Rd, Molesworth, Tas 7140","LIST_ADDRESS":"560 MOLESWORTH RD MOLESWORTH TAS 7140","STATION_TYPE":"Volunteer","EASTING":513146.3678,"NORTHING":5260872.3886,"UPDATED":"20221004"}},{"type":"Feature","id":186,"geometry":{"type":"Point","coordinates":[147.25613380267555,-43.232551809902695]},"properties":{"OBJECTID":186,"BRIGADE":"MIDDLETON","TFS_GROUP":"D ENTRECASTEAUX","DISTRICT":"SOUTH WEST","REGION":"SOUTH","BRIG_NUMBER":2535,"ADDRESS":"19 Beach Rd, Middleton, Tas 7163","LIST_ADDRESS":"19 BEACH RD MIDDLETON TAS 7163","STATION_TYPE":"Volunteer","EASTING":520798.1422,"NORTHING":5213328.3519,"UPDATED":"20221004"}},{"type":"Feature","id":187,"geometry":{"type":"Point","coordinates":[146.40012573687366,-41.55563804382205]},"properties":{"OBJECTID":187,"BRIGADE":"MOLE CREEK","TFS_GROUP":"WESTERN TIERS","DISTRICT":"TAMAR","REGION":"NORTH","BRIG_NUMBER":3427,"ADDRESS":"94 Pioneer Dr, Mole Creek, Tas 7304","LIST_ADDRESS":"94 PIONEER DR MOLE CREEK TAS 7304","STATION_TYPE":"Volunteer","EASTING":449975.5965,"NORTHING":5399385.1434,"UPDATED":"20221004"}},{"type":"Feature","id":188,"geometry":{"type":"Point","coordinates":[145.61629189449616,-40.980992740346416]},"properties":{"OBJECTID":188,"BRIGADE":"MOORLEAH","TFS_GROUP":"CAPE COUNTRY","DISTRICT":"ARTHUR","REGION":"NORTH WEST","BRIG_NUMBER":8892,"ADDRESS":"720 Preolenna Rd, Moorleah, Tas 7325","LIST_ADDRESS":"720 PREOLENNA RD MOORLEAH TAS 7325","STATION_TYPE":"Volunteer","EASTING":383592.9995,"NORTHING":5462431.0001,"UPDATED":"20221004"}},{"type":"Feature","id":189,"geometry":{"type":"Point","coordinates":[146.48223813008406,-41.2173598535038]},"properties":{"OBJECTID":189,"BRIGADE":"MORIARTY","TFS_GROUP":"PARDOE","DISTRICT":"MERSEY","REGION":"NORTH WEST","BRIG_NUMBER":4521,"ADDRESS":"13 Bonneys Lane, Moriarty, Tas 7307","LIST_ADDRESS":"13 BONNEYS LANE MORIARTY TAS 7307","STATION_TYPE":"Volunteer","EASTING":456598.7201,"NORTHING":5436984.2596,"UPDATED":"20221004"}},{"type":"Feature","id":190,"geometry":{"type":"Point","coordinates":[145.48809978277959,-40.95425025661072]},"properties":{"OBJECTID":190,"BRIGADE":"MONTUMANA","TFS_GROUP":"CIRCULAR HEAD","DISTRICT":"ARTHUR","REGION":"NORTH WEST","BRIG_NUMBER":4426,"ADDRESS":"610 Montumana Rd, Montumana, Tas 7321","LIST_ADDRESS":"610 MONTUMANA RD MONTUMANA TAS 7321","STATION_TYPE":"Volunteer","EASTING":372765.1728,"NORTHING":5465146.933,"UPDATED":"20221004"}},{"type":"Feature","id":191,"geometry":{"type":"Point","coordinates":[144.12346521593537,-39.92046405983543]},"properties":{"OBJECTID":191,"BRIGADE":"NARACOOPA","TFS_GROUP":"KING ISLAND","DISTRICT":"ARTHUR","REGION":"NORTH WEST","BRIG_NUMBER":4437,"ADDRESS":"69 The Esplanade, Naracoopa, Tas 7256","LIST_ADDRESS":"69 NARACOOPA ESP NARACOOPA TAS 7256","STATION_TYPE":"Volunteer","EASTING":254156.7898,"NORTHING":5577108.3514,"UPDATED":"20221004"}},{"type":"Feature","id":192,"geometry":{"type":"Point","coordinates":[144.95221801333474,-40.77711874673886]},"properties":{"OBJECTID":192,"BRIGADE":"MONTAGU","TFS_GROUP":"CIRCULAR HEAD","DISTRICT":"ARTHUR","REGION":"NORTH WEST","BRIG_NUMBER":4423,"ADDRESS":"1691 Montagu Rd, Montagu, Tas 7330","LIST_ADDRESS":"1691 MONTAGU RD MONTAGU TAS 7330","STATION_TYPE":"Volunteer","EASTING":327194.0853,"NORTHING":5483967.0408,"UPDATED":"20221004"}},{"type":"Feature","id":193,"geometry":{"type":"Point","coordinates":[147.31421301462595,-42.91465027910649]},"properties":{"OBJECTID":193,"BRIGADE":"MT NELSON","TFS_GROUP":"DERWENT","DISTRICT":"HOBART","REGION":"SOUTH","BRIG_NUMBER":2745,"ADDRESS":"40 Olinda Gr, Mt Nelson, Tas 7007","LIST_ADDRESS":"40 OLINDA GR MOUNT NELSON TAS 7007","STATION_TYPE":"Volunteer","EASTING":525646.4144,"NORTHING":5248615.1906,"UPDATED":"20221004"}},{"type":"Feature","id":194,"geometry":{"type":"Point","coordinates":[148.1744353316489,-40.84127609700364]},"properties":{"OBJECTID":194,"BRIGADE":"MUSSELROE BAY","TFS_GROUP":"MT CAMERON","DISTRICT":"NORTH EAST","REGION":"NORTH","BRIG_NUMBER":3631,"ADDRESS":"2 Main Rd, Musselroe Bay, Tas 7264","LIST_ADDRESS":"2 MAIN RD MUSSELROE BAY TAS 7264","STATION_TYPE":"Volunteer","EASTING":599009.3936,"NORTHING":5478198.9013,"UPDATED":"20221004"}},{"type":"Feature","id":195,"geometry":{"type":"Point","coordinates":[143.91504248839087,-39.7531574593391]},"properties":{"OBJECTID":195,"BRIGADE":"NORTH KING ISLAND","TFS_GROUP":"KING ISLAND","DISTRICT":"ARTHUR","REGION":"NORTH WEST","BRIG_NUMBER":4438,"ADDRESS":"2249 North Rd, Reekara, Tas 7256","LIST_ADDRESS":"2249 NORTH RD REEKARA TAS 7256","STATION_TYPE":"Volunteer","EASTING":235699.7031,"NORTHING":5595086.7736,"UPDATED":"20221004"}},{"type":"Feature","id":196,"geometry":{"type":"Point","coordinates":[147.7421921534138,-43.09539575310242]},"properties":{"OBJECTID":196,"BRIGADE":"NUBEENA","TFS_GROUP":"TASMAN","DISTRICT":"EAST COAST","REGION":"SOUTH","BRIG_NUMBER":2463,"ADDRESS":"1598 Nubeena Rd, Nubeena, Tas 7184","LIST_ADDRESS":"1598 NUBEENA RD NUBEENA TAS 7184","STATION_TYPE":"Volunteer","EASTING":560401.3024,"NORTHING":5228324.2909,"UPDATED":"20221004"}},{"type":"Feature","id":197,"geometry":{"type":"Point","coordinates":[147.0529360711839,-42.77602372469746]},"properties":{"OBJECTID":197,"BRIGADE":"NEW NORFOLK","TFS_GROUP":"LOWER DERWENT","DISTRICT":"MIDLANDS","REGION":"SOUTH","BRIG_NUMBER":2104,"ADDRESS":"18 Back River Rd, New Norfolk, Tas 7140","LIST_ADDRESS":"18 BACK RIVER RD NEW NORFOLK TAS 7140","STATION_TYPE":"Volunteer","EASTING":504194.8975,"NORTHING":5264088.251,"UPDATED":"20221004"}},{"type":"Feature","id":198,"geometry":{"type":"Point","coordinates":[147.37260629736272,-43.11279075815305]},"properties":{"OBJECTID":198,"BRIGADE":"NORTH BRUNY","TFS_GROUP":"D ENTRECASTEAUX","DISTRICT":"SOUTH WEST","REGION":"SOUTH","BRIG_NUMBER":2501,"ADDRESS":"682 Bruny Island Main Rd, North Bruny, Tas 7150","LIST_ADDRESS":"682 BRUNY ISLAND MAIN RD NORTH BRUNY TAS 7150","STATION_TYPE":"Volunteer","EASTING":530314.9288,"NORTHING":5226592.49,"UPDATED":"20221004"}},{"type":"Feature","id":199,"geometry":{"type":"Point","coordinates":[146.10968085009242,-41.20687300399379]},"properties":{"OBJECTID":199,"BRIGADE":"NORTH MOTTON","TFS_GROUP":"LEVEN","DISTRICT":"MERSEY","REGION":"NORTH WEST","BRIG_NUMBER":4544,"ADDRESS":"578 Preston Rd, North Motton, Tas 7315","LIST_ADDRESS":"578 PRESTON RD NORTH MOTTON TAS 7315","STATION_TYPE":"Volunteer","EASTING":425242.6792,"NORTHING":5437888.4631,"UPDATED":"20221004"}},{"type":"Feature","id":200,"geometry":{"type":"Point","coordinates":[147.37059757455592,-42.29957071691562]},"properties":{"OBJECTID":200,"BRIGADE":"OATLANDS","TFS_GROUP":"DULVERTON","DISTRICT":"MIDLANDS","REGION":"SOUTH","BRIG_NUMBER":2135,"ADDRESS":"18 Church St, Oatlands, Tas 7120","LIST_ADDRESS":"18 CHURCH ST OATLANDS TAS 7120","STATION_TYPE":"Volunteer","EASTING":530547.6542,"NORTHING":5316895.4214,"UPDATED":"20221004"}},{"type":"Feature","id":201,"geometry":{"type":"Point","coordinates":[147.53164058932578,-42.73652779510187]},"properties":{"OBJECTID":201,"BRIGADE":"ORIELTON","TFS_GROUP":"SORELL","DISTRICT":"EAST COAST","REGION":"SOUTH","BRIG_NUMBER":2444,"ADDRESS":"3054 Tasman Hwy, Orielton, Tas 7172","LIST_ADDRESS":"3054 TASMAN HWY ORIELTON TAS 7172","STATION_TYPE":"Volunteer","EASTING":543517.8878,"NORTHING":5268305.6523,"UPDATED":"20221004"}},{"type":"Feature","id":202,"geometry":{"type":"Point","coordinates":[146.71029722664554,-42.48440090170048]},"properties":{"OBJECTID":202,"BRIGADE":"OUSE","TFS_GROUP":"UPPER DERWENT","DISTRICT":"MIDLANDS","REGION":"SOUTH","BRIG_NUMBER":2626,"ADDRESS":"6958 Lyell Hwy, Ouse, Tas 7140","LIST_ADDRESS":"6958 LYELL HWY OUSE TAS 7140","STATION_TYPE":"Volunteer","EASTING":476190.3186,"NORTHING":5296398.3649,"UPDATED":"20221004"}},{"type":"Feature","id":203,"geometry":{"type":"Point","coordinates":[147.40812612207466,-42.34902714148456]},"properties":{"OBJECTID":203,"BRIGADE":"PARATTAH","TFS_GROUP":"DULVERTON","DISTRICT":"MIDLANDS","REGION":"SOUTH","BRIG_NUMBER":2631,"ADDRESS":"645 Tunnack Rd, Parattah, Tas 7120","LIST_ADDRESS":"645 TUNNACK RD PARATTAH TAS 7120","STATION_TYPE":"Volunteer","EASTING":533565.9982,"NORTHING":5311460.0039,"UPDATED":"20221004"}},{"type":"Feature","id":204,"geometry":{"type":"Point","coordinates":[146.0754499515063,-41.115597347152104]},"properties":{"OBJECTID":204,"BRIGADE":"PENGUIN","TFS_GROUP":"LEVEN","DISTRICT":"MERSEY","REGION":"NORTH WEST","BRIG_NUMBER":4137,"ADDRESS":"102 Main Rd, Penguin, Tas 7316","LIST_ADDRESS":"102 MAIN RD PENGUIN TAS 7316","STATION_TYPE":"Volunteer","EASTING":422379.4715,"NORTHING":5447998.5717,"UPDATED":"20221004"}},{"type":"Feature","id":205,"geometry":{"type":"Point","coordinates":[147.26804006895966,-42.777473159497994]},"properties":{"OBJECTID":205,"BRIGADE":"OLD BEACH","TFS_GROUP":"CLARENCE","DISTRICT":"HOBART","REGION":"SOUTH","BRIG_NUMBER":2724,"ADDRESS":"86 Jetty Rd, Old Beach, Tas 7017","LIST_ADDRESS":"86 JETTY RD OLD BEACH TAS 7017","STATION_TYPE":"Volunteer","EASTING":521996.2544,"NORTHING":5263898.462,"UPDATED":"20221004"}},{"type":"Feature","id":206,"geometry":{"type":"Point","coordinates":[146.95877023800136,-41.79792813752601]},"properties":{"OBJECTID":206,"BRIGADE":"POATINA","TFS_GROUP":"NORFOLK PLAINS","DISTRICT":"SOUTH ESK","REGION":"NORTH","BRIG_NUMBER":3536,"ADDRESS":"Unit 64 16 Gordon St, Poatina, Tas 7302","LIST_ADDRESS":"UNIT 64 16 GORDON ST POATINA TAS 7302","STATION_TYPE":"Volunteer","EASTING":496511.4276,"NORTHING":5372159.364,"UPDATED":"20221004"}},{"type":"Feature","id":207,"geometry":{"type":"Point","coordinates":[147.17619433442442,-41.57762012980491]},"properties":{"OBJECTID":207,"BRIGADE":"PERTH","TFS_GROUP":"NORFOLK PLAINS","DISTRICT":"SOUTH ESK","REGION":"NORTH","BRIG_NUMBER":3102,"ADDRESS":"81a Main Rd, Perth, Tas 7300","LIST_ADDRESS":"81A MAIN RD PERTH TAS 7300","STATION_TYPE":"Volunteer","EASTING":514688.0972,"NORTHING":5397103.4102,"UPDATED":"20221004"}},{"type":"Feature","id":208,"geometry":{"type":"Point","coordinates":[147.8512861432754,-43.14077038905095]},"properties":{"OBJECTID":208,"BRIGADE":"PORT ARTHUR","TFS_GROUP":"TASMAN","DISTRICT":"EAST COAST","REGION":"SOUTH","BRIG_NUMBER":2464,"ADDRESS":"6965 Arthur Hwy, Port Arthur, Tas 7182","LIST_ADDRESS":"6965 ARTHUR HWY PORT ARTHUR TAS 7182","STATION_TYPE":"Volunteer","EASTING":569228.488,"NORTHING":5223201.0176,"UPDATED":"20221004"}},{"type":"Feature","id":209,"geometry":{"type":"Point","coordinates":[146.5536261291071,-41.1658679368075]},"properties":{"OBJECTID":209,"BRIGADE":"PORT SORELL","TFS_GROUP":"PARDOE","DISTRICT":"MERSEY","REGION":"NORTH WEST","BRIG_NUMBER":4522,"ADDRESS":"41 Rice St, Port Sorell, Tas 7307","LIST_ADDRESS":"41 RICE ST PORT SORELL TAS 7307","STATION_TYPE":"Volunteer","EASTING":462553.4919,"NORTHING":5442733.7411,"UPDATED":"20221004"}},{"type":"Feature","id":210,"geometry":{"type":"Point","coordinates":[147.18187785125954,-41.08312442913031]},"properties":{"OBJECTID":210,"BRIGADE":"PIPERS BROOK","TFS_GROUP":"DALRYMPLE","DISTRICT":"NORTH EAST","REGION":"NORTH","BRIG_NUMBER":3618,"ADDRESS":"14 Hall Rd, Pipers Brook, Tas 7254","LIST_ADDRESS":"14 HALL RD PIPERS BROOK TAS 7254","STATION_TYPE":"Volunteer","EASTING":515276.976,"NORTHING":5451999.337,"UPDATED":"20221004"}},{"type":"Feature","id":211,"geometry":{"type":"Point","coordinates":[147.0914574843654,-41.10063833257324]},"properties":{"OBJECTID":211,"BRIGADE":"PIPERS RIVER","TFS_GROUP":"DALRYMPLE","DISTRICT":"NORTH EAST","REGION":"NORTH","BRIG_NUMBER":3619,"ADDRESS":"76 School Rd, Pipers River, Tas 7252","LIST_ADDRESS":"76 SCHOOL RD PIPERS RIVER TAS 7252","STATION_TYPE":"Volunteer","EASTING":507680.0036,"NORTHING":5450067.0013,"UPDATED":"20221004"}},{"type":"Feature","id":212,"geometry":{"type":"Point","coordinates":[145.5566936287053,-42.081151395504314]},"properties":{"OBJECTID":212,"BRIGADE":"QUEENSTOWN","TFS_GROUP":"WEST COAST","DISTRICT":"ARTHUR","REGION":"NORTH WEST","BRIG_NUMBER":4102,"ADDRESS":"24 Cutten St, Queenstown, Tas 7467","LIST_ADDRESS":"24 CUTTEN ST QUEENSTOWN TAS 7467","STATION_TYPE":"Volunteer","EASTING":380619.4835,"NORTHING":5340205.7494,"UPDATED":"20221004"}},{"type":"Feature","id":213,"geometry":{"type":"Point","coordinates":[148.0014099587987,-41.29163000573844]},"properties":{"OBJECTID":213,"BRIGADE":"PYENGANA","TFS_GROUP":"BRIESIES","DISTRICT":"NORTH EAST","REGION":"NORTH","BRIG_NUMBER":3632,"ADDRESS":"217 St Columba Falls Rd, Pyengana, Tas 7216","LIST_ADDRESS":"217 ST COLUMBA FALLS RD PYENGANA TAS 7216","STATION_TYPE":"Volunteer","EASTING":583911.8508,"NORTHING":5428233.3819,"UPDATED":"20221004"}},{"type":"Feature","id":214,"geometry":{"type":"Point","coordinates":[147.1276401480777,-41.47405718960966]},"properties":{"OBJECTID":214,"BRIGADE":"PROSPECT","TFS_GROUP":"LAUNCESTON","DISTRICT":"LAUNCESTON","REGION":"NORTH","BRIG_NUMBER":3003,"ADDRESS":"282 Westbury Rd, Prospect Vale, Tas 7250","LIST_ADDRESS":"282 WESTBURY RD PROSPECT VALE TAS 7250","STATION_TYPE":"Volunteer","EASTING":510657.4519,"NORTHING":5408608.0583,"UPDATED":"20221004"}},{"type":"Feature","id":215,"geometry":{"type":"Point","coordinates":[147.6674897824207,-42.890136773716804]},"properties":{"OBJECTID":215,"BRIGADE":"PRIMROSE SANDS","TFS_GROUP":"SORELL","DISTRICT":"EAST COAST","REGION":"SOUTH","BRIG_NUMBER":2445,"ADDRESS":"3 Primrose Sands Esp, Primrose Sands, Tas 7173","LIST_ADDRESS":"3 PRIMROSE SANDS ESP PRIMROSE SANDS TAS 7173","STATION_TYPE":"Volunteer","EASTING":554502.9167,"NORTHING":5251169.1329,"UPDATED":"20221004"}},{"type":"Feature","id":216,"geometry":{"type":"Point","coordinates":[146.77405640888242,-41.3416258565015]},"properties":{"OBJECTID":216,"BRIGADE":"FRANKFORD/BIRRALEE","TFS_GROUP":"QUAMBY","DISTRICT":"TAMAR","REGION":"NORTH","BRIG_NUMBER":3463,"ADDRESS":"Frankford Rd, Frankford, Tas 7275","LIST_ADDRESS":"FRANKFORD RD FRANKFORD TAS 7275","STATION_TYPE":"Volunteer","EASTING":481096.2446,"NORTHING":5423293.4785,"UPDATED":"20221004"}},{"type":"Feature","id":217,"geometry":{"type":"Point","coordinates":[147.7615117845464,-40.8695333741812]},"properties":{"OBJECTID":217,"BRIGADE":"TOMAHAWK","TFS_GROUP":"MT CAMERON","DISTRICT":"NORTH EAST","REGION":"NORTH","BRIG_NUMBER":3647,"ADDRESS":"Main Rd, Tomahawk, Tas 7262","LIST_ADDRESS":"MAIN RD TOMAHAWK TAS 7262","STATION_TYPE":"Volunteer","EASTING":564170.702,"NORTHING":5475446.76,"UPDATED":"20221004"}},{"type":"Feature","id":155,"geometry":{"type":"Point","coordinates":[145.14507973815049,-40.91162331342848]},"properties":{"OBJECTID":155,"BRIGADE":"IRISHTOWN","TFS_GROUP":"CIRCULAR HEAD","DISTRICT":"ARTHUR","REGION":"NORTH WEST","BRIG_NUMBER":4416,"ADDRESS":"590 Irishtown Rd, Irishtown, Tas 7330","LIST_ADDRESS":"590 IRISHTOWN RD IRISHTOWN TAS 7330","STATION_TYPE":"Volunteer","EASTING":343786.2414,"NORTHING":5469397.191,"UPDATED":"20221004"}},{"type":"Feature","id":156,"geometry":{"type":"Point","coordinates":[147.29046884295252,-42.38014863405618]},"properties":{"OBJECTID":156,"BRIGADE":"JERICHO","TFS_GROUP":"DULVERTON","DISTRICT":"MIDLANDS","REGION":"SOUTH","BRIG_NUMBER":2635,"ADDRESS":"471 Jericho Rd, Jericho, Tas 7030","LIST_ADDRESS":"471 JERICHO RD JERICHO TAS 7030","STATION_TYPE":"Volunteer","EASTING":523912.2387,"NORTHING":5307974.0485,"UPDATED":"20221004"}},{"type":"Feature","id":157,"geometry":{"type":"Point","coordinates":[146.79206663140238,-41.10778352728597]},"properties":{"OBJECTID":157,"BRIGADE":"KELSO","TFS_GROUP":"WEST TAMAR","DISTRICT":"TAMAR","REGION":"NORTH","BRIG_NUMBER":3406,"ADDRESS":"1 Kelso Jetty Rd, Kelso, Tas 7270","LIST_ADDRESS":"1 KELSO JETTY RD KELSO TAS 7270","STATION_TYPE":"Volunteer","EASTING":482540.9988,"NORTHING":5449257.0027,"UPDATED":"20221004"}},{"type":"Feature","id":158,"geometry":{"type":"Point","coordinates":[146.49305170721618,-41.40061805565863]},"properties":{"OBJECTID":158,"BRIGADE":"KIMBERLEY","TFS_GROUP":"ROLAND","DISTRICT":"MERSEY","REGION":"NORTH WEST","BRIG_NUMBER":3425,"ADDRESS":"1161 Railton Rd, Kimberley, Tas 7304","LIST_ADDRESS":"1161 RAILTON RD KIMBERLEY TAS 7304","STATION_TYPE":"Volunteer","EASTING":457623.9986,"NORTHING":5416645.0029,"UPDATED":"20221004"}},{"type":"Feature","id":159,"geometry":{"type":"Point","coordinates":[147.19998477382657,-42.5320684493905]},"properties":{"OBJECTID":159,"BRIGADE":"KEMPTON","TFS_GROUP":"JORDAN","DISTRICT":"MIDLANDS","REGION":"SOUTH","BRIG_NUMBER":2613,"ADDRESS":"9 Old Hunting Ground Rd, Kempton, Tas 7030","LIST_ADDRESS":"9 OLD HUNTING GROUND RD KEMPTON TAS 7030","STATION_TYPE":"Volunteer","EASTING":516423.579,"NORTHING":5291126.6997,"UPDATED":"20221004"}},{"type":"Feature","id":160,"geometry":{"type":"Point","coordinates":[147.12693162615187,-41.27999018900722]},"properties":{"OBJECTID":160,"BRIGADE":"KAROOLA","TFS_GROUP":"MT ARTHUR GROUP","DISTRICT":"NORTH EAST","REGION":"NORTH","BRIG_NUMBER":3447,"ADDRESS":"700 Pipers River Rd, Turners Marsh, Tas 7267","LIST_ADDRESS":"700 PIPERS RIVER RD TURNERS MARSH TAS 7267","STATION_TYPE":"Volunteer","EASTING":510629.8429,"NORTHING":5430152.8453,"UPDATED":"20221004"}},{"type":"Feature","id":161,"geometry":{"type":"Point","coordinates":[147.8122304984012,-43.05958717283598]},"properties":{"OBJECTID":161,"BRIGADE":"KOONYA","TFS_GROUP":"TASMAN","DISTRICT":"EAST COAST","REGION":"SOUTH","BRIG_NUMBER":2462,"ADDRESS":"564 Nubeena Rd, Koonya, Tas 7187","LIST_ADDRESS":"564 NUBEENA RD KOONYA TAS 7187","STATION_TYPE":"Volunteer","EASTING":566139.7128,"NORTHING":5232248.0259,"UPDATED":"20221004"}},{"type":"Feature","id":162,"geometry":{"type":"Point","coordinates":[147.04093573062826,-42.830062625418776]},"properties":{"OBJECTID":162,"BRIGADE":"LACHLAN","TFS_GROUP":"LOWER DERWENT","DISTRICT":"MIDLANDS","REGION":"SOUTH","BRIG_NUMBER":2705,"ADDRESS":"516 Lachlan Rd, Lachlan, Tas 7140","LIST_ADDRESS":"516 LACHLAN RD LACHLAN TAS 7140","STATION_TYPE":"Volunteer","EASTING":503345.7844,"NORTHING":5258055.3667,"UPDATED":"20221004"}},{"type":"Feature","id":163,"geometry":{"type":"Point","coordinates":[147.1126552358389,-41.78042354119315]},"properties":{"OBJECTID":163,"BRIGADE":"LAKE RIVER","TFS_GROUP":"NORFOLK PLAINS","DISTRICT":"SOUTH ESK","REGION":"NORTH","BRIG_NUMBER":3532,"ADDRESS":"3979 Macquarie Rd, Cressy, Tas 7302","LIST_ADDRESS":"3979 MACQUARIE RD CRESSY TAS 7302","STATION_TYPE":"Volunteer","EASTING":509368.7764,"NORTHING":5373864.1389,"UPDATED":"20221004"}},{"type":"Feature","id":164,"geometry":{"type":"Point","coordinates":[146.4162014733619,-41.23587782574666]},"properties":{"OBJECTID":164,"BRIGADE":"LATROBE","TFS_GROUP":"PARDOE","DISTRICT":"MERSEY","REGION":"NORTH WEST","BRIG_NUMBER":4123,"ADDRESS":"179 Gilbert St, Latrobe, Tas 7307","LIST_ADDRESS":"179 GILBERT ST LATROBE TAS 7307","STATION_TYPE":"Volunteer","EASTING":451076.9922,"NORTHING":5434893.4298,"UPDATED":"20221004"}},{"type":"Feature","id":165,"geometry":{"type":"Point","coordinates":[147.30716291230868,-42.99246992057732]},"properties":{"OBJECTID":165,"BRIGADE":"KINGSTON","TFS_GROUP":"NORTHWEST BAY","DISTRICT":"SOUTH WEST","REGION":"SOUTH","BRIG_NUMBER":2131,"ADDRESS":"193 Redwood Rd, Kingston, Tas 7050","LIST_ADDRESS":"193 REDWOOD RD KINGSTON TAS 7050","STATION_TYPE":"Volunteer","EASTING":525039.4083,"NORTHING":5239975.6377,"UPDATED":"20221004"}},{"type":"Feature","id":166,"geometry":{"type":"Point","coordinates":[147.2269706464585,-41.178319756485415]},"properties":{"OBJECTID":166,"BRIGADE":"LEBRINA","TFS_GROUP":"MT ARTHUR GROUP","DISTRICT":"NORTH EAST","REGION":"NORTH","BRIG_NUMBER":3448,"ADDRESS":"896 Golconda Rd, Lebrina, Tas 7254","LIST_ADDRESS":"896 GOLCONDA RD LEBRINA TAS 7254","STATION_TYPE":"Volunteer","EASTING":519037.047,"NORTHING":5441422.6201,"UPDATED":"20221004"}},{"type":"Feature","id":167,"geometry":{"type":"Point","coordinates":[147.1354486952944,-41.43810199363049]},"properties":{"OBJECTID":167,"BRIGADE":"LAUNCESTON","TFS_GROUP":"LAUNCESTON","DISTRICT":"LAUNCESTON","REGION":"NORTH","BRIG_NUMBER":3001,"ADDRESS":"85-89 Paterson St, Launceston, Tas 7250","LIST_ADDRESS":"85-89 PATERSON ST LAUNCESTON TAS 7250","STATION_TYPE":"Career","EASTING":511322.0288,"NORTHING":5412593.8377,"UPDATED":"20221004"}},{"type":"Feature","id":168,"geometry":{"type":"Point","coordinates":[147.49220004689508,-42.9095213920921]},"properties":{"OBJECTID":168,"BRIGADE":"LAUDERDALE","TFS_GROUP":"CLARENCE","DISTRICT":"HOBART","REGION":"SOUTH","BRIG_NUMBER":2741,"ADDRESS":"8a Bangalee St, Lauderdale, Tas 7021","LIST_ADDRESS":"8A BANGALEE ST LAUDERDALE TAS 7021","STATION_TYPE":"Volunteer","EASTING":540177.2664,"NORTHING":5249115.1242,"UPDATED":"20221004"}},{"type":"Feature","id":169,"geometry":{"type":"Point","coordinates":[148.2393733730331,-40.20773556090188]},"properties":{"OBJECTID":169,"BRIGADE":"LADY BARRON","TFS_GROUP":"FLINDERS","DISTRICT":"NORTH EAST","REGION":"NORTH","BRIG_NUMBER":3604,"ADDRESS":"3 Main St, Lady Barron, Tas 7255","LIST_ADDRESS":"3 MAIN ST LADY BARRON TAS 7255","STATION_TYPE":"Volunteer","EASTING":605472.6442,"NORTHING":5548449.2671,"UPDATED":"20221004"}},{"type":"Feature","id":170,"geometry":{"type":"Point","coordinates":[147.04408271681635,-41.362269382130755]},"properties":{"OBJECTID":170,"BRIGADE":"LEGANA","TFS_GROUP":"WEST TAMAR","DISTRICT":"TAMAR","REGION":"NORTH","BRIG_NUMBER":3404,"ADDRESS":"18 Freshwater Point Rd, Legana, Tas 7277","LIST_ADDRESS":"18 FRESHWATER POINT RD LEGANA TAS 7277","STATION_TYPE":"Volunteer","EASTING":503687.0504,"NORTHING":5421025.3942,"UPDATED":"20221004"}},{"type":"Feature","id":171,"geometry":{"type":"Point","coordinates":[147.21822136371338,-41.24952871899713]},"properties":{"OBJECTID":171,"BRIGADE":"LILYDALE","TFS_GROUP":"MT ARTHUR GROUP","DISTRICT":"NORTH EAST","REGION":"NORTH","BRIG_NUMBER":3449,"ADDRESS":"2 Doaks Rd, Lilydale, Tas 7268","LIST_ADDRESS":"2 DOAKS RD LILYDALE TAS 7268","STATION_TYPE":"Volunteer","EASTING":518283.3673,"NORTHING":5433519.3247,"UPDATED":"20221004"}},{"type":"Feature","id":172,"geometry":{"type":"Point","coordinates":[147.12175823112554,-41.597627522737355]},"properties":{"OBJECTID":172,"BRIGADE":"LONGFORD","TFS_GROUP":"NORFOLK PLAINS","DISTRICT":"SOUTH ESK","REGION":"NORTH","BRIG_NUMBER":3136,"ADDRESS":"29-31 Marlborough St, Longford, Tas 7301","LIST_ADDRESS":"29-31 MARLBOROUGH ST LONGFORD TAS 7301","STATION_TYPE":"Volunteer","EASTING":510147.0034,"NORTHING":5394890.0021,"UPDATED":"20221004"}},{"type":"Feature","id":173,"geometry":{"type":"Point","coordinates":[146.13531752772772,-41.54312755120833]},"properties":{"OBJECTID":173,"BRIGADE":"LORINNA","TFS_GROUP":"ROLAND","DISTRICT":"MERSEY","REGION":"NORTH WEST","BRIG_NUMBER":4505,"ADDRESS":"4 Botts Rd, Lorinna, Tas 7306","LIST_ADDRESS":"4 BOTTS RD LORINNA TAS 7306","STATION_TYPE":"Volunteer","EASTING":427878.7705,"NORTHING":5400586.849,"UPDATED":"20221004"}},{"type":"Feature","id":174,"geometry":{"type":"Point","coordinates":[144.69744102596357,-40.922810546891455]},"properties":{"OBJECTID":174,"BRIGADE":"MARRAWAH","TFS_GROUP":"CIRCULAR HEAD","DISTRICT":"ARTHUR","REGION":"NORTH WEST","BRIG_NUMBER":4418,"ADDRESS":"844 Comeback Rd, Marrawah, Tas 7330","LIST_ADDRESS":"844 COMEBACK RD MARRAWAH TAS 7330","STATION_TYPE":"Volunteer","EASTING":305908.7121,"NORTHING":5467268.6625,"UPDATED":"20221004"}},{"type":"Feature","id":175,"geometry":{"type":"Point","coordinates":[147.26142513032894,-43.03065263322666]},"properties":{"OBJECTID":175,"BRIGADE":"MARGATE","TFS_GROUP":"NORTHWEST BAY","DISTRICT":"SOUTH WEST","REGION":"SOUTH","BRIG_NUMBER":2536,"ADDRESS":"26 Van Morey Rd, Margate, Tas 7054","LIST_ADDRESS":"26 VAN MOREY RD MARGATE TAS 7054","STATION_TYPE":"Volunteer","EASTING":521297.7413,"NORTHING":5235748.1161,"UPDATED":"20221004"}},{"type":"Feature","id":176,"geometry":{"type":"Point","coordinates":[145.3695600130954,-40.95402480601055]},"properties":{"OBJECTID":176,"BRIGADE":"MAWBANNA","TFS_GROUP":"CIRCULAR HEAD","DISTRICT":"ARTHUR","REGION":"NORTH WEST","BRIG_NUMBER":4419,"ADDRESS":"1446 Mawbanna Rd, Mawbanna, Tas 7321","LIST_ADDRESS":"1446 MAWBANNA RD MAWBANNA TAS 7321","STATION_TYPE":"Volunteer","EASTING":362779.6182,"NORTHING":5465066.7014,"UPDATED":"20221004"}},{"type":"Feature","id":177,"geometry":{"type":"Point","coordinates":[147.8880927561228,-41.475642752426474]},"properties":{"OBJECTID":177,"BRIGADE":"MATHINNA","TFS_GROUP":"GOLDEN GATE","DISTRICT":"SOUTH ESK","REGION":"NORTH","BRIG_NUMBER":3524,"ADDRESS":"72 High St, Mathinna, Tas 7214","LIST_ADDRESS":"72 HIGH ST MATHINNA TAS 7214","STATION_TYPE":"Volunteer","EASTING":574150.8187,"NORTHING":5408059.2693,"UPDATED":"20221004"}},{"type":"Feature","id":178,"geometry":{"type":"Point","coordinates":[147.05440947174316,-42.75596345888641]},"properties":{"OBJECTID":178,"BRIGADE":"MAGRA","TFS_GROUP":"LOWER DERWENT","DISTRICT":"MIDLANDS","REGION":"SOUTH","BRIG_NUMBER":2706,"ADDRESS":"420 Back River Rd, Magra, Tas 7140","LIST_ADDRESS":"420 BACK RIVER RD MAGRA TAS 7140","STATION_TYPE":"Volunteer","EASTING":504452.3369,"NORTHING":5266283.0319,"UPDATED":"20221004"}},{"type":"Feature","id":179,"geometry":{"type":"Point","coordinates":[146.62453007363433,-42.75755853525323]},"properties":{"OBJECTID":179,"BRIGADE":"MAYDENA","TFS_GROUP":"UPPER DERWENT","DISTRICT":"MIDLANDS","REGION":"SOUTH","BRIG_NUMBER":2707,"ADDRESS":"40 Junee Rd, Maydena, Tas 7140","LIST_ADDRESS":"40 JUNEE RD MAYDENA TAS 7140","STATION_TYPE":"Volunteer","EASTING":469275.9989,"NORTHING":5266038.9989,"UPDATED":"20221004"}},{"type":"Feature","id":180,"geometry":{"type":"Point","coordinates":[147.27546112967522,-42.861077470058106]},"properties":{"OBJECTID":180,"BRIGADE":"LENAH VALLEY","TFS_GROUP":"DERWENT","DISTRICT":"HOBART","REGION":"SOUTH","BRIG_NUMBER":2009,"ADDRESS":"58 Kalang Av, Lenah Valley, Tas 7008","LIST_ADDRESS":"58 KALANG AV LENAH VALLEY TAS 7008","STATION_TYPE":"Volunteer","EASTING":522502.9059,"NORTHING":5254575.3309,"UPDATED":"20221004"}},{"type":"Feature","id":181,"geometry":{"type":"Point","coordinates":[146.61171137683797,-41.651490974146995]},"properties":{"OBJECTID":181,"BRIGADE":"MEANDER","TFS_GROUP":"WESTERN TIERS","DISTRICT":"TAMAR","REGION":"NORTH","BRIG_NUMBER":3426,"ADDRESS":"118 Main Rd, Meander, Tas 7304","LIST_ADDRESS":"118 MAIN RD MEANDER TAS 7304","STATION_TYPE":"Volunteer","EASTING":467667.9636,"NORTHING":5388844.3438,"UPDATED":"20221004"}},{"type":"Feature","id":182,"geometry":{"type":"Point","coordinates":[147.99375737438666,-42.30242412665061]},"properties":{"OBJECTID":182,"BRIGADE":"MAYFIELD","TFS_GROUP":"GLAMORGAN","DISTRICT":"EAST COAST","REGION":"SOUTH","BRIG_NUMBER":2425,"ADDRESS":"101 Saltworks Rd, Little Swanport, Tas 7190","LIST_ADDRESS":"101 SALTWORKS RD LITTLE SWANPORT TAS 7190","STATION_TYPE":"Volunteer","EASTING":581910.1739,"NORTHING":5316166.9686,"UPDATED":"20221004"}},{"type":"Feature","id":183,"geometry":{"type":"Point","coordinates":[146.28905571389842,-41.24155581151101]},"properties":{"OBJECTID":183,"BRIGADE":"MELROSE","TFS_GROUP":"BARRINGTON","DISTRICT":"MERSEY","REGION":"NORTH WEST","BRIG_NUMBER":4562,"ADDRESS":"673 Melrose Rd, Melrose, Tas 7310","LIST_ADDRESS":"673 MELROSE RD MELROSE TAS 7310","STATION_TYPE":"Volunteer","EASTING":440427.1169,"NORTHING":5434183.728,"UPDATED":"20221004"}},{"type":"Feature","id":184,"geometry":{"type":"Point","coordinates":[147.53088412161836,-42.80261088770986]},"properties":{"OBJECTID":184,"BRIGADE":"MIDWAY POINT","TFS_GROUP":"SORELL","DISTRICT":"EAST COAST","REGION":"SOUTH","BRIG_NUMBER":2143,"ADDRESS":"14-16 Penna Rd, Midway Point, Tas 7171","LIST_ADDRESS":"14-16 PENNA RD MIDWAY POINT TAS 7171","STATION_TYPE":"Volunteer","EASTING":543409.7944,"NORTHING":5260967.8983,"UPDATED":"20221004"}}],"metadata":{"title":"Tasmania Fire Service Station Locations","source":"The LIST (Land Information System Tasmania) \u2014 Emergency Management Public MapServer","source_url":"https://services.thelist.tas.gov.au/arcgis/rest/services/Public/EmergencyManagementPublic/MapServer/6","licence":"CC BY 3.0 AU","attribution":"State of Tasmania","notes":"217 TFS stations (career and volunteer). Fields: BRIGADE, TFS_GROUP, DISTRICT, REGION, STATION_TYPE."}}