{"type":"FeatureCollection","features":[{"type":"Feature","id":355,"geometry":{"type":"Point","coordinates":[148.24814500000002,-41.325862999064285]},"properties":{"objectid":355,"featuretype":"Council Office","description":"A facility where a Local Government\u00e2\u20ac\u2122s main council operations are regularly performed","class":"Council Office","sdedist.spool.NationalLGACouncilOffices_New.fid":"355","name":"Break O'Day Council","operationalstatus":"Operational","localgovernmentarea_lga":"Break O'Day (M)","address":"Steele Street","suburb":"St Helens","state":"Tasmania","spatialconfidence":"5","revised":1328486400000,"comment":null}},{"type":"Feature","id":356,"geometry":{"type":"Point","coordinates":[147.27818200000002,-42.751064999059516]},"properties":{"objectid":356,"featuretype":"Council Office","description":"A facility where a Local Government\u00e2\u20ac\u2122s main council operations are regularly performed","class":"Council Office","sdedist.spool.NationalLGACouncilOffices_New.fid":"356","name":"Brighton Council","operationalstatus":"Operational","localgovernmentarea_lga":"Brighton (M)","address":"1 Tivoli Road","suburb":"Old Beach","state":"Tasmania","spatialconfidence":"5","revised":1417651200000,"comment":null}},{"type":"Feature","id":357,"geometry":{"type":"Point","coordinates":[146.1724190000001,-41.15602999906496]},"properties":{"objectid":357,"featuretype":"Council Office","description":"A facility where a Local Government\u00e2\u20ac\u2122s main council operations are regularly performed","class":"Council Office","sdedist.spool.NationalLGACouncilOffices_New.fid":"357","name":"Central Coast Council","operationalstatus":"Operational","localgovernmentarea_lga":"Central Coast (M)","address":"19 King Edward Street","suburb":"Ulverstone","state":"Tasmania","spatialconfidence":"5","revised":1328486400000,"comment":null}},{"type":"Feature","id":358,"geometry":{"type":"Point","coordinates":[146.82972700000005,-42.56009399905998]},"properties":{"objectid":358,"featuretype":"Council Office","description":"A facility where a Local Government\u00e2\u20ac\u2122s main council operations are regularly performed","class":"Council Office","sdedist.spool.NationalLGACouncilOffices_New.fid":"358","name":"Central Highlands Council","operationalstatus":"Operational","localgovernmentarea_lga":"Central Highlands (M)","address":"6 Tarleton Street","suburb":"Hamilton","state":"Tasmania","spatialconfidence":"5","revised":1328486400000,"comment":null}},{"type":"Feature","id":359,"geometry":{"type":"Point","coordinates":[145.1270740000001,-40.84368699906638]},"properties":{"objectid":359,"featuretype":"Council Office","description":"A facility where a Local Government\u00e2\u20ac\u2122s main council operations are regularly performed","class":"Council Office","sdedist.spool.NationalLGACouncilOffices_New.fid":"359","name":"Circular Head Council","operationalstatus":"Operational","localgovernmentarea_lga":"Circular Head (M)","address":"33 Goldie Street","suburb":"Smithton","state":"Tasmania","spatialconfidence":"5","revised":1328486400000,"comment":null}},{"type":"Feature","id":360,"geometry":{"type":"Point","coordinates":[145.9058100000001,-41.053148999065456]},"properties":{"objectid":360,"featuretype":"Council Office","description":"A facility where a Local Government\u00e2\u20ac\u2122s main council operations are regularly performed","class":"Council Office","sdedist.spool.NationalLGACouncilOffices_New.fid":"360","name":"Burnie City Council","operationalstatus":"Operational","localgovernmentarea_lga":"Burnie (C)","address":"80 Wilson Street","suburb":"Burnie","state":"Tasmania","spatialconfidence":"5","revised":1328486400000,"comment":null}},{"type":"Feature","id":361,"geometry":{"type":"Point","coordinates":[147.36860400000012,-42.86450699905921]},"properties":{"objectid":361,"featuretype":"Council Office","description":"A facility where a Local Government\u00e2\u20ac\u2122s main council operations are regularly performed","class":"Council Office","sdedist.spool.NationalLGACouncilOffices_New.fid":"361","name":"Clarence City Council","operationalstatus":"Operational","localgovernmentarea_lga":"Clarence (C)","address":"38 Bligh Street","suburb":"Clarence","state":"Tasmania","spatialconfidence":"5","revised":1328486400000,"comment":null}},{"type":"Feature","id":362,"geometry":{"type":"Point","coordinates":[146.35923400000001,-41.17775799906493]},"properties":{"objectid":362,"featuretype":"Council Office","description":"A facility where a Local Government\u00e2\u20ac\u2122s main council operations are regularly performed","class":"Council Office","sdedist.spool.NationalLGACouncilOffices_New.fid":"362","name":"Devonport City Council","operationalstatus":"Operational","localgovernmentarea_lga":"Devonport (C)","address":"44-48 Best Street","suburb":"Devonport","state":"Tasmania","spatialconfidence":"5","revised":1328486400000,"comment":null}},{"type":"Feature","id":363,"geometry":{"type":"Point","coordinates":[147.2749480000001,-42.8336819990593]},"properties":{"objectid":363,"featuretype":"Council Office","description":"A facility where a Local Government\u00e2\u20ac\u2122s main council operations are regularly performed","class":"Council Office","sdedist.spool.NationalLGACouncilOffices_New.fid":"363","name":"Glenorchy City Council","operationalstatus":"Operational","localgovernmentarea_lga":"Glenorchy (C)","address":"374 Main Road","suburb":"Glenorchy","state":"Tasmania","spatialconfidence":"5","revised":1328486400000,"comment":null}},{"type":"Feature","id":364,"geometry":{"type":"Point","coordinates":[147.33130600000004,-42.8834509990592]},"properties":{"objectid":364,"featuretype":"Council Office","description":"A facility where a Local Government\u00e2\u20ac\u2122s main council operations are regularly performed","class":"Council Office","sdedist.spool.NationalLGACouncilOffices_New.fid":"364","name":"Hobart City Council","operationalstatus":"Operational","localgovernmentarea_lga":"Hobart (C)","address":"Davey Street","suburb":"Hobart","state":"Tasmania","spatialconfidence":"5","revised":1328486400000,"comment":null}},{"type":"Feature","id":365,"geometry":{"type":"Point","coordinates":[147.13721700000008,-41.43550699906383]},"properties":{"objectid":365,"featuretype":"Council Office","description":"A facility where a Local Government\u00e2\u20ac\u2122s main council operations are regularly performed","class":"Council Office","sdedist.spool.NationalLGACouncilOffices_New.fid":"365","name":"Launceston City Council","operationalstatus":"Operational","localgovernmentarea_lga":"Launceston (C)","address":"St John Street","suburb":"Launceston","state":"Tasmania","spatialconfidence":"5","revised":1328486400000,"comment":null}},{"type":"Feature","id":366,"geometry":{"type":"Point","coordinates":[147.060649,-42.78161399905942]},"properties":{"objectid":366,"featuretype":"Council Office","description":"A facility where a Local Government\u00e2\u20ac\u2122s main council operations are regularly performed","class":"Council Office","sdedist.spool.NationalLGACouncilOffices_New.fid":"366","name":"Derwent Valley Council","operationalstatus":"Operational","localgovernmentarea_lga":"Derwent Valley (M)","address":"Circle Street","suburb":"New Norfolk","state":"Tasmania","spatialconfidence":"5","revised":1328486400000,"comment":null}},{"type":"Feature","id":367,"geometry":{"type":"Point","coordinates":[147.5166190000001,-41.15853099906501]},"properties":{"objectid":367,"featuretype":"Council Office","description":"A facility where a Local Government\u00e2\u20ac\u2122s main council operations are regularly performed","class":"Council Office","sdedist.spool.NationalLGACouncilOffices_New.fid":"367","name":"Dorset Council","operationalstatus":"Operational","localgovernmentarea_lga":"Dorset (M)","address":"3 Ellenor Street","suburb":"Scottsdale","state":"Tasmania","spatialconfidence":"5","revised":1328486400000,"comment":null}},{"type":"Feature","id":368,"geometry":{"type":"Point","coordinates":[148.0167520000001,-40.12227599907009]},"properties":{"objectid":368,"featuretype":"Council Office","description":"A facility where a Local Government\u00e2\u20ac\u2122s main council operations are regularly performed","class":"Council Office","sdedist.spool.NationalLGACouncilOffices_New.fid":"368","name":"Flinders Council","operationalstatus":"Operational","localgovernmentarea_lga":"Flinders (M)","address":"4 Davies Street","suburb":"Whitemark","state":"Tasmania","spatialconfidence":"3","revised":1328486400000,"comment":null}},{"type":"Feature","id":369,"geometry":{"type":"Point","coordinates":[146.82319900000005,-41.105298999065205]},"properties":{"objectid":369,"featuretype":"Council Office","description":"A facility where a Local Government\u00e2\u20ac\u2122s main council operations are regularly performed","class":"Council Office","sdedist.spool.NationalLGACouncilOffices_New.fid":"369","name":"George Town Council","operationalstatus":"Operational","localgovernmentarea_lga":"George Town (M)","address":"16-18 Anne Street","suburb":"George Town","state":"Tasmania","spatialconfidence":"5","revised":1328486400000,"comment":null}},{"type":"Feature","id":370,"geometry":{"type":"Point","coordinates":[147.9171070000001,-42.507887999060166]},"properties":{"objectid":370,"featuretype":"Council Office","description":"A facility where a Local Government\u00e2\u20ac\u2122s main council operations are regularly performed","class":"Council Office","sdedist.spool.NationalLGACouncilOffices_New.fid":"370","name":"Glamorgan-Spring Bay Council","operationalstatus":"Operational","localgovernmentarea_lga":"Glamorgan-Spring Bay (M)","address":"Corner Vicary Street and Henry Street","suburb":"Triabunna","state":"Tasmania","spatialconfidence":"5","revised":1328486400000,"comment":null}},{"type":"Feature","id":371,"geometry":{"type":"Point","coordinates":[147.04897400000004,-43.03054099905885]},"properties":{"objectid":371,"featuretype":"Council Office","description":"A facility where a Local Government\u00e2\u20ac\u2122s main council operations are regularly performed","class":"Council Office","sdedist.spool.NationalLGACouncilOffices_New.fid":"371","name":"Huon Valley Council","operationalstatus":"Operational","localgovernmentarea_lga":"Huon Valley (M)","address":"40 Main Street","suburb":"Huonville","state":"Tasmania","spatialconfidence":"5","revised":1328486400000,"comment":null}},{"type":"Feature","id":372,"geometry":{"type":"Point","coordinates":[146.32640000000004,-41.37971699906406]},"properties":{"objectid":372,"featuretype":"Council Office","description":"A facility where a Local Government\u00e2\u20ac\u2122s main council operations are regularly performed","class":"Council Office","sdedist.spool.NationalLGACouncilOffices_New.fid":"372","name":"Kentish Council","operationalstatus":"Operational","localgovernmentarea_lga":"Kentish (M)","address":"69 High Street","suburb":"Sheffield","state":"Tasmania","spatialconfidence":"5","revised":1328486400000,"comment":null}},{"type":"Feature","id":373,"geometry":{"type":"Point","coordinates":[143.85436900000002,-39.92979799907118]},"properties":{"objectid":373,"featuretype":"Council Office","description":"A facility where a Local Government\u00e2\u20ac\u2122s main council operations are regularly performed","class":"Council Office","sdedist.spool.NationalLGACouncilOffices_New.fid":"373","name":"King Island Council","operationalstatus":"Operational","localgovernmentarea_lga":"King Island (M)","address":"10 George Street","suburb":"Currie","state":"Tasmania","spatialconfidence":"3","revised":1328486400000,"comment":null}},{"type":"Feature","id":374,"geometry":{"type":"Point","coordinates":[147.31148800000005,-42.975631999058976]},"properties":{"objectid":374,"featuretype":"Council Office","description":"A facility where a Local Government\u00e2\u20ac\u2122s main council operations are regularly performed","class":"Council Office","sdedist.spool.NationalLGACouncilOffices_New.fid":"374","name":"Kingborough Council","operationalstatus":"Operational","localgovernmentarea_lga":"Kingborough (M)","address":"15 Channel Highway","suburb":"Kingston","state":"Tasmania","spatialconfidence":"5","revised":1328486400000,"comment":null}},{"type":"Feature","id":375,"geometry":{"type":"Point","coordinates":[146.41555200000005,-41.23635799906464]},"properties":{"objectid":375,"featuretype":"Council Office","description":"A facility where a Local Government\u00e2\u20ac\u2122s main council operations are regularly performed","class":"Council Office","sdedist.spool.NationalLGACouncilOffices_New.fid":"375","name":"Latrobe Council","operationalstatus":"Operational","localgovernmentarea_lga":"Latrobe (M)","address":"170 Gilbert Street","suburb":"Latrobe","state":"Tasmania","spatialconfidence":"5","revised":1328486400000,"comment":null}},{"type":"Feature","id":376,"geometry":{"type":"Point","coordinates":[146.83064600000012,-41.52797899906346]},"properties":{"objectid":376,"featuretype":"Council Office","description":"A facility where a Local Government\u00e2\u20ac\u2122s main council operations are regularly performed","class":"Council Office","sdedist.spool.NationalLGACouncilOffices_New.fid":"376","name":"Meander Valley Council","operationalstatus":"Operational","localgovernmentarea_lga":"Meander Valley (M)","address":"26 Lyall Street","suburb":"Westbury","state":"Tasmania","spatialconfidence":"5","revised":1328486400000,"comment":null}},{"type":"Feature","id":377,"geometry":{"type":"Point","coordinates":[147.1186560000001,-41.59296199906319]},"properties":{"objectid":377,"featuretype":"Council Office","description":"A facility where a Local Government\u00e2\u20ac\u2122s main council operations are regularly performed","class":"Council Office","sdedist.spool.NationalLGACouncilOffices_New.fid":"377","name":"Northern Midlands Council","operationalstatus":"Operational","localgovernmentarea_lga":"Northern Midlands (M)","address":"13 Smith Street","suburb":"Longford","state":"Tasmania","spatialconfidence":"5","revised":1328486400000,"comment":null}},{"type":"Feature","id":378,"geometry":{"type":"Point","coordinates":[147.56096300000002,-42.78026999905944]},"properties":{"objectid":378,"featuretype":"Council Office","description":"A facility where a Local Government\u00e2\u20ac\u2122s main council operations are regularly performed","class":"Council Office","sdedist.spool.NationalLGACouncilOffices_New.fid":"378","name":"Sorell Council","operationalstatus":"Operational","localgovernmentarea_lga":"Sorell (M)","address":"47 Cole Street","suburb":"Sorell","state":"Tasmania","spatialconfidence":"3","revised":1328486400000,"comment":null}},{"type":"Feature","id":379,"geometry":{"type":"Point","coordinates":[147.37196200000005,-42.29989799906079]},"properties":{"objectid":379,"featuretype":"Council Office","description":"A facility where a Local Government\u00e2\u20ac\u2122s main council operations are regularly performed","class":"Council Office","sdedist.spool.NationalLGACouncilOffices_New.fid":"379","name":"South Midlands Council","operationalstatus":"Operational","localgovernmentarea_lga":"Southern Midlands (M)","address":"71 High Street","suburb":"Oatlands","state":"Tasmania","spatialconfidence":"3","revised":1328486400000,"comment":null}},{"type":"Feature","id":380,"geometry":{"type":"Point","coordinates":[147.74404900000002,-43.105088999058694]},"properties":{"objectid":380,"featuretype":"Council Office","description":"A facility where a Local Government\u00e2\u20ac\u2122s main council operations are regularly performed","class":"Council Office","sdedist.spool.NationalLGACouncilOffices_New.fid":"380","name":"Tasman Council","operationalstatus":"Operational","localgovernmentarea_lga":"Tasman (M)","address":"1713 Main Road","suburb":"Nubeena","state":"Tasmania","spatialconfidence":"4","revised":1328486400000,"comment":null}},{"type":"Feature","id":381,"geometry":{"type":"Point","coordinates":[145.72629300000006,-40.99044699906573]},"properties":{"objectid":381,"featuretype":"Council Office","description":"A facility where a Local Government\u00e2\u20ac\u2122s main council operations are regularly performed","class":"Council Office","sdedist.spool.NationalLGACouncilOffices_New.fid":"381","name":"Waratah-Wynyard Council","operationalstatus":"Operational","localgovernmentarea_lga":"Waratah-Wynyard (M)","address":"21 Saunders Street","suburb":"Wynyard","state":"Tasmania","spatialconfidence":"5","revised":1328486400000,"comment":null}},{"type":"Feature","id":382,"geometry":{"type":"Point","coordinates":[145.55648100000008,-42.07885299906149]},"properties":{"objectid":382,"featuretype":"Council Office","description":"A facility where a Local Government\u00e2\u20ac\u2122s main council operations are regularly performed","class":"Council Office","sdedist.spool.NationalLGACouncilOffices_New.fid":"382","name":"West Coast Council","operationalstatus":"Operational","localgovernmentarea_lga":"West Coast (M)","address":"11 Sticht Street","suburb":"Queenstown","state":"Tasmania","spatialconfidence":"3","revised":1328486400000,"comment":null}},{"type":"Feature","id":383,"geometry":{"type":"Point","coordinates":[146.8142210000001,-41.20097099906482]},"properties":{"objectid":383,"featuretype":"Council Office","description":"A facility where a Local Government\u00e2\u20ac\u2122s main council operations are regularly performed","class":"Council Office","sdedist.spool.NationalLGACouncilOffices_New.fid":"383","name":"West Tamar Council - Headquarters","operationalstatus":"Operational","localgovernmentarea_lga":"West Tamar (M)","address":"West Street","suburb":"Beaconsfield","state":"Tasmania","spatialconfidence":"5","revised":1328486400000,"comment":null}},{"type":"Feature","id":384,"geometry":{"type":"Point","coordinates":[147.1033940000001,-41.4148399990639]},"properties":{"objectid":384,"featuretype":"Council Office","description":"A facility where a Local Government\u00e2\u20ac\u2122s main council operations are regularly performed","class":"Council Office","sdedist.spool.NationalLGACouncilOffices_New.fid":"384","name":"West Tamar Council - Office","operationalstatus":"Operational","localgovernmentarea_lga":"West Tamar (M)","address":"Eden Street","suburb":"Riverside","state":"Tasmania","spatialconfidence":"5","revised":1328486400000,"comment":null}}],"metadata":{"title":"Tasmania LGA Council Offices","source":"Geoscience Australia \u2014 National LGA Council Offices","source_url":"https://services.ga.gov.au/gis/rest/services/Local_Government_Area_Council_Offices/MapServer/0","licence":"CC BY 4.0","attribution":"Commonwealth of Australia (Geoscience Australia) 2015","vintage":"2018"}}