{"type":"FeatureCollection","features":[{"type":"Feature","id":1,"geometry":{"type":"Point","coordinates":[147.25072521074154,-42.700910699500334]},"properties":{"OBJECTID":1,"SITE_NAME":"Brighton Unit","UNIT":"Volunteer","REGION":"South","SITE_ADDRESS":"138 Brighton Road, Brighton TAS 7030","LIST_ADDRESS":"138 BRIGHTON RD BRIGHTON TAS 7030","LATITUDE":-42.7009107,"LONGITUDE":147.25072521,"EASTING":520535.04583029,"NORTHING":5272367.22057477,"UPDATED":20220801}},{"type":"Feature","id":2,"geometry":{"type":"Point","coordinates":[146.1694430215917,-41.159295142488745]},"properties":{"OBJECTID":2,"SITE_NAME":"Central Coast Unit","UNIT":"Volunteer","REGION":"North West","SITE_ADDRESS":"16 Grove Street, Ulverstone 7315","LIST_ADDRESS":"16 GROVE ST ULVERSTONE TAS 7315","LATITUDE":-41.15929514,"LONGITUDE":146.16944302,"EASTING":430316.99764548,"NORTHING":5443227.00043578,"UPDATED":20220801}},{"type":"Feature","id":3,"geometry":{"type":"Point","coordinates":[146.50504185189337,-42.25037250741894]},"properties":{"OBJECTID":3,"SITE_NAME":"Central Highlands Unit","UNIT":"Volunteer","REGION":"South","SITE_ADDRESS":"223 Bradys Lake Rd, Bradys Lake Tas 7140","LIST_ADDRESS":"223 BRADYS LAKE RD BRADYS LAKE TAS 7140","LATITUDE":-42.25037251,"LONGITUDE":146.50504185,"EASTING":459169.77324049,"NORTHING":5322306.01366668,"UPDATED":20220801}},{"type":"Feature","id":4,"geometry":{"type":"Point","coordinates":[145.12302737083812,-40.844011573516184]},"properties":{"OBJECTID":4,"SITE_NAME":"Circular Head Unit","UNIT":"Volunteer","REGION":"North West","SITE_ADDRESS":"117 Nelson Street, Smithton 7330","LIST_ADDRESS":"117 NELSON ST SMITHTON TAS 7330","LATITUDE":-40.84401157,"LONGITUDE":145.12302737,"EASTING":341768.00575356,"NORTHING":5476863.53603636,"UPDATED":20220801}},{"type":"Feature","id":5,"geometry":{"type":"Point","coordinates":[147.06038392415277,-42.784012743622]},"properties":{"OBJECTID":5,"SITE_NAME":"Derwent Valley Unit","UNIT":"Volunteer","REGION":"South","SITE_ADDRESS":"1 George St, New Norfolk 7140","LIST_ADDRESS":"1 GEORGE ST NEW NORFOLK TAS 7140","LATITUDE":-42.78401274,"LONGITUDE":147.06038392,"EASTING":504938.99843419,"NORTHING":5263167.99947808,"UPDATED":20220801}},{"type":"Feature","id":6,"geometry":{"type":"Point","coordinates":[147.5105571682351,-41.159563656892566]},"properties":{"OBJECTID":6,"SITE_NAME":"Dorset Unit","UNIT":"Volunteer","REGION":"North","SITE_ADDRESS":"33 William St, Scottsdale 7260","LIST_ADDRESS":"33 WILLIAM ST SCOTTSDALE TAS 7260","LATITUDE":-41.15956366,"LONGITUDE":147.51055717,"EASTING":542834.9973449,"NORTHING":5443404.00175591,"UPDATED":20220801}},{"type":"Feature","id":7,"geometry":{"type":"Point","coordinates":[145.90882190759575,-41.06089914259466]},"properties":{"OBJECTID":7,"SITE_NAME":"Burnie Unit","UNIT":"Volunteer","REGION":"North West","SITE_ADDRESS":"9 Wellington Street, South Burnie 7320","LIST_ADDRESS":"9 WELLINGTON ST SOUTH BURNIE TAS 7320","LATITUDE":-41.06089914,"LONGITUDE":145.90882191,"EASTING":408313.99943663,"NORTHING":5453909.00098824,"UPDATED":20220801}},{"type":"Feature","id":8,"geometry":{"type":"Point","coordinates":[147.30199664182098,-43.31247409553723]},"properties":{"OBJECTID":8,"SITE_NAME":"Bruny Island Unit","UNIT":"Volunteer","REGION":"South","SITE_ADDRESS":"3341 Bruny Island Main Rd, Simpsons Bay 7150","LIST_ADDRESS":"3341 BRUNY ISLAND MAIN RD SOUTH BRUNY TAS 7150","LATITUDE":-43.3124741,"LONGITUDE":147.30199664,"EASTING":524490.15261867,"NORTHING":5204440.26183807,"UPDATED":20220801}},{"type":"Feature","id":9,"geometry":{"type":"Point","coordinates":[148.0181297702777,-40.12539434331923]},"properties":{"OBJECTID":9,"SITE_NAME":"Flinders Unit","UNIT":"Volunteer","REGION":"North","SITE_ADDRESS":"21 Patrick St, Whitemark 7255","LIST_ADDRESS":"21 PATRICK ST WHITEMARK TAS 7255","LATITUDE":-40.12539434,"LONGITUDE":148.01812977,"EASTING":586748.85728215,"NORTHING":5557828.33580275,"UPDATED":20220801}},{"type":"Feature","id":10,"geometry":{"type":"Point","coordinates":[146.82639605720888,-41.10459526120297]},"properties":{"OBJECTID":10,"SITE_NAME":"George Town Unit","UNIT":"Volunteer","REGION":"North","SITE_ADDRESS":"52 Goulburn Street, George Town 7253","LIST_ADDRESS":"52 GOULBURN ST GEORGE TOWN TAS 7253","LATITUDE":-41.10459526,"LONGITUDE":146.82639606,"EASTING":485422.74481904,"NORTHING":5449617.24729805,"UPDATED":20220801}},{"type":"Feature","id":11,"geometry":{"type":"Point","coordinates":[147.32789345449464,-42.88004248971567]},"properties":{"OBJECTID":11,"SITE_NAME":"Emergency Management Unit","UNIT":"Career","REGION":"South","SITE_ADDRESS":"1/47 Liverpool Street, Hobart Tasmania 7000","LIST_ADDRESS":"47 LIVERPOOL ST HOBART TAS 7000","LATITUDE":-42.88004249,"LONGITUDE":147.32789345,"EASTING":526777.99855565,"NORTHING":5252454.00186502,"UPDATED":20220801}},{"type":"Feature","id":12,"geometry":{"type":"Point","coordinates":[148.06072836254765,-42.128175800813096]},"properties":{"OBJECTID":12,"SITE_NAME":"Glamorgan/Spring Bay Unit","UNIT":"Volunteer","REGION":"South","SITE_ADDRESS":"76 Maria Street, Swansea 7190","LIST_ADDRESS":"76 MARIA ST SWANSEA TAS 7190","LATITUDE":-42.1281758,"LONGITUDE":148.06072836,"EASTING":587670.99738979,"NORTHING":5335447.99959993,"UPDATED":20220801}},{"type":"Feature","id":13,"geometry":{"type":"Point","coordinates":[143.85264709787563,-39.92909888696976]},"properties":{"OBJECTID":13,"SITE_NAME":"King Island Unit","UNIT":"Volunteer","REGION":"North West","SITE_ADDRESS":"3 Meech Street, Currie 7256","LIST_ADDRESS":"3 MEECH ST CURRIE TAS 7256","LATITUDE":-39.92909889,"LONGITUDE":143.8526471,"EASTING":231041.16781183,"NORTHING":5575368.0668073,"UPDATED":20220801}},{"type":"Feature","id":14,"geometry":{"type":"Point","coordinates":[146.3288234856377,-41.380816395960906]},"properties":{"OBJECTID":14,"SITE_NAME":"Kentish Unit","UNIT":"Volunteer","REGION":"North West","SITE_ADDRESS":"13 Albert Street, Sheffield 7306","LIST_ADDRESS":"13 ALBERT ST SHEFFIELD TAS 7306","LATITUDE":-41.3808164,"LONGITUDE":146.32882349,"EASTING":443879.00092442,"NORTHING":5418750.00289973,"UPDATED":20220801}},{"type":"Feature","id":15,"geometry":{"type":"Point","coordinates":[147.04997167296708,-43.032065863930676]},"properties":{"OBJECTID":15,"SITE_NAME":"Huon Valley Unit","UNIT":"Volunteer","REGION":"South","SITE_ADDRESS":"14 Sale St, Huonville 7109","LIST_ADDRESS":"14 SALE ST HUONVILLE TAS 7109","LATITUDE":-43.03206586,"LONGITUDE":147.04997167,"EASTING":504070.99001067,"NORTHING":5235623.1228841,"UPDATED":20220801}},{"type":"Feature","id":16,"geometry":{"type":"Point","coordinates":[145.90573929468087,-41.053735632387166]},"properties":{"OBJECTID":16,"SITE_NAME":"North West Regional Headquarters","UNIT":"Career","REGION":"North West","SITE_ADDRESS":"88 Wilson Street, Burnie 7320","LIST_ADDRESS":"88-98 WILSON ST BURNIE TAS 7320","LATITUDE":-41.05373563,"LONGITUDE":145.9057393,"EASTING":408045.00229508,"NORTHING":5454701.0014544,"UPDATED":20220801}},{"type":"Feature","id":17,"geometry":{"type":"Point","coordinates":[146.35979864169911,-41.18294032310871]},"properties":{"OBJECTID":17,"SITE_NAME":"Mersey Unit","UNIT":"Volunteer","REGION":"North West","SITE_ADDRESS":"19-21 Macfie Street, Devonport 7310","LIST_ADDRESS":"24-32 WENVOE ST DEVONPORT TAS 7310","LATITUDE":-41.18294032,"LONGITUDE":146.35979864,"EASTING":446307.07997093,"NORTHING":5440736.97777869,"UPDATED":20220801}},{"type":"Feature","id":18,"geometry":{"type":"Point","coordinates":[146.65965309721392,-41.528183036663805]},"properties":{"OBJECTID":18,"SITE_NAME":"Meander Valley Unit","UNIT":"Volunteer","REGION":"North","SITE_ADDRESS":"19 Landsdowne Place, Deloraine 7304","LIST_ADDRESS":"19 LANSDOWNE PL DELORAINE TAS 7304","LATITUDE":-41.52818304,"LONGITUDE":146.6596531,"EASTING":471606.0029874,"NORTHING":5402551.00124144,"UPDATED":20220801}},{"type":"Feature","id":19,"geometry":{"type":"Point","coordinates":[147.49830165223983,-41.936833379882735]},"properties":{"OBJECTID":19,"SITE_NAME":"Northern Midlands Unit","UNIT":"Volunteer","REGION":"North","SITE_ADDRESS":"14-16 Bedford St, Campbell Town 7210","LIST_ADDRESS":"14-16 BEDFORD ST CAMPBELL TOWN TAS 7210","LATITUDE":-41.93683338,"LONGITUDE":147.49830165,"EASTING":541309.00253026,"NORTHING":5357117.00219926,"UPDATED":20220801}},{"type":"Feature","id":20,"geometry":{"type":"Point","coordinates":[147.16977790281024,-41.48246134691424]},"properties":{"OBJECTID":20,"SITE_NAME":"Northern Regional Depot","UNIT":"Volunteer","REGION":"North","SITE_ADDRESS":"339 Hobart Road, Youngtown 7249","LIST_ADDRESS":"339 HOBART RD YOUNGTOWN TAS 7249","LATITUDE":-41.48246135,"LONGITUDE":147.1697779,"EASTING":514173.95913411,"NORTHING":5407668.9910966,"UPDATED":20220801}},{"type":"Feature","id":21,"geometry":{"type":"Point","coordinates":[145.8890989535618,-41.08087032652401]},"properties":{"OBJECTID":21,"SITE_NAME":"North West Regional Depot","UNIT":"Volunteer","REGION":"North West","SITE_ADDRESS":"15 Three Mile Line Road, Burnie 7320","LIST_ADDRESS":"15 THREE MILE LINE RD DOWNLANDS TAS 7320","LATITUDE":-41.08087033,"LONGITUDE":145.88909895,"EASTING":406684.99933957,"NORTHING":5451671.00344382,"UPDATED":20220801}},{"type":"Feature","id":22,"geometry":{"type":"Point","coordinates":[147.16977790281024,-41.48246134691424]},"properties":{"OBJECTID":22,"SITE_NAME":"Northern Regional Headquarters","UNIT":"Career","REGION":"North","SITE_ADDRESS":"339 Hobart Road, Youngtown 7249","LIST_ADDRESS":"339 HOBART RD YOUNGTOWN TAS 7249","LATITUDE":-41.48246135,"LONGITUDE":147.1697779,"EASTING":514173.95913411,"NORTHING":5407668.9910966,"UPDATED":20220801}},{"type":"Feature","id":23,"geometry":{"type":"Point","coordinates":[145.5387411013827,-41.77876719727851]},"properties":{"OBJECTID":23,"SITE_NAME":"Rosebery Unit","UNIT":"Volunteer","REGION":"North West","SITE_ADDRESS":"8 Edward Street, Rosebery 7470","LIST_ADDRESS":"8 EDWARD ST ROSEBERY TAS 7470","LATITUDE":-41.7787672,"LONGITUDE":145.5387411,"EASTING":378562.23817618,"NORTHING":5373754.66774972,"UPDATED":20220801}},{"type":"Feature","id":24,"geometry":{"type":"Point","coordinates":[147.55941746270136,-42.77950700980414]},"properties":{"OBJECTID":24,"SITE_NAME":"Sorell Unit (Yet to be built)","UNIT":"Volunteer","REGION":"South","SITE_ADDRESS":"47 Cole Street, Sorell 7172","LIST_ADDRESS":"47 COLE ST SORELL TAS 7172","LATITUDE":-42.77950701,"LONGITUDE":147.55941746,"EASTING":545759.95626482,"NORTHING":5263518.3760947,"UPDATED":20220801}},{"type":"Feature","id":25,"geometry":{"type":"Point","coordinates":[145.56041066780642,-42.07718717496745]},"properties":{"OBJECTID":25,"SITE_NAME":"Queenstown Unit","UNIT":"Volunteer","REGION":"North West","SITE_ADDRESS":"9 Batchelor Street, Queenstown 7467","LIST_ADDRESS":"9 BATCHELOR ST QUEENSTOWN TAS 7467","LATITUDE":-42.07718718,"LONGITUDE":145.56041067,"EASTING":380919.52541384,"NORTHING":5340651.09770228,"UPDATED":20220801}},{"type":"Feature","id":26,"geometry":{"type":"Point","coordinates":[147.3739831092661,-42.298996137571194]},"properties":{"OBJECTID":26,"SITE_NAME":"Southern Midlands Unit Oatlands","UNIT":"Volunteer","REGION":"South","SITE_ADDRESS":"83 High St, Oatlands 7120","LIST_ADDRESS":"83 HIGH ST OATLANDS TAS 7120","LATITUDE":-42.29899614,"LONGITUDE":147.37398311,"EASTING":530826.99801127,"NORTHING":5316957.99935247,"UPDATED":20220801}},{"type":"Feature","id":27,"geometry":{"type":"Point","coordinates":[147.19998477382657,-42.5320684493905]},"properties":{"OBJECTID":27,"SITE_NAME":"Southern Midlands Unit Kempton","UNIT":"Volunteer","REGION":"South","SITE_ADDRESS":"9 Old Hunting Ground Rd, Kempton 7030","LIST_ADDRESS":"9 OLD HUNTING GROUND RD KEMPTON TAS 7030","LATITUDE":-42.53206845,"LONGITUDE":147.19998477,"EASTING":516423.57901052,"NORTHING":5291126.69966278,"UPDATED":20220801}},{"type":"Feature","id":28,"geometry":{"type":"Point","coordinates":[147.3285372680756,-42.87906809414595]},"properties":{"OBJECTID":28,"SITE_NAME":"Southern Regional Headquarters","UNIT":"Career","REGION":"South","SITE_ADDRESS":"28 Bathurst Street, Hobart Tasmania 7000","LIST_ADDRESS":"28 BATHURST ST HOBART TAS 7000","LATITUDE":-42.87906809,"LONGITUDE":147.32853727,"EASTING":526830.99899762,"NORTHING":5252561.99978061,"UPDATED":20220801}},{"type":"Feature","id":29,"geometry":{"type":"Point","coordinates":[147.40472583343427,-42.86070208651229]},"properties":{"OBJECTID":29,"SITE_NAME":"Southern Regional Unit","UNIT":"Volunteer","REGION":"South","SITE_ADDRESS":"132 Mornington Road, Mornington Tasmania 7018","LIST_ADDRESS":"132 MORNINGTON RD MORNINGTON TAS 7018","LATITUDE":-42.86070209,"LONGITUDE":147.40472583,"EASTING":533062.97931678,"NORTHING":5254574.37815918,"UPDATED":20220801}},{"type":"Feature","id":30,"geometry":{"type":"Point","coordinates":[148.24575066055877,-41.322906037278635]},"properties":{"OBJECTID":30,"SITE_NAME":"St Helens Unit","UNIT":"Volunteer","REGION":"North","SITE_ADDRESS":"18 Circassian Street, St Helens 7216","LIST_ADDRESS":"18 CIRCASSIAN ST ST HELENS TAS 7216","LATITUDE":-41.32290604,"LONGITUDE":148.24575066,"EASTING":604257.62315037,"NORTHING":5424647.84224913,"UPDATED":20220801}},{"type":"Feature","id":31,"geometry":{"type":"Point","coordinates":[147.7421921534138,-43.09539575310242]},"properties":{"OBJECTID":31,"SITE_NAME":"Tasman Unit","UNIT":"Volunteer","REGION":"South","SITE_ADDRESS":"1598 Nubeena Rd, Nubeena 7184","LIST_ADDRESS":"1598 NUBEENA RD NUBEENA TAS 7184","LATITUDE":-43.09539575,"LONGITUDE":147.74219215,"EASTING":560401.30238425,"NORTHING":5228324.29088993,"UPDATED":20220801}},{"type":"Feature","id":32,"geometry":{"type":"Point","coordinates":[148.1831220018188,-41.580570434450664]},"properties":{"OBJECTID":32,"SITE_NAME":"St Marys Unit","UNIT":"Volunteer","REGION":"North","SITE_ADDRESS":"20-24 Main Street, St Marys 7215","LIST_ADDRESS":"20-24 MAIN ST ST MARYS TAS 7215","LATITUDE":-41.58057043,"LONGITUDE":148.183122,"EASTING":598625.00089219,"NORTHING":5396115.00244354,"UPDATED":20220801}},{"type":"Feature","id":33,"geometry":{"type":"Point","coordinates":[145.53204421124522,-41.44385832372716]},"properties":{"OBJECTID":33,"SITE_NAME":"Waratah Unit","UNIT":"Volunteer","REGION":"North West","SITE_ADDRESS":"19 Smith Street, Waratah 7321","LIST_ADDRESS":"19 SMITH ST WARATAH TAS 7321","LATITUDE":-41.44385832,"LONGITUDE":145.53204421,"EASTING":377372.90133167,"NORTHING":5410928.67495822,"UPDATED":20220801}},{"type":"Feature","id":34,"geometry":{"type":"Point","coordinates":[145.70901476922768,-40.98704078726137]},"properties":{"OBJECTID":34,"SITE_NAME":"Wynyard Unit","UNIT":"Volunteer","REGION":"North West","SITE_ADDRESS":"87 Inglis Street, Wynyard 7325","LIST_ADDRESS":"87 INGLIS ST WYNYARD TAS 7325","LATITUDE":-40.98704079,"LONGITUDE":145.70901477,"EASTING":391403.60023461,"NORTHING":5461879.01641315,"UPDATED":20220801}},{"type":"Feature","id":35,"geometry":{"type":"Point","coordinates":[147.32645009180175,-42.87870997745518]},"properties":{"OBJECTID":35,"SITE_NAME":"State Headquarters","UNIT":"Career","REGION":"South","SITE_ADDRESS":"Cnr Argyle and Melville Streets, Hobart Tasmania 7000","LIST_ADDRESS":null,"LATITUDE":-42.87870998,"LONGITUDE":147.32645009,"EASTING":526660.69735394,"NORTHING":5252602.43024073,"UPDATED":20220801}},{"type":"Feature","id":36,"geometry":{"type":"Point","coordinates":[146.94954707597753,-41.301703627032325]},"properties":{"OBJECTID":36,"SITE_NAME":"West Tamar Unit","UNIT":"Volunteer","REGION":"North","SITE_ADDRESS":"Biloo St, Exeter 7275","LIST_ADDRESS":"57 MAIN RD EXETER TAS 7275","LATITUDE":-41.30170363,"LONGITUDE":146.94954708,"EASTING":495776.23929509,"NORTHING":5427748.86630212,"UPDATED":20220801}},{"type":"Feature","id":37,"geometry":{"type":"Point","coordinates":[145.33751054831095,-41.886943034934795]},"properties":{"OBJECTID":37,"SITE_NAME":"Zeehan Unit","UNIT":"Volunteer","REGION":"North West","SITE_ADDRESS":"91 Main Street, Zeehan 7469","LIST_ADDRESS":"91 MAIN ST ZEEHAN TAS 7469","LATITUDE":-41.88694303,"LONGITUDE":145.33751055,"EASTING":362070.99713811,"NORTHING":5361439.99856282,"UPDATED":20220801}}],"metadata":{"title":"Tasmania State Emergency Service Office Locations","source":"The LIST (Land Information System Tasmania) \u2014 Emergency Management Public MapServer","source_url":"https://services.thelist.tas.gov.au/arcgis/rest/services/Public/EmergencyManagementPublic/MapServer/7","licence":"CC BY 3.0 AU","attribution":"State of Tasmania","notes":"37 TAS SES office/unit locations. Field SITE_NAME contains site name; UNIT contains unit name."}}