{"type":"FeatureCollection","features":[{"type":"Feature","geometry":{"type":"Polygon","coordinates":[[[148.80372895041052,-35.31676799913971],[148.80346957983855,-35.31806063914285],[148.80283733027022,-35.31981916880821],[148.80106891039517,-35.32177087895745],[148.80208345959218,-35.32434496904284],[148.80228607999445,-35.3256239590162],[148.80171222002124,-35.32917456902271],[148.8003961504008,-35.33048164908611],[148.79850532967836,-35.33208946910999],[148.7976535902451,-35.333827269336886],[148.79526956029574,-35.33648733893252],[148.7943721496151,-35.338158059101254],[148.79354661044542,-35.339122169277445],[148.79549390016493,-35.34193213943085],[148.79603190029027,-35.34365020892732],[148.79666437982726,-35.34586431911261],[148.7969040000394,-35.34639095905811],[148.79872909013417,-35.348149799311784],[148.7992946397927,-35.35037033937358],[148.799397249856,-35.35338796901804],[148.79924434042493,-35.35429302924329],[148.79868400009678,-35.355662928768666],[148.79769044003635,-35.35681882940073],[148.79669853018112,-35.35841394923374],[148.79955291980988,-35.358971739436235],[148.80078800001928,-35.3602808393365],[148.80073570010347,-35.36168438915754],[148.8014879798651,-35.36260969944809],[148.80328522038937,-35.36319190892468],[148.80491063026784,-35.364690709423726],[148.805696429766,-35.36515564926517],[148.8057274800338,-35.366105088778674],[148.8050128702253,-35.36747512926897],[148.80443130001203,-35.3683547593488],[148.8042327696393,-35.36938105899691],[148.8042861601099,-35.37032872887554],[148.80392613959853,-35.37230841924232],[148.80390709980608,-35.37404300889893],[148.8041645102541,-35.37522370919963],[148.80406440020224,-35.37620389899354],[148.80458179028003,-35.377685889260206],[148.80529754005065,-35.378914159081745],[148.8069229400476,-35.37929616897511],[148.80786224994975,-35.37992633881525],[148.8086319597228,-35.38066514912715],[148.80871531978792,-35.3815954192291],[148.80865964040996,-35.38245462913989],[148.80605962043202,-35.38405636926374],[148.80478739039407,-35.38511047899091],[148.8047644599981,-35.38700582926404],[148.8036099901107,-35.388820238939196],[148.8011467997202,-35.38972143943488],[148.79940979033736,-35.3902410287813],[148.79672232026476,-35.391717309099185],[148.79568709005324,-35.39300312882244],[148.79585435995244,-35.39441784896599],[148.7958159102616,-35.39645905905095],[148.7960700301808,-35.39850686927229],[148.79568982991486,-35.40014224901429],[148.79612650995762,-35.401471159315335],[148.79582474968404,-35.402462839421354],[148.79635634032982,-35.40385175903774],[148.79608831987997,-35.40495102894701],[148.79619326017314,-35.40597774901506],[148.79597639967704,-35.40663692883399],[148.79531023960507,-35.407098638952554],[148.79252466002876,-35.407391299198316],[148.79021121969438,-35.40791615906324],[148.78831828972773,-35.40822137886434],[148.78750762037092,-35.40855945923354],[148.78579444958075,-35.40891074929551],[148.78577761964394,-35.41068190885574],[148.78628680989976,-35.41279071945798],[148.78721036964004,-35.414127109160674],[148.78876652030837,-35.4147775893165],[148.7901577402906,-35.41565014913454],[148.7897180796377,-35.4170300989242],[148.78892657044761,-35.41800600898037],[148.78932426001379,-35.41962580938853],[148.78890735997524,-35.421062929396335],[148.78888220984223,-35.422090679154685],[148.78761132997215,-35.42319817940294],[148.78833531998887,-35.42483878911936],[148.788570310284,-35.42596911945],[148.78891622994038,-35.426494749156234],[148.78734768970762,-35.42756576936572],[148.7862102096572,-35.429011829376954],[148.78532769034905,-35.430368439207214],[148.78508060962847,-35.431570629227764],[148.78420521036722,-35.432373549021854],[148.78355545982058,-35.43272738928804],[148.78102794017423,-35.43333944911494],[148.7802801798368,-35.43521391899302],[148.77869053009312,-35.437555168836674],[148.77771005040154,-35.440041889043776],[148.77484056009288,-35.44183467939595],[148.77435345042667,-35.444116799386386],[148.77459783979467,-35.4460833488442],[148.7742933396594,-35.44696839897848],[148.77388534012877,-35.44770669879389],[148.77301378026704,-35.449497529202475],[148.77375505027655,-35.45164308893522],[148.77461652026096,-35.452838899367876],[148.77511218997356,-35.454066938811884],[148.77598526978468,-35.4548873790086],[148.77490802985886,-35.456058039155344],[148.77467762007336,-35.457693629284826],[148.77345094989164,-35.45921980900103],[148.772707129565,-35.46089120880552],[148.77287656979394,-35.46239104903626],[148.77168364033426,-35.4634769793486],[148.770212790092,-35.4638406488528],[148.76901663029065,-35.46490943894507],[148.76715206013745,-35.465493899271145],[148.76674158035823,-35.4671813092247],[148.7668459196785,-35.46894777944504],[148.76684607957864,-35.471195409124185],[148.7681629702593,-35.472469829458],[148.769334909684,-35.47432627884802],[148.7705613696599,-35.47560635934126],[148.77045114008635,-35.477042659285466],[148.7702501698893,-35.47854501907763],[148.770841539824,-35.48006057876049],[148.77191732986896,-35.48145374882608],[148.7729941296202,-35.482635249226554],[148.77363963023728,-35.48380158916518],[148.77447248977822,-35.48502300934958],[148.7744795999437,-35.48563349889373],[148.7743809397727,-35.4861450394654],[148.7738498000812,-35.486438418902424],[148.77318541957172,-35.48666706875482],[148.77088940026573,-35.487861738951956],[148.76984577978945,-35.48792715917926],[148.7687653903703,-35.48878216900493],[148.7670064998238,-35.4897142189219],[148.7651851197711,-35.49089657944868],[148.76452257002828,-35.49187460885253],[148.76279009983259,-35.49549900924576],[148.76294546974918,-35.49658358916875],[148.7640306804265,-35.497912418881384],[148.76441915956602,-35.499635318809936],[148.76425663007663,-35.5014038592913],[148.76436016001477,-35.503150518987866],[148.7651881497886,-35.50526958911313],[148.76691226026222,-35.506505598743495],[148.76783463961618,-35.507067518787615],[148.76832011973846,-35.50827804934882],[148.76605018032177,-35.51090102915732],[148.7669917099609,-35.51201733874326],[148.76724589994865,-35.51342376875615],[148.76690025966838,-35.51533649892576],[148.7671659804311,-35.516840048936984],[148.76724983995948,-35.518700489098144],[148.76749726024323,-35.52018376935082],[148.7680075401556,-35.5215840990021],[148.76766448971821,-35.52345944931344],[148.76797193003938,-35.524979098906826],[148.76961537988535,-35.526663478971244],[148.77095823008108,-35.528215219134864],[148.77149291003312,-35.528911519409384],[148.7719312402811,-35.52936668904617],[148.77224838959384,-35.52985212932291],[148.77219552014614,-35.53131944941276],[148.77169132003166,-35.53313555906623],[148.77121689008573,-35.53444892886675],[148.7702805203695,-35.53605392929095],[148.7699945803264,-35.53699280926786],[148.76979718991572,-35.53814015910402],[148.76992747976794,-35.54034712888992],[148.76983962992298,-35.542000139244145],[148.76940695995967,-35.54369230897233],[148.76967252980543,-35.544387099311365],[148.7699971899323,-35.545580469378635],[148.77140318001437,-35.54734589928663],[148.7732376098931,-35.548874839176534],[148.77409443019764,-35.550598489384726],[148.77522679973245,-35.553153738968014],[148.7754219596262,-35.55448122887351],[148.77612121003997,-35.555074299406336],[148.77687090984014,-35.55641415876735],[148.7773851504245,-35.55711841908625],[148.77794883967204,-35.558519729366225],[148.7785241899503,-35.5635313492422],[148.77293975998595,-35.5677979791365],[148.77362292965785,-35.56926035886127],[148.77519341025166,-35.570863049161964],[148.77707519032904,-35.57350279907229],[148.77963400997476,-35.57648899944779],[148.78034324965455,-35.57725393887026],[148.78062446994915,-35.57783834884713],[148.78152410036688,-35.57858691907937],[148.78214762010722,-35.57923725912799],[148.7821990001483,-35.58029638937086],[148.78255601040507,-35.58125300874308],[148.78392618016525,-35.581623569213136],[148.7849746704087,-35.58198717937297],[148.78612422022323,-35.58247387914616],[148.78659742037556,-35.583631979364775],[148.78706725993047,-35.58455431893024],[148.78722936002515,-35.58509651886513],[148.7877965095831,-35.58610533917872],[148.78821009034667,-35.58640535918852],[148.78877327024944,-35.58833974930665],[148.7874925601152,-35.590616689270284],[148.7839555999908,-35.59342743889702],[148.7831914597725,-35.5954063089011],[148.780255150078,-35.5960602091925],[148.77833575035316,-35.59662840906551],[148.77662225976275,-35.59734051879146],[148.77559116988638,-35.5975704092604],[148.7745180101086,-35.597999368806335],[148.7736146202415,-35.59856453895152],[148.77330497006471,-35.599486669239084],[148.7725311001935,-35.600342429019044],[148.77216278014726,-35.60139811888448],[148.77096272974234,-35.602061629059854],[148.76958601036546,-35.60263078916141],[148.76904502963,-35.60275196920764],[148.76843383028375,-35.603305849010155],[148.76889565956117,-35.604262039352854],[148.7697703302887,-35.60536074901408],[148.77061937028455,-35.606335149046274],[148.7710141304446,-35.60715159943795],[148.77162482044614,-35.60815107894143],[148.77266573968836,-35.60944190911869],[148.77486547037566,-35.61071312901596],[148.77626401971227,-35.61166495922871],[148.778174700389,-35.61342781935049],[148.77906422026814,-35.614798898778886],[148.77958869985017,-35.61619676887344],[148.78038799024725,-35.61762098934156],[148.78033656978207,-35.61830229928625],[148.7806223202807,-35.62033673921162],[148.77983855995822,-35.62172664875092],[148.7794896300474,-35.62261543923023],[148.77962150991763,-35.62373889901596],[148.7804325296174,-35.62499309945429],[148.78069750028683,-35.625989479105236],[148.78236039955706,-35.626196788903044],[148.78309546041132,-35.6273861693287],[148.78344243019825,-35.62851032875079],[148.78296128983712,-35.629869148890734],[148.7823666500348,-35.63025552920508],[148.7817067197793,-35.63082713911648],[148.78037941043797,-35.633002218834285],[148.77622936989516,-35.636454019398656],[148.77566742966752,-35.63657108892101],[148.770857549599,-35.64003357886632],[148.77122852955685,-35.64066079902036],[148.77195854008258,-35.641235178772405],[148.77170842036142,-35.642377338795235],[148.77141709042652,-35.64335474888432],[148.77174595017735,-35.644860029340286],[148.7713610598073,-35.64585781918992],[148.77043232038116,-35.6462618589839],[148.76912395022097,-35.64587306893169],[148.76811010979472,-35.646896849199614],[148.76749849991836,-35.647412649338904],[148.76844334973086,-35.64862555876507],[148.76956317968256,-35.649534498781264],[148.77018772979056,-35.649873779377984],[148.7717607202772,-35.64973926927523],[148.7728277795959,-35.65004693938647],[148.77295670041556,-35.65077230914248],[148.77306962044344,-35.65197229933824],[148.77220437034828,-35.65369062894976],[148.77251134983374,-35.65425989898362],[148.7730801900211,-35.65509449923079],[148.77350233981406,-35.65550157911409],[148.77466761014617,-35.65562654904249],[148.77532341982945,-35.65581662905862],[148.7763789304068,-35.655798068877885],[148.77761370968062,-35.65583233893291],[148.77827922027063,-35.655946018828395],[148.78095974007786,-35.655979518765335],[148.78172200012224,-35.65581756918407],[148.7833427001337,-35.656291258887265],[148.78422380998518,-35.65684714880647],[148.78608939972622,-35.65739256886886],[148.78644791016956,-35.65788313893713],[148.78634737970614,-35.65852184897012],[148.78699891969686,-35.66043972929816],[148.78759206021098,-35.66058946904295],[148.7897856203707,-35.659755739301225],[148.79055427013168,-35.65931981877065],[148.79167562991432,-35.660096119460505],[148.79262660983034,-35.66105750903587],[148.7938180202389,-35.66209472908792],[148.79483425018378,-35.66349851878135],[148.79642140979746,-35.66423902939127],[148.79633600965832,-35.66483293915456],[148.7973774795678,-35.665930439181835],[148.79844817975828,-35.66659618935849],[148.79852046000266,-35.66697906926053],[148.79753195027078,-35.668775128794564],[148.79745149984893,-35.66998287899911],[148.79733804981504,-35.67094404881827],[148.7971702597913,-35.671682549189285],[148.79729352032638,-35.67245247929178],[148.7976967201585,-35.673248948879596],[148.79801056995925,-35.67412399884771],[148.7980836299413,-35.67539839922561],[148.7983883304008,-35.67614750945242],[148.79815316044258,-35.67762226901458],[148.79797561022335,-35.67838710904458],[148.79752914034057,-35.679187749463296],[148.79766897030106,-35.67966294889209],[148.79750172016486,-35.680426169161336],[148.79714157029608,-35.68144862939848],[148.79656993005997,-35.68265696929835],[148.79568293983667,-35.68359792894066],[148.7954758098917,-35.68413585878186],[148.79457173999984,-35.685108689317865],[148.79411172981088,-35.68571022903299],[148.79369458004072,-35.68614185894528],[148.79324814968385,-35.68678934941446],[148.79302585977015,-35.68743933942054],[148.7929139602285,-35.6880325789555],[148.79261437028458,-35.68881825898689],[148.79236999978124,-35.68932596915852],[148.7913755297274,-35.68964612926806],[148.7913260100974,-35.69012790939176],[148.79116765957065,-35.69083680929617],[148.7915259696897,-35.691740929228644],[148.79116881031254,-35.69221011877047],[148.79115229029443,-35.69274417924739],[148.79139725009267,-35.69332100928091],[148.79043526042457,-35.69471738902855],[148.79014046029775,-35.69527014933177],[148.78962750969416,-35.695866008785],[148.78935965004268,-35.69649390879843],[148.7887291297313,-35.69718219899514],[148.78844222040595,-35.697807228898995],[148.7892751796599,-35.69960684909741],[148.7901206201064,-35.70102842943415],[148.79031606027456,-35.70167208886125],[148.79062329038996,-35.702357239154864],[148.79111076028053,-35.70287364900539],[148.79109776974326,-35.70342536943773],[148.79147842994658,-35.70377849909019],[148.79279833986487,-35.70458959905403],[148.7933151397495,-35.70513349874172],[148.7932061597325,-35.7057394888302],[148.7937721998711,-35.706193448974986],[148.79426966980748,-35.706448869262026],[148.79537279019658,-35.70741542946707],[148.7961590702934,-35.70794511946037],[148.79653137975785,-35.70881109921267],[148.79628277010465,-35.7093521990256],[148.7969595401785,-35.709657439443866],[148.79805263986066,-35.71028113884361],[148.79898224975432,-35.71047030895508],[148.79946403959735,-35.71093724894444],[148.8001389097344,-35.71143768911564],[148.80179472039862,-35.71209886921213],[148.80314071020632,-35.713322359443666],[148.80414693022405,-35.714019049034924],[148.8052739799357,-35.71401211920701],[148.80731466030872,-35.71555362893819],[148.80785087997316,-35.716206459469674],[148.80855827002176,-35.717214838956856],[148.81038494025307,-35.71804437926862],[148.8115094701904,-35.71824593921693],[148.81192638999184,-35.71906248886324],[148.81277489998166,-35.71975281887014],[148.81330917030192,-35.71986887939396],[148.8141999298562,-35.71986893919862],[148.81601763040942,-35.719481228969606],[148.8172771699474,-35.71899724930617],[148.81874886011443,-35.71871742919395],[148.82068391028818,-35.71951468910773],[148.8224945402018,-35.7209707494424],[148.822668129749,-35.721758369426304],[148.82310357999816,-35.722599138876596],[148.82314463031162,-35.72323735934611],[148.82357513982674,-35.72421331917887],[148.82498219980232,-35.72504620912874],[148.82588224973333,-35.72527420876296],[148.82786284000036,-35.72616777874874],[148.8289920995676,-35.72770364881923],[148.8292064896967,-35.72839018916694],[148.82953409989088,-35.73016612916457],[148.83015649044899,-35.73217374886209],[148.83148848989438,-35.73405296946315],[148.83289954018647,-35.735004509035775],[148.83312843002258,-35.73646959924843],[148.83410626956555,-35.7383109591228],[148.83472069027042,-35.740535129151],[148.83530563006428,-35.741140018809766],[148.83579165007401,-35.74192273943027],[148.83717173992991,-35.74315327932409],[148.83863046022083,-35.744237158944024],[148.83972546972126,-35.74552515914509],[148.84095480969603,-35.74659392908684],[148.84291779028857,-35.74767522906834],[148.84470011967747,-35.74908891941607],[148.84604788994605,-35.749529709371586],[148.8470794703025,-35.75052689902091],[148.84887630029672,-35.75107783894796],[148.84958138975986,-35.7509376088174],[148.8510113199443,-35.75129933904724],[148.8534193600646,-35.75105195877271],[148.85404210006732,-35.751203609087405],[148.8560834595667,-35.75354455888026],[148.85493361959635,-35.75927063944368],[148.8556656001275,-35.760958429222555],[148.85752342033965,-35.76145797926312],[148.8596568499691,-35.76064944904487],[148.86131711987048,-35.75904659921513],[148.86244138031321,-35.75752473893038],[148.86107984965113,-35.75420280879296],[148.86073012023965,-35.75284963876691],[148.86142002008964,-35.75018305902741],[148.86270617042126,-35.749434158817756],[148.86393236988582,-35.74799307915899],[148.8640446296519,-35.747535218954894],[148.86409202027468,-35.74692383879263],[148.8649312300064,-35.74350410902932],[148.86487225021807,-35.74237781897545],[148.8667658898539,-35.74063604880112],[148.8674452704319,-35.738687708953364],[148.8667505403406,-35.73712638912089],[148.86406039957672,-35.73387295936349],[148.86582296962263,-35.73160148922143],[148.86723462987078,-35.73189769913206],[148.86860872976035,-35.731048738746026],[148.8686799401112,-35.729907299156594],[148.869450760202,-35.72908757907689],[148.87044843993633,-35.72763484882694],[148.87097644989743,-35.726779639171724],[148.87159478007038,-35.72556913899358],[148.87202196042904,-35.724258369316196],[148.87225217977172,-35.72321261875958],[148.8723856802027,-35.72249881919157],[148.872485720186,-35.72142794922312],[148.87407543011673,-35.72019156941263],[148.877714010361,-35.71496155909578],[148.87819965038338,-35.715393729421734],[148.8805730496697,-35.71587375886814],[148.88378707982244,-35.71723204941543],[148.88501323976112,-35.71793439880748],[148.8867052597179,-35.71923900903678],[148.88726979966995,-35.72060077941523],[148.88819239012804,-35.72191036945057],[148.8893674898259,-35.72278781883186],[148.89059855995586,-35.72480423875473],[148.89230572999995,-35.728421519079404],[148.89247315979924,-35.730467308999266],[148.8883750697276,-35.733696329421825],[148.88804871986972,-35.7357375788752],[148.88807335975963,-35.73705860935325],[148.89035775037428,-35.73948541939803],[148.89091266038656,-35.740677578866034],[148.89176127008935,-35.744240379387925],[148.89300057956717,-35.746099228924834],[148.89341179955815,-35.74849118904411],[148.89409840977757,-35.751339129170105],[148.89512621002336,-35.75148408930609],[148.8975114500034,-35.75102157895462],[148.89882187011904,-35.75130395895719],[148.9012030703753,-35.755099639400875],[148.90140045000612,-35.75518966898349],[148.90249118981404,-35.75609154914228],[148.90289852009977,-35.7565685988771],[148.90321486991198,-35.75739423894305],[148.90331962964373,-35.75793721901533],[148.90275597004063,-35.75944031884396],[148.9022747703907,-35.760380629409596],[148.90180674992433,-35.761745878954116],[148.90214715033153,-35.76266916938002],[148.90229915965065,-35.76329202946321],[148.90179778024617,-35.76381195938307],[148.90045207969607,-35.76557803874105],[148.90011252011197,-35.766506069176415],[148.8993333402991,-35.76768412885897],[148.89706477979638,-35.76895262898743],[148.89605053961975,-35.76996406946431],[148.8950923399439,-35.770789189317405],[148.89486285991467,-35.77187814943351],[148.89480932032373,-35.77327168893806],[148.89525953977443,-35.77530665923423],[148.89505300002264,-35.777023959023516],[148.89470000972665,-35.7776704392024],[148.8954982499932,-35.77928249940433],[148.89484034004877,-35.78052707923417],[148.89542828021575,-35.78178753889546],[148.8951593102466,-35.78306424929232],[148.89499428972894,-35.784662588874],[148.89532363007842,-35.78552059946149],[148.89543760023685,-35.78671160942408],[148.8961569297938,-35.78844150905944],[148.89634454024596,-35.78973016940888],[148.89636712029892,-35.79028248901136],[148.89656775991597,-35.791628649309715],[148.89698428984858,-35.79311631925596],[148.89705169044433,-35.79351370874907],[148.8977770503919,-35.79465921924226],[148.89718050975443,-35.7956488293448],[148.89634948996317,-35.796710908933655],[148.89518527964316,-35.79793707931255],[148.89454878014521,-35.798531689105396],[148.89315370010226,-35.79932039882336],[148.8932187498069,-35.80035122902213],[148.89295651001595,-35.80151369911514],[148.89199124958188,-35.80255524941204],[148.8907621296944,-35.803584629332036],[148.89025208963227,-35.80452763880148],[148.8898155703879,-35.80612114926393],[148.88942731043727,-35.80721424932084],[148.8891516596974,-35.807626609345945],[148.88743285018225,-35.80882765904615],[148.88694670979828,-35.80949319900305],[148.88667896962278,-35.81006372919318],[148.88741413019008,-35.81080027877559],[148.88775107028678,-35.811217128794134],[148.88906105022798,-35.81206624929649],[148.89110951001138,-35.81385101919818],[148.8918851396822,-35.81494803902455],[148.89214910962846,-35.816134058753285],[148.89251579024938,-35.8166096694354],[148.8937293001121,-35.817238498904665],[148.89495467043164,-35.817621328802126],[148.8958335102404,-35.81758235927759],[148.89660411024394,-35.81790514914791],[148.89734260984915,-35.82104868914563],[148.89770326996094,-35.82326983909428],[148.8976350797461,-35.824704689110206],[148.8997561198112,-35.825875239249044],[148.9018740202644,-35.82635174934971],[148.9036060098614,-35.82609563875488],[148.90622675037972,-35.82801658900341],[148.9070634699814,-35.82957873932899],[148.90659609989527,-35.83206555874077],[148.90509020996709,-35.83321277890549],[148.90378894997238,-35.833329408772464],[148.90321925009727,-35.834263528853675],[148.90314817988357,-35.835275178786745],[148.90331073991572,-35.83630654942727],[148.9036842701906,-35.83730360906463],[148.90438828976025,-35.83853769926187],[148.90456408017994,-35.83900915876638],[148.90531173002458,-35.83965814943242],[148.9048166397254,-35.8405088488854],[148.90421418008856,-35.84135378925698],[148.90398848017,-35.84252558879921],[148.90483116997513,-35.843383279465215],[148.90489505995475,-35.84416388898407],[148.90607363972606,-35.84496985910226],[148.90650363989633,-35.845889419260885],[148.9064686603975,-35.846269868930456],[148.90735342998545,-35.84698198920332],[148.9079068398112,-35.84787548878795],[148.9079580401891,-35.848368419008835],[148.90767089999673,-35.848952049386035],[148.90797147988405,-35.84989653906965],[148.907860829899,-35.85077668913785],[148.90870874969568,-35.851714019363385],[148.9090509404452,-35.85250779919978],[148.90944574013113,-35.85307357876846],[148.9106183398176,-35.85324033915526],[148.91135646033374,-35.85419786888509],[148.91169549979332,-35.85457687930489],[148.91295612988603,-35.85551050890869],[148.91638051044404,-35.855755949197864],[148.917727330295,-35.8562847594575],[148.91819308970182,-35.85656460894741],[148.92004461991033,-35.857244659403996],[148.9204658103027,-35.858768218976735],[148.919457530448,-35.859783679272326],[148.9198128096513,-35.86074743911126],[148.92082223036638,-35.86126245924445],[148.9222292795622,-35.86237454885181],[148.92360994972972,-35.86292918929044],[148.92501427972513,-35.86375281938028],[148.92639106018748,-35.86499759919202],[148.92656386011555,-35.86578785942899],[148.92755113017236,-35.86678579909069],[148.92800448025184,-35.86715801920095],[148.92901738014206,-35.86775745888139],[148.93034595970113,-35.86813552945547],[148.93121943027947,-35.86914448920385],[148.9322097303537,-35.870540748866716],[148.93216037960698,-35.87290201906608],[148.93289674032343,-35.873588688773715],[148.93417516963518,-35.87409152903601],[148.9356176798269,-35.874194009361695],[148.9360543697511,-35.87459044924303],[148.93723219044597,-35.874672749200094],[148.93832468017203,-35.87501142910337],[148.94054923041242,-35.87580218926132],[148.94106502957382,-35.877257549175845],[148.9429329800874,-35.87961411883217],[148.9443140697681,-35.88088807930925],[148.94455461973658,-35.88142055907263],[148.94567814984896,-35.882416338875295],[148.9463645498626,-35.88291387909048],[148.94708695974276,-35.88353866904686],[148.9483447403794,-35.884326809095796],[148.94975205996806,-35.88564882933391],[148.95097147984714,-35.886420539459905],[148.95180700019796,-35.887318579120524],[148.95291984035845,-35.88828786925145],[148.95408324039806,-35.88885079887568],[148.95593039042126,-35.88983008940997],[148.95836652984366,-35.89171634905839],[148.95850200028008,-35.893004429450734],[148.95953972960473,-35.894283459271456],[148.95917894013547,-35.89541374910295],[148.96159910032557,-35.89672040945246],[148.96217341035472,-35.89667809933702],[148.96424611027774,-35.896960519038274],[148.96629504976147,-35.89718010897789],[148.96635479042286,-35.89679477920218],[148.96710397009846,-35.895436068844965],[148.96735871973658,-35.894657878894044],[148.96775856975103,-35.89400552883354],[148.96986981997617,-35.89328740878649],[148.9703508004372,-35.89300910880011],[148.9708505799421,-35.89283812897842],[148.97295961043022,-35.89237665911198],[148.97565616965684,-35.89217608928566],[148.97724407038055,-35.89239880941847],[148.98164558979562,-35.893740238824506],[148.98366983010067,-35.893875049298096],[148.98432867968287,-35.894057698901236],[148.98691171970535,-35.89538860945839],[148.987973140299,-35.89563742944127],[148.99081718043735,-35.89588521893154],[148.99200373994333,-35.895196819163],[148.99324981014186,-35.89515177929324],[148.9953205202966,-35.89583969916418],[148.99695713037002,-35.896172159072755],[148.99766261958342,-35.89642647877538],[148.99795859021506,-35.89669744896608],[148.9976074001429,-35.8988421393739],[148.99739775042357,-35.90099527878882],[148.99941704999455,-35.902677168821455],[149.0034867101841,-35.901203369212986],[149.00881989034664,-35.901305858845],[149.01092995030402,-35.900742528787205],[149.01239498036156,-35.899623548909304],[149.0140554200445,-35.900145058931805],[149.01534862035447,-35.90161179886304],[149.01641466996674,-35.90187163927561],[149.01767669963468,-35.90335947938921],[149.0193069900601,-35.90430446883139],[149.02086201963095,-35.905112119383816],[149.0214824096409,-35.905347459407416],[149.02288230016225,-35.90598019910665],[149.02393302002417,-35.90701995884467],[149.02405103978793,-35.90801685880543],[149.02509355982798,-35.910322748933716],[149.0255121298346,-35.9107614589852],[149.0257904000618,-35.91122469879892],[149.02659650957025,-35.91200811928763],[149.0277689897808,-35.91273608938528],[149.0285352401417,-35.912245558912105],[149.02972889993165,-35.91187611899108],[149.030379449979,-35.91152183911191],[149.0313611199383,-35.911166448829455],[149.03267401042098,-35.91095413921991],[149.0340328299675,-35.9110290390908],[149.03431703985544,-35.91169618940093],[149.03531533044412,-35.91283269926228],[149.0363146702651,-35.91376315924757],[149.03874873996904,-35.914216668799895],[149.03996486033608,-35.913871148861375],[149.04149012961994,-35.914396938967],[149.04267583033646,-35.91559189905192],[149.04406716979457,-35.916293079337336],[149.04417204990062,-35.91718845933848],[149.0445378995799,-35.91816795946613],[149.04490224008947,-35.919303719424214],[149.04638083021618,-35.92053006907492],[149.0475186695927,-35.92035746894339],[149.0490436801618,-35.92020879912211],[149.04954454034,-35.91995864942811],[149.04990713991458,-35.91955159922898],[149.05020879957684,-35.918579359245136],[149.0507385001673,-35.91805142896857],[149.05135717978496,-35.917200619018764],[149.0520893597421,-35.91661822905367],[149.05264030009906,-35.91602555923218],[149.0526280003662,-35.915691459207224],[149.05321989042548,-35.9155389094292],[149.05390612964072,-35.914880999219434],[149.05431406988257,-35.91465216918752],[149.0548701503996,-35.91394315907394],[149.05512709013047,-35.912840369144526],[149.05542325030663,-35.912363358822425],[149.0554793599775,-35.91179151930699],[149.05598121009928,-35.91041165889982],[149.05573915994424,-35.910201249156316],[149.05596997037838,-35.9093472094184],[149.05642882982556,-35.90869317890183],[149.05681811026236,-35.908272089235844],[149.05724456029063,-35.907332339364665],[149.05488353978893,-35.905361479258076],[149.0526893202658,-35.90407772926635],[149.05169633961876,-35.90337235937744],[149.05178058991436,-35.902102299209204],[149.0522111398536,-35.901441309145135],[149.0541987495563,-35.89876209924979],[149.05604928982137,-35.89735691919143],[149.05688820041408,-35.89722742902778],[149.05834232043247,-35.896365748805735],[149.05879995008596,-35.8959475189404],[149.05857784971678,-35.89466559929526],[149.0608136801022,-35.893282209123356],[149.0611458995521,-35.892414439146066],[149.0612493297773,-35.89182766909589],[149.06173742040377,-35.89144803921569],[149.0611693500726,-35.89047522902088],[149.0604329300673,-35.889337579331524],[149.06013954029552,-35.88829294915878],[149.06106861030167,-35.88696128905326],[149.0619399698391,-35.88539869920279],[149.06237684032467,-35.88451575885851],[149.06244712002092,-35.88407303933242],[149.06194627960568,-35.88333974937764],[149.06181900000797,-35.88229544912717],[149.0615233599564,-35.88170824890613],[149.061735799843,-35.88068251935517],[149.061518700395,-35.88007304934482],[149.0617110395788,-35.87987946927024],[149.0624560402917,-35.8784979890955],[149.0629239601468,-35.87777971894798],[149.06392441028547,-35.87664939940463],[149.06433875012542,-35.8761136193313],[149.06428382982392,-35.87494734891326],[149.0654951702553,-35.873789719131786],[149.0665672098339,-35.872399759418855],[149.06773708043855,-35.87075108932443],[149.0697205399246,-35.86972709891937],[149.0703925803684,-35.869287568895295],[149.072826369798,-35.86634058905164],[149.07431738991335,-35.865774318866194],[149.07471928988323,-35.864708329343685],[149.07480393992913,-35.86378086944181],[149.07614761028665,-35.86212000913758],[149.07682918005904,-35.86057169891399],[149.07808347972394,-35.859927629128144],[149.07975698001283,-35.858958358904715],[149.08086732016187,-35.85704574943362],[149.0808123199103,-35.85611124892851],[149.08219329999656,-35.85311876925587],[149.0837805000344,-35.852805638971205],[149.084531440408,-35.85221975942313],[149.08420378978954,-35.85020153888981],[149.08527911989702,-35.849782358974586],[149.0862066403094,-35.84889885933743],[149.0865728600945,-35.848196078766236],[149.08900701963,-35.84816171887572],[149.09331566043116,-35.84645466934599],[149.09485900022528,-35.84682897936076],[149.0956873897494,-35.845636679086724],[149.09601893995446,-35.8442230292974],[149.09581515982714,-35.843315588805616],[149.09461111012263,-35.84149583917561],[149.0950354697713,-35.840080339446295],[149.09538449041196,-35.83911897915354],[149.09340954964972,-35.83826684909721],[149.09298748968823,-35.838240408886534],[149.0929692098705,-35.83772435876091],[149.09261302965695,-35.83726459895433],[149.09204609030473,-35.83538019924125],[149.0922598300536,-35.834836338950794],[149.09367773988117,-35.833879929318975],[149.093707379794,-35.83207724936061],[149.09398604977153,-35.83132174934539],[149.09455839967669,-35.83076432926051],[149.09451323957072,-35.82980901910263],[149.09470461037066,-35.82862816942622],[149.0942542301215,-35.82700989904328],[149.09337589965753,-35.82560332907355],[149.09357191025586,-35.82411168903232],[149.0949834797742,-35.82199910946049],[149.09451168997688,-35.82121061912475],[149.09540584965447,-35.82011304920387],[149.0960458202427,-35.81974016901941],[149.0958011200576,-35.81826547920351],[149.09592071995786,-35.817586109233794],[149.09734059979093,-35.81737971933552],[149.09880396976183,-35.81687739932989],[149.10042867985268,-35.815301878893955],[149.1005999203054,-35.81470348938669],[149.10014999999365,-35.81364310875221],[149.0995650503183,-35.811892609259914],[149.10027130040478,-35.811355899106296],[149.100477770088,-35.810022789011775],[149.0995997504411,-35.80962605907133],[149.0982627500745,-35.807936249139765],[149.09883875971613,-35.80746088884205],[149.09966872039365,-35.807230528935584],[149.09955290958723,-35.80667645919426],[149.10042133971845,-35.80570663879024],[149.10111642015272,-35.80506148893789],[149.10150445013463,-35.80365250906569],[149.09983169005756,-35.80327191917396],[149.0998376503795,-35.80176989921114],[149.09899003960322,-35.80115753920939],[149.09840175987313,-35.800533599440165],[149.0971095899308,-35.79968404889699],[149.0969067602211,-35.7989612687803],[149.09675901969618,-35.7981801891204],[149.09706464003057,-35.7968490291607],[149.0977689596375,-35.79596983943871],[149.09871140016838,-35.79522496903039],[149.0994572695522,-35.7950931588829],[149.10019463009357,-35.794062349355556],[149.10045238010477,-35.793065219452465],[149.10053074014706,-35.79139044890841],[149.10032332992773,-35.79030894884005],[149.10014944034322,-35.78972285923861],[149.09755339990193,-35.78819726911903],[149.09612396019764,-35.78721465946386],[149.09347552012756,-35.78723032887615],[149.09335745005822,-35.78639320935408],[149.0930116103519,-35.7856814191673],[149.09288576985531,-35.784901239390535],[149.09332698010206,-35.78389426879406],[149.0931420403413,-35.783189578984945],[149.09472661999348,-35.78137342908835],[149.09506000994818,-35.78063128884242],[149.09577091959605,-35.78018822908176],[149.0962738899169,-35.77881672901185],[149.09737030977232,-35.77744218878811],[149.09631891976713,-35.77628100928288],[149.09588327009203,-35.776012388966386],[149.0948513402909,-35.775819828861046],[149.0929323097736,-35.774454239276984],[149.09163050000996,-35.773946548926304],[149.09307257002706,-35.771460958901166],[149.09327149026868,-35.770777628886634],[149.09271319989597,-35.76870506889889],[149.09223388041997,-35.7679973690117],[149.09114427967586,-35.76704925893789],[149.09070953011263,-35.765616879247986],[149.0928452702091,-35.76356651904471],[149.0933049300551,-35.76265887902877],[149.09363427040455,-35.76185944944816],[149.093209309783,-35.76092718938159],[149.09292541969532,-35.75911903876365],[149.09464406032723,-35.75660534939803],[149.09459965031454,-35.75560676916951],[149.09490167020127,-35.75491156890197],[149.09493511986918,-35.754305769110296],[149.09560202015297,-35.75332198899815],[149.09639963968363,-35.752823869250385],[149.09621967030128,-35.75207807914666],[149.09506401014622,-35.75040100897766],[149.09563926969454,-35.74985071905279],[149.09698250975913,-35.747371749204284],[149.09561482024748,-35.74599314916776],[149.09622843965508,-35.74365045926092],[149.0968975497945,-35.742687408916616],[149.09778910974765,-35.741721078983275],[149.0980658896699,-35.74052125879562],[149.09841834007835,-35.73967486943218],[149.09906012975495,-35.7392523294322],[149.0990347496533,-35.738826899020225],[149.09970306029203,-35.73795740937169],[149.1006860696394,-35.73630394914693],[149.10076841011673,-35.7355295792976],[149.1005885700918,-35.73488534891043],[149.1005862398619,-35.73346384889289],[149.09903929962016,-35.73060727912334],[149.09909806021952,-35.729288049315265],[149.10011613979566,-35.72835517945916],[149.1028105502521,-35.72670160883356],[149.10367378003616,-35.726038879145236],[149.1040985996222,-35.724982039217814],[149.10413267002596,-35.724118629429164],[149.10388729969773,-35.723289689118104],[149.10240835024487,-35.721763779432294],[149.1024099995517,-35.7208949990902],[149.10166292013727,-35.71986659879397],[149.10067732004856,-35.719017579466424],[149.10061282011284,-35.71851020931963],[149.1000657101722,-35.71693564930969],[149.0993711300996,-35.716135128882236],[149.09934937020842,-35.714659198862186],[149.09977904968025,-35.71442687939618],[149.10111083981815,-35.71286802925251],[149.10098337965914,-35.71256142914315],[149.1012663103461,-35.7121777789155],[149.10159678975933,-35.71044695903912],[149.10160511983696,-35.70940411922895],[149.10191743980675,-35.70880192886314],[149.10196665041627,-35.70777566876381],[149.10225343038425,-35.70723830903359],[149.10274304006188,-35.70655667942084],[149.1034257596778,-35.70597638904902],[149.1041281299406,-35.70493473886019],[149.10545391034924,-35.70388789946083],[149.10628853957127,-35.703402929302975],[149.10747625970063,-35.70230660919925],[149.10788054020605,-35.70119669882856],[149.10782470002965,-35.70053093894557],[149.10863289003623,-35.699531948745665],[149.10894748993022,-35.698497589082976],[149.10941774989664,-35.69658568914419],[149.10849529957574,-35.69554984894808],[149.10821492010422,-35.695010539158986],[149.10788231976863,-35.694026739313024],[149.10667431029026,-35.692904108876974],[149.1059339403927,-35.691147549467765],[149.10417792984495,-35.69107885945504],[149.10375479010847,-35.69072486882009],[149.10379916957842,-35.689771049394906],[149.10437696956248,-35.68905951926984],[149.10483900006255,-35.687342698746455],[149.10476717975553,-35.686384819338386],[149.10438171985368,-35.68486931927185],[149.10289991016495,-35.68481951876538],[149.10205849956083,-35.68455776881187],[149.10144489003466,-35.684137569086516],[149.09941926991732,-35.68388290913741],[149.095893059932,-35.68038080894271],[149.09529815961824,-35.67928025898781],[149.09549522034717,-35.67804702943029],[149.09496007955934,-35.676823499212766],[149.09607495979387,-35.67586195944011],[149.0965692101683,-35.67452988929514],[149.097118520083,-35.67417148909483],[149.0972705599449,-35.673605269061056],[149.0966057599222,-35.67282031930339],[149.0966694702388,-35.67213222902289],[149.09621732030854,-35.67013653946993],[149.09594022956924,-35.669196758796176],[149.09595579018657,-35.66859124930574],[149.09572627961467,-35.66805116904844],[149.09568622014282,-35.6669873890831],[149.0959744796361,-35.66541795890163],[149.09661780004197,-35.664612788957136],[149.09666836980256,-35.66316655946801],[149.09609222990517,-35.662406799315875],[149.09585226024842,-35.661930808891405],[149.09589242033152,-35.66144068919693],[149.09621720981576,-35.66036236900572],[149.0978472702724,-35.6587584690124],[149.09853460992386,-35.65721247907285],[149.09835471959326,-35.65679858916509],[149.09761412960844,-35.655945529058876],[149.0960374398594,-35.65433939875721],[149.09538809984278,-35.65302138937236],[149.095428320113,-35.65255231905031],[149.09680621987619,-35.65174859898342],[149.0971077798255,-35.64871775915903],[149.09747948023218,-35.647295189095466],[149.0961332299131,-35.645598419103315],[149.0963200202034,-35.644131328850854],[149.09583298958896,-35.641630999053575],[149.0956287198798,-35.64033495898965],[149.0935768896175,-35.64006066902309],[149.09242250956163,-35.639719598993814],[149.0906553796673,-35.64002167896431],[149.0890422201144,-35.64105763910069],[149.08826626974505,-35.64072794894999],[149.08756297960738,-35.639652529253425],[149.08766060042763,-35.63790896929284],[149.08744608992436,-35.63668760924731],[149.08723655968095,-35.63636736885944],[149.08650476959264,-35.63587785889897],[149.08858547979304,-35.634092159367384],[149.08814574008844,-35.63356320930491],[149.08777350967569,-35.63242093937107],[149.087261259758,-35.63028105943715],[149.08777326982553,-35.62905380875945],[149.08774245042477,-35.62812024902203],[149.08787361972762,-35.6279049189568],[149.0859263704323,-35.62537143912541],[149.08512933031503,-35.622884018929035],[149.08418997998868,-35.62167676942756],[149.0852083802634,-35.61957559904233],[149.08490124986096,-35.61852347896997],[149.08475704959662,-35.61765418914429],[149.0849484096168,-35.616767589098025],[149.0845251297431,-35.6146431089591],[149.08257065978955,-35.613638908864985],[149.08193075028683,-35.61178723932039],[149.08124816002828,-35.61125426881445],[149.08121671001015,-35.61048565935373],[149.08042442018413,-35.60899697924479],[149.07973386995383,-35.608197079068404],[149.0792345899122,-35.60774869940118],[149.0794978699523,-35.606640289020284],[149.079517209782,-35.60515062877343],[149.08005726974434,-35.60498461901208],[149.07951964960634,-35.60247064876587],[149.0781802902638,-35.598818909245935],[149.07887255986952,-35.59858113879161],[149.07936541965188,-35.59744200896246],[149.07858940011218,-35.59672469933044],[149.07823299981143,-35.59533935903884],[149.07912127013407,-35.59353310945266],[149.07912029995353,-35.593043649196346],[149.0787252199933,-35.59255569878954],[149.07830916976098,-35.58902485893542],[149.0779966503652,-35.588010859420166],[149.07814774969094,-35.586416909102475],[149.0829227104477,-35.584593919022005],[149.0846144195874,-35.58081462902251],[149.1091476696098,-35.58408596901145],[149.10889563018884,-35.585384899082754],[149.10920106996187,-35.58632460909815],[149.11010788959678,-35.58707165938643],[149.11045280044507,-35.58713304946191],[149.1110861495513,-35.58675966902683],[149.11247133015985,-35.585185319460706],[149.11389222958073,-35.58538004893324],[149.11624492000482,-35.58634514911654],[149.1235639303074,-35.58739134910965],[149.12360210960532,-35.58721276940958],[149.1256170999579,-35.587489118861164],[149.12518739982488,-35.589557658998565],[149.12646513024734,-35.58973066913937],[149.12603465037665,-35.5918522189346],[149.13005598030563,-35.59240253925242],[149.13034516955508,-35.59097872891993],[149.1351643903059,-35.59163057907993],[149.1351386400983,-35.59175075893133],[149.14268155997712,-35.59278920941371],[149.14144101980736,-35.590554078997144],[149.14105243017505,-35.58969550946605],[149.1408265595766,-35.58908578874644],[149.14005599011577,-35.586423599431406],[149.13982116960224,-35.58590883915717],[149.13888759005326,-35.58255060908483],[149.13882986970305,-35.58200370886153],[149.13808176980243,-35.5793119888362],[149.13584775042062,-35.571256139361736],[149.13475205011574,-35.571180428866896],[149.1347033398678,-35.57100356885464],[149.1357494495757,-35.5709020590527],[149.13560178001777,-35.57037215919727],[149.13538585017628,-35.57041219887034],[149.13533143023636,-35.570216319428795],[149.13521413002317,-35.569793429255036],[149.1354509196439,-35.56982749943027],[149.13194503044858,-35.55720019910094],[149.1317219796618,-35.55617099902845],[149.13157605014058,-35.55503544917057],[149.13145040996827,-35.554468638759836],[149.13145351993583,-35.55360277885667],[149.13159085976633,-35.55302511909043],[149.13170603995545,-35.55214090930981],[149.13195348988359,-35.55097094938083],[149.1321940003262,-35.5501959989288],[149.13259321972328,-35.549158819033316],[149.13804401989918,-35.537372999103866],[149.13786507998623,-35.53724682905583],[149.1383740896807,-35.536143689223394],[149.13858159961302,-35.536207649053395],[149.1501121500212,-35.51119664935754],[149.15065190006467,-35.509819059317394],[149.15108399959777,-35.50819600884866],[149.15125585000658,-35.507201619343896],[149.15133741972934,-35.50637771943852],[149.15148448022958,-35.49988831888915],[149.15145125963207,-35.4987523489234],[149.15151504989868,-35.49827339923518],[149.15161008985913,-35.49320016886113],[149.1515711299252,-35.492690138922995],[149.15147110970483,-35.49211411921853],[149.15113368990777,-35.49105363902539],[149.14514559029237,-35.47692043911256],[149.14466877981093,-35.47591342946298],[149.14406001040751,-35.47484499923064],[149.1430655403537,-35.47341790932028],[149.1419759997967,-35.472149999032816],[149.13984870027076,-35.470025749159355],[149.13935701997636,-35.46942200944165],[149.13860143980438,-35.46831097920744],[149.13839399994063,-35.467775008838366],[149.13819185025568,-35.46707921882034],[149.1380893803295,-35.46570294941141],[149.13790584014393,-35.464870648954324],[149.13800098969884,-35.46423275918756],[149.13796707021194,-35.463480748885544],[149.1375212201668,-35.46259968945604],[149.13697600028152,-35.46204508909495],[149.1362897296253,-35.461037809010456],[149.136131440184,-35.46073010917009],[149.13595974967535,-35.460214899138776],[149.1358772996036,-35.45985848924425],[149.135867790038,-35.459623469061356],[149.1359087199773,-35.45908104935856],[149.13612022022613,-35.45783001909664],[149.13611585980374,-35.457502919358795],[149.1359217895663,-35.45663329939994],[149.13507213961444,-35.45483783926607],[149.1350924002174,-35.45403392881374],[149.13517899960738,-35.453684999331244],[149.13598425032637,-35.45270129880879],[149.13705335960051,-35.45181554921606],[149.13729346041134,-35.451716438842325],[149.13792569021672,-35.451546829337914],[149.14012996009126,-35.45151442933686],[149.14079817011873,-35.451414949046146],[149.14188764959025,-35.45139156884756],[149.14241705014334,-35.451052438852216],[149.14282770958562,-35.4506957893233],[149.14305699018882,-35.45032299944163],[149.14301493016887,-35.44978589934677],[149.14315217028644,-35.44919409915509],[149.14306586015394,-35.44835578884272],[149.14307896028572,-35.447985848749695],[149.14322814979315,-35.447450108860465],[149.1434082700925,-35.44711880876064],[149.14369102021803,-35.44676849909104],[149.14399365006088,-35.44650357879675],[149.14628475019236,-35.44508323920342],[149.14766355006745,-35.44425083885542],[149.14832903999624,-35.443992138981685],[149.14915417043252,-35.443880028760695],[149.1506554798511,-35.444007299087126],[149.15124725043435,-35.443959339280596],[149.15184153001223,-35.44378062904966],[149.15244048981282,-35.443414509393435],[149.1525691896469,-35.44329339882932],[149.15287124007634,-35.44280873885409],[149.15312316002138,-35.442099819246145],[149.1531070801778,-35.4417870490966],[149.15287258036275,-35.440863308753144],[149.15283230978687,-35.440502009122326],[149.15286126967504,-35.44004029940494],[149.15299865981123,-35.439505929409435],[149.153236919974,-35.43902192874965],[149.15349632019038,-35.43865604946674],[149.1543644098602,-35.43778316942977],[149.1547275196778,-35.437321369465444],[149.15488848969187,-35.43702294878581],[149.1550162498882,-35.436675739457584],[149.1550961604226,-35.43617310923591],[149.15505557004647,-35.435629279149374],[149.15488654034772,-35.43512313941342],[149.154613519875,-35.43466502920549],[149.15434301019346,-35.43436037874325],[149.1538942999124,-35.43399424918127],[149.15345360979026,-35.43374047886773],[149.1528982802647,-35.433531139275956],[149.15235068972544,-35.43341613943369],[149.15168517015226,-35.43338324905481],[149.14888501002054,-35.433552008995555],[149.148007039781,-35.433494089343775],[149.14688278023658,-35.433296138818555],[149.14539511982045,-35.4331816187935],[149.14472581025504,-35.43325473886127],[149.14441472996037,-35.4333503791568],[149.143259180298,-35.433976278763154],[149.14335762038183,-35.43409687928083],[149.14287910040636,-35.43414892914078],[149.14232792019914,-35.43426938886924],[149.14175345026993,-35.434303509260644],[149.14109869970034,-35.434245669197864],[149.14059137973697,-35.43410479878415],[149.14005388985464,-35.43382894928937],[149.14033972030336,-35.433900939395585],[149.14036292019387,-35.43378699919109],[149.1399304999622,-35.433527109230205],[149.1396108102138,-35.433274659327104],[149.13937620978749,-35.43301606910511],[149.13906934977797,-35.432532538865985],[149.13888029034334,-35.431748479436024],[149.13859262014495,-35.431257859162564],[149.13858284018642,-35.4308807887782],[149.13838677029926,-35.43052274916977],[149.13822899020272,-35.430083269203045],[149.13816400966834,-35.4295397390864],[149.13824407022142,-35.42901376911906],[149.1384638996495,-35.42850047878402],[149.13869318025274,-35.42817677922816],[149.13883792040463,-35.4280417892293],[149.14276448974914,-35.42563526920238],[149.14308886960166,-35.42538793913405],[149.1433607896381,-35.42487160905432],[149.14375396966156,-35.424681609005965],[149.14406471039305,-35.424240559188185],[149.1443297897587,-35.423666889439296],[149.14450270017954,-35.42314094919867],[149.1453607296164,-35.41850620936483],[149.14570152977393,-35.416865018981426],[149.14587763999384,-35.41633878908301],[149.14629565035005,-35.41546729900114],[149.14668757991865,-35.41484552886557],[149.14718800980384,-35.41422441942249],[149.14787040961954,-35.41354174940333],[149.14883527030324,-35.412793789260455],[149.15346459977943,-35.41006483880904],[149.15469210988593,-35.409289749255606],[149.15619046025395,-35.40816901938288],[149.1573232996076,-35.4071714393066],[149.17037618989343,-35.393362119459674],[149.17073857027907,-35.39290408886367],[149.17141609044612,-35.392187299244505],[149.17186508998472,-35.39178417913148],[149.17620100992613,-35.38719521947154],[149.17636066031508,-35.38660872891231],[149.17798638999378,-35.38488803895569],[149.17863956042672,-35.384614319170126],[149.1821952504248,-35.38085000884982],[149.18354496015598,-35.37936017891511],[149.18439293025833,-35.378343759317815],[149.1842582395596,-35.37818892901727],[149.18453522968755,-35.37783236921094],[149.18471870968602,-35.37793476907699],[149.18580799961305,-35.37649742946508],[149.18693233012434,-35.374871679069095],[149.2044479797747,-35.34775958946246],[149.20485392036682,-35.34721873926038],[149.2052528397266,-35.346788449277355],[149.20570148982048,-35.3463941493572],[149.2061940702268,-35.34603799938689],[149.2068247800827,-35.34566848935786],[149.20725349027228,-35.34546552886769],[149.2071615099737,-35.345299239226264],[149.20738060996982,-35.345255879429736],[149.20744857021603,-35.3453787390871],[149.2178779001718,-35.341574609032286],[149.2187557698001,-35.34134192940159],[149.21965122035675,-35.34125465888746],[149.22080176999623,-35.34135556925794],[149.22157108990055,-35.34124175911681],[149.2243669003896,-35.34177406932808],[149.2248505299824,-35.341685738961075],[149.22614309967506,-35.341931709295565],[149.22653966994037,-35.34219014910135],[149.228714319665,-35.342605879402385],[149.22943772038687,-35.34292018927375],[149.22986139012943,-35.342884499466564],[149.23052922016944,-35.34272429889084],[149.2309034996393,-35.34257918925085],[149.24138532983534,-35.336741298861156],[149.24306981023196,-35.33569811924602],[149.2439310700106,-35.33498711874816],[149.2444980201426,-35.33436116881596],[149.2448566599434,-35.333861929104565],[149.24579636959575,-35.33225285890896],[149.2461193597545,-35.33177611893055],[149.2468414498344,-35.331114309146116],[149.24754588981554,-35.33067509937303],[149.2483555198216,-35.330344719052704],[149.24930748968097,-35.33012719887108],[149.25167700016047,-35.33025356928249],[149.2530855297798,-35.33024698880053],[149.25344584044703,-35.3301776492938],[149.25434566040929,-35.330187949123435],[149.25474425008733,-35.330121189289144],[149.25505154038984,-35.330207699376615],[149.25530971979578,-35.330510579226996],[149.255812970391,-35.33079687896477],[149.25656778968988,-35.331394879410986],[149.2575535397973,-35.33170221940545],[149.25811158043828,-35.3317974393161],[149.25857596991432,-35.331968438982024],[149.25960543024678,-35.33164984910301],[149.26035382030324,-35.331326519263634],[149.26091498977638,-35.331189798795506],[149.26164534974677,-35.33116559881763],[149.26248813028167,-35.3313227992411],[149.2630810102844,-35.33158527880391],[149.26405145040437,-35.33225180945838],[149.26493651014812,-35.33262170916349],[149.26634523021042,-35.333576178864405],[149.26657182035933,-35.333902649457535],[149.26717521963403,-35.33442315877738],[149.26791243015674,-35.33487262909529],[149.268373210202,-35.33506708897355],[149.2688031699481,-35.33512146941444],[149.2700978596648,-35.33517938938774],[149.2706735198618,-35.33514131885983],[149.27147886041232,-35.33521507893409],[149.27240143020913,-35.33544851929459],[149.27390984979314,-35.33598762942518],[149.2745131700161,-35.33599896912251],[149.27574976029348,-35.33582904937303],[149.27616590035728,-35.33584994878133],[149.27655568025742,-35.335919698932706],[149.277162880304,-35.33613922904349],[149.28033875990496,-35.33774808922595],[149.28080823025226,-35.337900509214954],[149.2817196097355,-35.33807594921648],[149.2825796603818,-35.338143948978335],[149.28301077985293,-35.33809942897778],[149.2840712796734,-35.33788901882651],[149.28459926987156,-35.337725249103],[149.28832728009726,-35.33565149908515],[149.28899064012052,-35.33544361887651],[149.28966355013355,-35.335078178904716],[149.29016783019804,-35.3347203888024],[149.29014877962587,-35.33481464880979],[149.2920985199494,-35.33377735909876],[149.29293360012576,-35.333486679441826],[149.29404613036746,-35.33325338877826],[149.295418700426,-35.33317084885812],[149.2954126897985,-35.333076188996486],[149.29362470012495,-35.33232233880954],[149.2936624599096,-35.33213451934601],[149.295626890383,-35.332962679388565],[149.29563950003464,-35.333161019164336],[149.30021278002698,-35.33300218879396],[149.30087131969037,-35.33307033939492],[149.30178241979766,-35.33331110929033],[149.30232811040014,-35.33351325900571],[149.30251095978127,-35.33369219906543],[149.3032002999809,-35.33471049920466],[149.30360068988278,-35.335155989389335],[149.30430830001862,-35.33559172906388],[149.30482003969328,-35.335754139324195],[149.30525975963496,-35.335795908861165],[149.30796132966418,-35.335838789337764],[149.30796375960708,-35.33574816900035],[149.30862732983607,-35.335760099388025],[149.3086248998932,-35.335850729238814],[149.30937858012837,-35.33586427915196],[149.31185636005742,-35.33584014945918],[149.31401975029829,-35.3360401889163],[149.315748770065,-35.33626113890534],[149.31891514998185,-35.33678129887134],[149.3192624296875,-35.33695758916841],[149.32021453968412,-35.33714764935533],[149.32630422977496,-35.3381192293267],[149.32646600018793,-35.33796020937776],[149.32706118975923,-35.33805455940522],[149.32701916028202,-35.338232549224436],[149.33641351963948,-35.33972688935159],[149.33703267985578,-35.33989062937082],[149.33772871969074,-35.34017931919961],[149.33826934020175,-35.34049555913175],[149.33875039971454,-35.340875128953286],[149.33919640965985,-35.34135117920882],[149.33980435979967,-35.342234748917825],[149.33993258981496,-35.34261613881172],[149.34005331979586,-35.3433851892504],[149.34018185972988,-35.34373285904819],[149.3404449196827,-35.344233048969684],[149.34090631956548,-35.3447868491432],[149.34752164986168,-35.3502404988785],[149.3478756399825,-35.35047758932622],[149.34862993017376,-35.350858529268294],[149.3490808601919,-35.35101847925391],[149.34993644980446,-35.35120812903264],[149.3505607304179,-35.35126126916629],[149.35144688969956,-35.35125066942396],[149.35603810994647,-35.35064910923751],[149.35688592014864,-35.3504399392443],[149.35754621961175,-35.35015427913526],[149.35816506002783,-35.34972658901547],[149.35912364957258,-35.3488383188703],[149.35955709029042,-35.34854875875002],[149.3599010102969,-35.348419499296575],[149.36046798019186,-35.34827974941077],[149.361145680022,-35.34822082915104],[149.36245013981573,-35.348404419392104],[149.36305048032685,-35.348390848867815],[149.36365053966526,-35.34823256939028],[149.36413123985187,-35.347973279182206],[149.3644579598157,-35.34773169935904],[149.36477269984687,-35.347362438874654],[149.36491788017315,-35.34709831943447],[149.36505694027744,-35.34649685874877],[149.36490146974953,-35.34381212890091],[149.36492138000952,-35.34292504893666],[149.36504733010057,-35.342206489058334],[149.36534045037772,-35.341513889322165],[149.3657538496816,-35.34093118940926],[149.36641723036615,-35.34028544906607],[149.36685404964774,-35.34000366905838],[149.36738281958358,-35.339740289125935],[149.36799026037866,-35.339520718968025],[149.3719999301752,-35.3385728194038],[149.37197266989958,-35.338494359284276],[149.37220199002869,-35.33852567914797],[149.3726988796534,-35.33840974942523],[149.37459604966824,-35.3378979392666],[149.3754614902062,-35.3375820394505],[149.37643090984,-35.337143868777304],[149.38582734969563,-35.332297558748714],[149.38642619990168,-35.33206174875038],[149.38684543017007,-35.331942958932004],[149.38874973999475,-35.33155840912515],[149.38937700032002,-35.33138029907394],[149.39017969982362,-35.33105618911824],[149.39063278040854,-35.33080957886361],[149.39110921988578,-35.3304898294097],[149.39172871966525,-35.329970089197786],[149.39308111985076,-35.32841616930198],[149.3939971202679,-35.327599058764015],[149.39491140041122,-35.32698094939253],[149.3965457503234,-35.32611628914321],[149.39713083025447,-35.325724569353184],[149.39803551010237,-35.32525183878895],[149.39717640987368,-35.32425047914599],[149.39742241980247,-35.32335605883406],[149.39812972990094,-35.32194773924603],[149.39816315980593,-35.320615079358916],[149.3992870402613,-35.31908967932162],[149.39800598966548,-35.3185844887789],[149.39720132015654,-35.317312979049],[149.3971355203586,-35.315969119440524],[149.39668845040126,-35.31418152903034],[149.39713631985913,-35.31353847922826],[149.39728077973663,-35.3110026093995],[149.39642787968006,-35.30967957896837],[149.39449789959775,-35.30919075911229],[149.39534190992634,-35.307311459124364],[149.39468535014976,-35.306557928783356],[149.39494260968084,-35.30558806908442],[149.39500882000885,-35.304652378866976],[149.39495549960685,-35.30403512924687],[149.3947852203515,-35.303188709267694],[149.39341592016052,-35.302923919093665],[149.39160605022167,-35.30345507917664],[149.38967603959668,-35.30269752911992],[149.3882658498906,-35.303608969204994],[149.38657921982553,-35.30341764911749],[149.38417560031473,-35.30434913896819],[149.38369697972803,-35.30647064930543],[149.38189747005927,-35.30626570927001],[149.38162317038558,-35.30569126945713],[149.37986199991488,-35.305715578960104],[149.37779670031313,-35.30512617921994],[149.3760525502221,-35.30488601890763],[149.3760049197491,-35.30511844938759],[149.37379266025846,-35.30481251927314],[149.37196243988515,-35.30676050900259],[149.3698911997245,-35.30826316924527],[149.3668063697674,-35.30802174929019],[149.36583974030088,-35.30852602936137],[149.3637969497852,-35.30864321883831],[149.36166582972433,-35.309024778963334],[149.35965884964918,-35.30753799893179],[149.3610614099635,-35.30595489888243],[149.3619252101778,-35.30429346881554],[149.36199062010684,-35.30308925928189],[149.36095356002707,-35.301605059306965],[149.3595067801429,-35.30158691936226],[149.35761607979475,-35.300813738835195],[149.35661454988113,-35.300596339361455],[149.35502445008152,-35.29965340946058],[149.3520173297865,-35.29987418908978],[149.3505522503216,-35.29935812901675],[149.35034158011612,-35.298762489229645],[149.35042094986474,-35.2981655488218],[149.35016632958397,-35.2972624789205],[149.35056799958517,-35.296708249048784],[149.35050476986726,-35.29595192916858],[149.34970070043286,-35.29440378941863],[149.34894380961885,-35.294435229010034],[149.34807988004718,-35.293479218748075],[149.3487609800007,-35.29286197921753],[149.3488696500989,-35.29206926885389],[149.3478718598718,-35.29158714913441],[149.3457677000492,-35.29187049907262],[149.3450341896871,-35.29220586922451],[149.3432104003529,-35.292047489262785],[149.34283779983426,-35.290186729170365],[149.34143891991766,-35.288960618752974],[149.34149818986174,-35.28670282892983],[149.33970871976464,-35.28630021907406],[149.33769802964738,-35.286971009275106],[149.33761749029227,-35.28787297899247],[149.33632464032527,-35.288737088991624],[149.3358050403919,-35.28841376942801],[149.33575689967577,-35.287382439151344],[149.33485237972803,-35.28697651904237],[149.33477188978023,-35.2863024988197],[149.3328699101854,-35.28535436914504],[149.33169501979492,-35.285189469358556],[149.33115467955827,-35.28453031929341],[149.33000756956804,-35.28443145941004],[149.32879343986767,-35.28316276922494],[149.3275610501125,-35.28240191926607],[149.32653018032343,-35.282429459386954],[149.32543460039284,-35.283461469459986],[149.32502498030135,-35.28438653879193],[149.32458068973148,-35.286388268977866],[149.32351569024976,-35.286413978962706],[149.32247681018328,-35.28674025938706],[149.3220349702175,-35.285787039292856],[149.32126970980002,-35.285219918930636],[149.3209498897959,-35.284407648750346],[149.32034756041477,-35.28394284928002],[149.31934577987116,-35.28380856904615],[149.31832208043463,-35.282823889413656],[149.31704364034306,-35.2819600492267],[149.31626426020597,-35.28178776905712],[149.31627839968849,-35.28055695916049],[149.3165648302118,-35.27944763912846],[149.3160686502562,-35.278670138933045],[149.31530033017688,-35.276230928747665],[149.31422338040693,-35.27596574896859],[149.31213904011437,-35.27658762895368],[149.31169672044828,-35.27752501939767],[149.30976821989128,-35.278268658822455],[149.30906058999255,-35.27620652898523],[149.30664526004375,-35.27654468919339],[149.30541676987525,-35.27553213896458],[149.30622904002985,-35.2745011088422],[149.30576659989805,-35.273993059113465],[149.30384580958113,-35.27337702926106],[149.30271146015946,-35.274109169184655],[149.30222932985484,-35.27390506906998],[149.30209924032698,-35.273230279256815],[149.30164348006758,-35.2728940787751],[149.30066522011313,-35.27284553905432],[149.2987855304154,-35.27217245877296],[149.2984621503878,-35.272156818997225],[149.29732343964548,-35.272765238883665],[149.29667199038457,-35.27242858909867],[149.29430055032395,-35.27355243909007],[149.29364040986266,-35.27419455916516],[149.29143409991414,-35.27424717934915],[149.28929299957045,-35.27569846941932],[149.2883645503001,-35.27524668940202],[149.28752033964722,-35.27412767904535],[149.28732303008493,-35.272962148744774],[149.28543299988002,-35.271630489095166],[149.28297635012302,-35.272058989106235],[149.28152436989166,-35.27099392922302],[149.28012645027408,-35.271060638845285],[149.27962748015116,-35.2706513893578],[149.27844787989372,-35.270751608944025],[149.27702102015098,-35.27133766896292],[149.2763809004424,-35.27308170943953],[149.27575092001854,-35.2738012788612],[149.27537758018642,-35.27505114917177],[149.2743769297235,-35.27491731915398],[149.27243955021817,-35.273393999170366],[149.27180789982617,-35.273484769313434],[149.27225005959215,-35.27191639877753],[149.27162701955214,-35.27080468901447],[149.2717135003645,-35.27013755887547],[149.2723600897397,-35.26942852924152],[149.27247731000284,-35.26728931886624],[149.27207684015087,-35.26696491911206],[149.2734613003106,-35.266101629293146],[149.27351250967166,-35.26422230875138],[149.27379226032247,-35.26321408900439],[149.2727781396218,-35.26264885920296],[149.2725543603014,-35.261830138948945],[149.27301779037668,-35.26123826905177],[149.27281978012846,-35.260488739463],[149.27331636971587,-35.25993685890314],[149.2731789499353,-35.2591788788811],[149.27174951023102,-35.25902580882458],[149.2705466400144,-35.2591550094513],[149.2695968602477,-35.258776889194785],[149.26770297986343,-35.259438678989326],[149.26286822005483,-35.25852072891423],[149.26226116014536,-35.25739479915968],[149.2612915303058,-35.25692020890731],[149.26000625044168,-35.257348048781026],[149.25732919004668,-35.25720287912188],[149.25537897990418,-35.2563449890825],[149.25534145996969,-35.255378929124845],[149.2539001301643,-35.25363987877584],[149.25301153016,-35.252230648867794],[149.2506531902311,-35.252240139209874],[149.2499921703192,-35.25073350909996],[149.24965148963756,-35.249354258893625],[149.2503245496693,-35.247986828781656],[149.24942946023535,-35.247183258745736],[149.24723334975852,-35.24652736927553],[149.24580308989243,-35.24737888897354],[149.24426650992083,-35.246411039206194],[149.24273641039574,-35.24612073895335],[149.2418670298469,-35.24635964885728],[149.24060814967237,-35.24581098888047],[149.23794345997712,-35.24357155934891],[149.2372985603329,-35.243294969149304],[149.23489046002553,-35.24341912891916],[149.23437359995376,-35.24279154908766],[149.2345502096369,-35.240469599047465],[149.2361848002976,-35.23974098947716],[149.23704376038913,-35.23890981877132],[149.23848379033225,-35.238348169466775],[149.23842559028162,-35.23790993902587],[149.24124220036282,-35.23675519886455],[149.24151809993603,-35.235031869246576],[149.24276473966654,-35.23363616911497],[149.24297024994897,-35.23286733893661],[149.24293892030514,-35.232135629164674],[149.24274068008827,-35.231666739179374],[149.2429346101884,-35.231330039014786],[149.24480845005704,-35.23137131946463],[149.2459532396989,-35.230715219194664],[149.24631729005262,-35.229868699170886],[149.2467939199727,-35.229150229281295],[149.2461250802262,-35.22797921933903],[149.2460096503055,-35.227264618960916],[149.24553156960624,-35.2267227092948],[149.24326103011492,-35.225466129158896],[149.24128775033762,-35.22534448901245],[149.2407284295973,-35.22504624892769],[149.2398998496304,-35.22313856899644],[149.23869732975675,-35.222227539141166],[149.2371052895962,-35.222363408940176],[149.23651008026198,-35.22156129932484],[149.23439223011442,-35.221003219042736],[149.2317147699691,-35.22200219904845],[149.22877545002007,-35.22168730939396],[149.22703734020104,-35.21984389883387],[149.22579961984303,-35.21931258893321],[149.22427786027697,-35.21936652903424],[149.2235099803721,-35.21913549929305],[149.2199887398669,-35.22070643880883],[149.2160037000788,-35.21974919889662],[149.2137844498986,-35.21960614887679],[149.21305019034165,-35.22028483944387],[149.21194979993263,-35.222121999296526],[149.21083971041358,-35.225129019470664],[149.20976246958946,-35.22649091898238],[149.2049859700186,-35.229100308784304],[149.20427820986413,-35.22668985945293],[149.20327925991202,-35.22614967922482],[149.20245588029226,-35.22462573909828],[149.2050275000325,-35.21986306909782],[149.20561228980776,-35.217445479042574],[149.20609882994205,-35.216268359218255],[149.20755519035873,-35.216046928991815],[149.20870268033642,-35.21305883886387],[149.20851754025128,-35.211511678834455],[149.2071928701603,-35.21185162894404],[149.20589475965895,-35.211567099357254],[149.20422529011077,-35.20895240874415],[149.20067180008687,-35.206356299456544],[149.2007015199497,-35.20541122894561],[149.20071586963806,-35.20495492914861],[149.19851756996692,-35.202902098854025],[149.1977686301415,-35.202536219075185],[149.19633512017072,-35.20236400938776],[149.19238956044103,-35.20253503875358],[149.1895419503977,-35.203323668850736],[149.19022085037707,-35.20073994943244],[149.19018989982226,-35.20012668896558],[149.1914963799271,-35.198504069290586],[149.1913290103149,-35.19708103879232],[149.19028665017498,-35.194352558800894],[149.1906949802857,-35.1940453287595],[149.19220281955808,-35.193636799075456],[149.1963882698928,-35.1909417893803],[149.19637522006667,-35.1884468088328],[149.19685510997292,-35.18745582877758],[149.1968409201847,-35.18604865906337],[149.1970352302722,-35.18536830939953],[149.19545850009902,-35.18454851909148],[149.1942976899023,-35.18286747935133],[149.1929227096638,-35.18139701885059],[149.19296375009594,-35.18093557893852],[149.19226545998117,-35.17990087903538],[149.19141508958035,-35.179255249373355],[149.1884447202619,-35.1782496293605],[149.18587937974553,-35.17790044928621],[149.18433004998508,-35.176952308918075],[149.1836408499227,-35.1756688991454],[149.1849804904379,-35.173434578937304],[149.18497612013405,-35.17295387944853],[149.18754570968179,-35.16998534881165],[149.18863529964605,-35.167025809148065],[149.18907261030614,-35.16552373921664],[149.18560632962837,-35.161122028955496],[149.18373647019482,-35.16098705916792],[149.1830024199452,-35.160015508917844],[149.17939505975036,-35.158831699068934],[149.17741126968423,-35.15929032895311],[149.17653871987906,-35.15824680921096],[149.1740776396312,-35.15834878928493],[149.17318697978988,-35.15958293883819],[149.17283886015943,-35.15859121912096],[149.1717823003498,-35.15840486887047],[149.17118869989827,-35.15880045880009],[149.17065979970673,-35.159676099080684],[149.16946363002387,-35.16021590920943],[149.16757802042846,-35.15975199894254],[149.1676260497534,-35.1582403388744],[149.1668470603834,-35.15755637880234],[149.16531105982517,-35.15674999881375],[149.1646840195872,-35.155279198874545],[149.16412840978737,-35.15465043896111],[149.1626363404398,-35.154249779390504],[149.16242960036365,-35.15376382887168],[149.1632540903011,-35.15283282892634],[149.16345239968828,-35.151502349054056],[149.16495324018626,-35.15070752883447],[149.1652153299586,-35.15014058914193],[149.16438895984732,-35.149632019128184],[149.1647285598556,-35.14859409886669],[149.1638789799723,-35.147448539401246],[149.16317809013316,-35.146765688835664],[149.16345428974364,-35.14565992917713],[149.16390216998138,-35.14523553909398],[149.1643857097426,-35.14401004905459],[149.16482939035637,-35.14364803900467],[149.16427821014923,-35.14190508893724],[149.1634802798014,-35.141884428916754],[149.16197257976793,-35.14156542945389],[149.16090578994385,-35.1419889593845],[149.15917001035464,-35.141599929065784],[149.158224040343,-35.14208550927622],[149.15765076966466,-35.14292487939699],[149.1574558002137,-35.143909899162004],[149.156072320116,-35.14443163879099],[149.15489526029413,-35.144361609167],[149.15400198006722,-35.143729689278935],[149.15265911010857,-35.14374668924427],[149.15223857009653,-35.144382508758575],[149.15079729957992,-35.14443349942034],[149.15020041039614,-35.145092598796424],[149.14895773043943,-35.14503313918441],[149.1484727704417,-35.14475630878589],[149.14778496995453,-35.14486298927109],[149.14672616974656,-35.144552739008276],[149.14650467035037,-35.14382560905608],[149.14724679016612,-35.1428792890807],[149.14929273017515,-35.14182460922096],[149.14977159959525,-35.13937883897705],[149.14961203005473,-35.13840591923728],[149.14829886019598,-35.13712963897158],[149.14756888021296,-35.137200908980645],[149.14589994965388,-35.135986039025795],[149.1460233197835,-35.13515666926113],[149.14487529979985,-35.13442907923628],[149.14356441974675,-35.13536182878454],[149.14146132981764,-35.135272609220046],[149.1407162796974,-35.13581144917699],[149.14016838013765,-35.13494038895674],[149.1388246998986,-35.13478973887217],[149.13883945023557,-35.132487268752435],[149.1401328499715,-35.13039282887596],[149.13874490973842,-35.12890157914311],[149.1389864496503,-35.12798326893467],[149.13708317019325,-35.127256248865926],[149.13205373019122,-35.12852383885676],[149.12983226027396,-35.12710725897312],[149.12893269992486,-35.12748755894214],[149.1282422601874,-35.12635843933081],[149.12705451041367,-35.1261816092487],[149.12718626990969,-35.125622069337844],[149.1264487198237,-35.12532263882525],[149.12280485029908,-35.12485896901135],[149.12094785024877,-35.12441579937449],[149.11807630998462,-35.126527428862516],[149.11690916037696,-35.12611095925012],[149.11624170044283,-35.12647859881033],[149.1155033697209,-35.12624694936689],[149.1133870503026,-35.1275385690029],[149.11265212958557,-35.12771158888986],[149.11131880961665,-35.12970597885003],[149.11111529988224,-35.13018994904664],[149.10985388017042,-35.13067992898584],[149.1096786700625,-35.13110898888359],[149.106718469673,-35.1310169089708],[149.10414464995858,-35.132130879085445],[149.1031277498705,-35.133183268982634],[149.10257367978303,-35.135223519207095],[149.09785526977,-35.136741979013244],[149.09631922968592,-35.138023218854904],[149.09315249044298,-35.1387371387819],[149.0922175499464,-35.140661289059565],[149.0919176402023,-35.14144307893987],[149.0913383795576,-35.14208434937947],[148.81013431028882,-35.30744857918054],[148.80967097004506,-35.308108988974766],[148.80796026962196,-35.30978643942285],[148.80779866988883,-35.31040263941256],[148.80733633036832,-35.310938068792254],[148.80531755002357,-35.31469597941142],[148.80372895041052,-35.31676799913971]]]},"properties":{"lga_name_2024":"Unincorporated ACT","lga_code_2024":"89399","state_name_2021":"Australian Capital Territory"}},{"type":"Feature","geometry":null,"properties":{"lga_name_2024":"No usual address (ACT)","lga_code_2024":"89499","state_name_2021":"Australian Capital Territory","shape":null}},{"type":"Feature","geometry":null,"properties":{"lga_name_2024":"Migratory - Offshore - Shipping (ACT)","lga_code_2024":"89799","state_name_2021":"Australian Capital Territory","shape":null}}],"metadata":{"title":"Australian Capital Territory Local Government Area Boundaries","source":"ABS Australian Statistical Geography Standard (ASGS) 2024 \u2014 Local Government Areas (generalised)","source_url":"https://geo.abs.gov.au/arcgis/rest/services/ASGS2024/LGA/MapServer","layer":"1 (LGA_GEN \u2014 generalised boundaries)","licence":"CC BY 4.0","attribution":"Australian Bureau of Statistics","notes":"Field lga_name_2024 contains the LGA name."}}