{"type":"FeatureCollection","crs":{"type":"name","properties":{"name":"EPSG:4326"}},"metadata":{"source":"CFA (Country Fire Authority) brigade buildings \u00e2\u20ac\u201d Vicmap Features of Interest (VMFEAT.GEOMARK_POINT)","source_url":"https://discover.data.vic.gov.au/dataset/cfa-fire-station-vmfeat-geomark_point","licence":"Creative Commons Attribution 4.0 International (CC BY 4.0)","licence_url":"https://creativecommons.org/licenses/by/4.0/","description":"CFA district headquarters buildings, Victoria."},"features":[{"type":"Feature","id":69,"geometry":{"type":"Point","coordinates":[144.239872001789,-36.7964259971346]},"properties":{"distrct_no":"02","distrct_label":"District 2","distrct_phone_no":"03 5430 2200","brig_name":"District 2 Headquarters","fs_name":"District 2 Headquarters RFB","fs_type":"main","street":"29 Lockwood Road","suburb":"Kangaroo Flat","pcode":"3555","grp_name":"Fortuna","label":"District 2 Headquarters RFB","site_oc_id":20318,"ESRI_OID":69}},{"type":"Feature","id":118,"geometry":{"type":"Point","coordinates":[141.395009003173,-37.5985669958276]},"properties":{"distrct_no":"04","distrct_label":"District 4","distrct_phone_no":"03 5554 3400","brig_name":"District 4 Headquarters","fs_name":"District 4 Headquarters RFB","fs_type":"main","street":"147 Bahgallah Road","suburb":"Casterton","pcode":"3311","grp_name":null,"label":"District 4 Headquarters RFB","site_oc_id":19782,"ESRI_OID":118}},{"type":"Feature","id":204,"geometry":{"type":"Point","coordinates":[142.013434673036,-37.7355115559408]},"properties":{"distrct_no":"05","distrct_label":"District 5","distrct_phone_no":"03 5551 1500","brig_name":"District 5 Headquarters","fs_name":"District 5 Headquarters RFB","fs_type":"main","street":"92-94 Coleraine Road","suburb":"Hamilton","pcode":"3300","grp_name":null,"label":"District 5 Headquarters RFB","site_oc_id":19566,"ESRI_OID":204}},{"type":"Feature","id":276,"geometry":{"type":"Point","coordinates":[143.59053411284,-38.3405891060877]},"properties":{"distrct_no":"06","distrct_label":"District 6","distrct_phone_no":"03 5232 5600","brig_name":"District 6 Headquarters","fs_name":"District 6 Headquarters RFB","fs_type":"main","street":"115 Bromfield Street","suburb":"Colac","pcode":"3250","grp_name":"Beeac","label":"District 6 Headquarters RFB","site_oc_id":19519,"ESRI_OID":276}},{"type":"Feature","id":345,"geometry":{"type":"Point","coordinates":[144.343167002458,-38.0977469964447]},"properties":{"distrct_no":"07","distrct_label":"District 7","distrct_phone_no":"03 5240 2700","brig_name":"District 7 Headquarters","fs_name":"District 7 Headquarters RFB","fs_type":"main","street":"18b Tarkin Court","suburb":"Bell Park","pcode":"3215","grp_name":"Geelong","label":"District 7 Headquarters RFB","site_oc_id":20494,"ESRI_OID":345}},{"type":"Feature","id":407,"geometry":{"type":"Point","coordinates":[145.247053002118,-38.0057509967687]},"properties":{"distrct_no":"08","distrct_label":"District 8","distrct_phone_no":"03 9767 1800","brig_name":"District 8 Headquarters","fs_name":"District 8 Headquarters RFB","fs_type":"main","street":"45 Assembly Drive","suburb":"Dandenong South","pcode":"3175","grp_name":null,"label":"District 8 Headquarters RFB","site_oc_id":20015,"ESRI_OID":407}},{"type":"Feature","id":478,"geometry":{"type":"Point","coordinates":[145.940781001987,-38.1661119968887]},"properties":{"distrct_no":"09","distrct_label":"District 9","distrct_phone_no":"03 5624 1900","brig_name":"District 9 Headquarters","fs_name":"District 9 Headquarters RFB","fs_type":"main","street":"157 Queen Street","suburb":"Warragul","pcode":"3820","grp_name":"Baw Baw","label":"District 9 Headquarters RFB","site_oc_id":20443,"ESRI_OID":478}},{"type":"Feature","id":548,"geometry":{"type":"Point","coordinates":[147.625689441297,-37.8283781875984]},"properties":{"distrct_no":"11","distrct_label":"District 11","distrct_phone_no":"03 5153 7400","brig_name":"District 11 Headquarters","fs_name":"District 11 Headquarters RFB","fs_type":"main","street":"130 Macleod Street","suburb":"Bairnsdale","pcode":"3875","grp_name":null,"label":"District 11 Headquarters RFB","site_oc_id":19541,"ESRI_OID":548}},{"type":"Feature","id":603,"geometry":{"type":"Point","coordinates":[145.140582001625,-37.0231669972894]},"properties":{"distrct_no":"12","distrct_label":"District 12","distrct_phone_no":"03 5735 3100","brig_name":"District 12 Headquarters","fs_name":"District 12 Headquarters RFB","fs_type":"main","street":"39 Mcintyre Street","suburb":"Seymour","pcode":"3660","grp_name":"Mitchell Shire","label":"District 12 Headquarters RFB","site_oc_id":19952,"ESRI_OID":603}},{"type":"Feature","id":658,"geometry":{"type":"Point","coordinates":[145.306942001969,-37.765091996922]},"properties":{"distrct_no":"13","distrct_label":"District 13","distrct_phone_no":"03 8739 1300","brig_name":"District 13 Headquarters","fs_name":"District 13 Headquarters RFB","fs_type":"main","street":"272 Maroondah Highway","suburb":"Chirnside Park","pcode":"3116","grp_name":null,"label":"District 13 Headquarters RFB","site_oc_id":20283,"ESRI_OID":658}},{"type":"Feature","id":684,"geometry":{"type":"Point","coordinates":[144.587236002154,-37.6837369967475]},"properties":{"distrct_no":"14","distrct_label":"District 14","distrct_phone_no":"03 8746 1400","brig_name":"District 14 Headquarters","fs_name":"District 14 Headquarters RFB","fs_type":"main","street":"239 High Street","suburb":"Melton","pcode":"3337","grp_name":null,"label":"District 14 Headquarters RFB","site_oc_id":19557,"ESRI_OID":684}},{"type":"Feature","id":761,"geometry":{"type":"Point","coordinates":[143.819148002322,-37.5365209965941]},"properties":{"distrct_no":"15","distrct_label":"District 15","distrct_phone_no":"03 5329 5500","brig_name":"District 15 Headquarters","fs_name":"District 15 Headquarters RFB","fs_type":"main","street":"19 Learmonth Road","suburb":"Wendouree","pcode":"3355","grp_name":null,"label":"District 15 Headquarters RFB","site_oc_id":19755,"ESRI_OID":761}},{"type":"Feature","id":843,"geometry":{"type":"Point","coordinates":[142.939734002471,-37.278175996466]},"properties":{"distrct_no":"16","distrct_label":"District 16","distrct_phone_no":"03 5352 9600","brig_name":"District 16 Headquarters","fs_name":"District 16 Headquarters RFB","fs_type":"main","street":"31-33 Baird Street","suburb":"Ararat","pcode":"3377","grp_name":null,"label":"District 16 Headquarters RFB","site_oc_id":20187,"ESRI_OID":843}},{"type":"Feature","id":911,"geometry":{"type":"Point","coordinates":[142.200877162411,-36.7133525065433]},"properties":{"distrct_no":"17","distrct_label":"District 17","distrct_phone_no":"03 5362 1700","brig_name":"District 17 Headquarters","fs_name":"District 17 Headquarters RFB","fs_type":"main","street":"19 Mclachlan Street","suburb":"Horsham","pcode":"3400","grp_name":null,"label":"District 17 Headquarters RFB","site_oc_id":19630,"ESRI_OID":911}},{"type":"Feature","id":986,"geometry":{"type":"Point","coordinates":[143.560479581239,-35.3380312477358]},"properties":{"distrct_no":"18","distrct_label":"District 18","distrct_phone_no":"03 5036 2800","brig_name":"District 18 Headquarters","fs_name":"District 18 Headquarters RFB","fs_type":"main","street":"120 Curlewis Street","suburb":"Swan Hill","pcode":"3585","grp_name":null,"label":"District 18 Headquarters RFB","site_oc_id":19572,"ESRI_OID":986}},{"type":"Feature","id":1124,"geometry":{"type":"Point","coordinates":[145.402701001191,-36.3510319977561]},"properties":{"distrct_no":"22","distrct_label":"District 22","distrct_phone_no":"03 5833 2400","brig_name":"District 22 Headquarters","fs_name":"District 22 Headquarters RFB","fs_type":"main","street":"205 Numurkah Road","suburb":"Shepparton","pcode":"3630","grp_name":null,"label":"District 22 Headquarters RFB","site_oc_id":19651,"ESRI_OID":1124}},{"type":"Feature","id":1191,"geometry":{"type":"Point","coordinates":[146.326756000916,-36.3576059980489]},"properties":{"distrct_no":"23","distrct_label":"District 23","distrct_phone_no":"03 5720 2300","brig_name":"District 23 Headquarters","fs_name":"District 23 Headquarters RFB","fs_type":"main","street":"1 Ely Street","suburb":"Wangaratta","pcode":"3677","grp_name":null,"label":"District 23 Headquarters RFB","site_oc_id":19532,"ESRI_OID":1191}},{"type":"Feature","id":1258,"geometry":{"type":"Point","coordinates":[146.851311000637,-36.1141119983613]},"properties":{"distrct_no":"24","distrct_label":"District 24","distrct_phone_no":"02 6043 4400","brig_name":"District 24 Headquarters","fs_name":"District 24 Headquarters RFB","fs_type":"main","street":"55 Moorefield Park Drive","suburb":"West Wodonga","pcode":"3690","grp_name":"Wodonga","label":"District 24 Headquarters RFB","site_oc_id":20105,"ESRI_OID":1258}}]}