{"type":"FeatureCollection","crs":{"type":"name","properties":{"name":"EPSG:4326"}},"metadata":{"source":"CFA (Country Fire Authority) brigade buildings \u00e2\u20ac\u201d Vicmap Features of Interest (VMFEAT.GEOMARK_POINT)","source_url":"https://discover.data.vic.gov.au/dataset/cfa-fire-station-vmfeat-geomark_point","licence":"Creative Commons Attribution 4.0 International (CC BY 4.0)","licence_url":"https://creativecommons.org/licenses/by/4.0/","description":"CFA-affiliated coast guard station buildings, Victoria."},"features":[{"type":"Feature","id":37,"geometry":{"type":"Point","coordinates":[144.502395821701,-36.7883007472217]},"properties":{"distrct_no":"02","distrct_label":"District 2","distrct_phone_no":"03 5430 2200","brig_name":"Lake Eppalock Coast Guard","fs_name":"Lake Eppalock Coast Guard","fs_type":"main","street":"34 Raglan Place East","suburb":"Axedale","pcode":"3551","grp_name":"Eppalock","label":"Lake Eppalock Coast Guard","site_oc_id":19358,"ESRI_OID":37}},{"type":"Feature","id":122,"geometry":{"type":"Point","coordinates":[141.623818003523,-38.3627779954978]},"properties":{"distrct_no":"04","distrct_label":"District 4","distrct_phone_no":"03 5554 3400","brig_name":"Portland Coast Guard","fs_name":"Portland Coast Guard","fs_type":"main","street":"2 George Street","suburb":"Portland","pcode":"3305","grp_name":"Heywood","label":"Portland Coast Guard","site_oc_id":19907,"ESRI_OID":122}},{"type":"Feature","id":211,"geometry":{"type":"Point","coordinates":[142.47531300325,-38.4014749957264]},"properties":{"distrct_no":"05","distrct_label":"District 5","distrct_phone_no":"03 5551 1500","brig_name":"Warrnambool Coast Guard","fs_name":"Warrnambool Coast Guard","fs_type":"main","street":"50 Viaduct Road","suburb":"Warrnambool","pcode":"3280","grp_name":"Merri","label":"Warrnambool Coast Guard","site_oc_id":19878,"ESRI_OID":211}},{"type":"Feature","id":332,"geometry":{"type":"Point","coordinates":[144.664122002445,-38.2639009964495]},"properties":{"distrct_no":"07","distrct_label":"District 7","distrct_phone_no":"03 5240 2700","brig_name":"Queenscliff Coast Guard","fs_name":"Queenscliff Coast Guard","fs_type":"main","street":"Hesse Street","suburb":"Queenscliff","pcode":"3225","grp_name":"Bellarine","label":"Queenscliff Coast Guard","site_oc_id":19693,"ESRI_OID":332}},{"type":"Feature","id":333,"geometry":{"type":"Point","coordinates":[144.359508002465,-38.1202809964372]},"properties":{"distrct_no":"07","distrct_label":"District 7","distrct_phone_no":"03 5240 2700","brig_name":"Geelong Coast Guard","fs_name":"Geelong Coast Guard","fs_type":"main","street":"91 Swinburne Street","suburb":"North Geelong","pcode":"3215","grp_name":"Geelong","label":"Geelong Coast Guard","site_oc_id":19694,"ESRI_OID":333}},{"type":"Feature","id":399,"geometry":{"type":"Point","coordinates":[144.999820442164,-37.9460226867271]},"properties":{"distrct_no":"08","distrct_label":"District 8","distrct_phone_no":"03 9767 1800","brig_name":"Sandringham Coast Guard","fs_name":"Sandringham Coast Guard","fs_type":"main","street":"Jetty Road","suburb":"Sandringham","pcode":"3191","grp_name":null,"label":"Sandringham Coast Guard","site_oc_id":19687,"ESRI_OID":399}},{"type":"Feature","id":400,"geometry":{"type":"Point","coordinates":[145.126745502192,-38.0722115266951]},"properties":{"distrct_no":"08","distrct_label":"District 8","distrct_phone_no":"03 9767 1800","brig_name":"Carrum Coast Guard","fs_name":"Carrum Coast Guard","fs_type":"main","street":"Launching Way","suburb":"Carrum","pcode":"3197","grp_name":null,"label":"Carrum Coast Guard","site_oc_id":19690,"ESRI_OID":400}},{"type":"Feature","id":401,"geometry":{"type":"Point","coordinates":[144.994283002363,-38.3072309965244]},"properties":{"distrct_no":"08","distrct_label":"District 8","distrct_phone_no":"03 9767 1800","brig_name":"Safety Beach Coast Guard","fs_name":"Safety Beach Coast Guard","fs_type":"main","street":"185 Marine Drive","suburb":"Safety Beach","pcode":"3936","grp_name":null,"label":"Safety Beach Coast Guard","site_oc_id":19691,"ESRI_OID":401}},{"type":"Feature","id":402,"geometry":{"type":"Point","coordinates":[145.196582492301,-38.3132961865817]},"properties":{"distrct_no":"08","distrct_label":"District 8","distrct_phone_no":"03 9767 1800","brig_name":"Hastings Coast Guard","fs_name":"Hastings Coast Guard","fs_type":"main","street":"21 Skinner Street","suburb":"Hastings","pcode":"3915","grp_name":"Westernport","label":"Hastings Coast Guard","site_oc_id":19692,"ESRI_OID":402}},{"type":"Feature","id":417,"geometry":{"type":"Point","coordinates":[144.973921002132,-37.8723789967603]},"properties":{"distrct_no":"08","distrct_label":"District 8","distrct_phone_no":"03 9767 1800","brig_name":"St Kilda Coast Guard","fs_name":"St Kilda Coast Guard","fs_type":"main","street":"42e Marine Parade","suburb":"St Kilda","pcode":"3182","grp_name":null,"label":"St Kilda Coast Guard","site_oc_id":20169,"ESRI_OID":417}},{"type":"Feature","id":418,"geometry":{"type":"Point","coordinates":[145.119891002235,-38.1461869966517]},"properties":{"distrct_no":"08","distrct_label":"District 8","distrct_phone_no":"03 9767 1800","brig_name":"Frankston Coast Guard","fs_name":"Frankston Coast Guard","fs_type":"main","street":"1n Plowman Place","suburb":"Frankston","pcode":"3199","grp_name":null,"label":"Frankston Coast Guard","site_oc_id":20191,"ESRI_OID":418}},{"type":"Feature","id":463,"geometry":{"type":"Point","coordinates":[146.464166002115,-38.7017319967426]},"properties":{"distrct_no":"09","distrct_label":"District 9","distrct_phone_no":"03 5624 1900","brig_name":"Port Welshpool Coast Guard","fs_name":"Port Welshpool Coast Guard","fs_type":"main","street":"Lewis Street","suburb":"Port Welshpool","pcode":"3965","grp_name":"South Gippsland","label":"Port Welshpool Coast Guard","site_oc_id":19689,"ESRI_OID":463}},{"type":"Feature","id":510,"geometry":{"type":"Point","coordinates":[146.695783002026,-38.6696679968299]},"properties":{"distrct_no":"10","distrct_label":"District 10","distrct_phone_no":"03 5149 1000","brig_name":"Port Albert Coast Guard","fs_name":"Port Albert Coast Guard","fs_type":"main","street":"31-37 Bay Street","suburb":"Port Albert","pcode":"3971","grp_name":null,"label":"Port Albert Coast Guard","site_oc_id":19688,"ESRI_OID":510}},{"type":"Feature","id":537,"geometry":{"type":"Point","coordinates":[148.533327881017,-37.7964306678979]},"properties":{"distrct_no":"11","distrct_label":"District 11","distrct_phone_no":"03 5153 7400","brig_name":"Marlo Coast Guard","fs_name":"Marlo / Marlo Coast Guard","fs_type":"main","street":"2 Jorgensen Street","suburb":"Marlo","pcode":"3888","grp_name":"Orbost","label":"Marlo / Marlo Coast Guard","site_oc_id":18552,"ESRI_OID":537}},{"type":"Feature","id":550,"geometry":{"type":"Point","coordinates":[147.988428841218,-37.8805813076797]},"properties":{"distrct_no":"11","distrct_label":"District 11","distrct_phone_no":"03 5153 7400","brig_name":"Lakes Entrance Coast Guard","fs_name":"Lakes Entrance Coast Guard","fs_type":"main","street":"420 Esplanade","suburb":"Lakes Entrance","pcode":"3909","grp_name":null,"label":"Lakes Entrance Coast Guard","site_oc_id":19684,"ESRI_OID":550}},{"type":"Feature","id":552,"geometry":{"type":"Point","coordinates":[147.723254001316,-37.919613997575]},"properties":{"distrct_no":"11","distrct_label":"District 11","distrct_phone_no":"03 5153 7400","brig_name":"Paynesville Coast Guard","fs_name":"Paynesville Coast Guard","fs_type":"main","street":"55 Esplanade","suburb":"Paynesville","pcode":"3880","grp_name":null,"label":"Paynesville Coast Guard","site_oc_id":19850,"ESRI_OID":552}},{"type":"Feature","id":694,"geometry":{"type":"Point","coordinates":[144.692481002278,-37.9739729966183]},"properties":{"distrct_no":"14","distrct_label":"District 14","distrct_phone_no":"03 8746 1400","brig_name":"Werribee Coast Guard","fs_name":"Werribee Coast Guard","fs_type":"main","street":"39a Beach Road","suburb":"Werribee South","pcode":"3030","grp_name":"Mount Cottrell","label":"Werribee Coast Guard","site_oc_id":19686,"ESRI_OID":694}},{"type":"Feature","id":1206,"geometry":{"type":"Point","coordinates":[147.006595070606,-36.1419731783952]},"properties":{"distrct_no":"24","distrct_label":"District 24","distrct_phone_no":"02 6043 4400","brig_name":"Lake Hume Coast Guard","fs_name":"Bonegilla / Lake Hume Coast Guard","fs_type":"main","street":"1405 Mahers Road","suburb":"Bonegilla","pcode":"3691","grp_name":"Wodonga","label":"Bonegilla / Lake Hume Coast Guard","site_oc_id":18165,"ESRI_OID":1206}}]}