{"type":"FeatureCollection","metadata":{"title":"LGA Municipal Offices — Victoria and border-region NSW","description":"Municipal office locations from Vicmap Features of Interest (feature_subtype = 'municipal office'). Enriched with weewoo_role: 'COUNCIL HQ' marks the identified primary headquarters building for the respective LGA. See geojson/LAYERS.md for field documentation.","source":"Vicmap Features of Interest — FeatureServer Layer 1","source_url":"https://services-ap1.arcgis.com/P744lA0wf4LlBZ84/arcgis/rest/services/Vicmap_Features_of_Interest/FeatureServer/1","licence":"CC BY 4.0","attribution":"Land Use Victoria (Department of Transport and Planning, Victoria)"},"crs":{"type":"name","properties":{"name":"EPSG:4326"}},"features":[{"type":"Feature","geometry":{"type":"Point","coordinates":[144.355872578884,-38.0753072058651]},"properties":{"name":"CORIO CUSTOMER SERVICE","feature_type":"admin facility","feature_subtype":"municipal office","feature_status":null,"weewoo_role":null}},{"type":"Feature","geometry":{"type":"Point","coordinates":[146.674343827367,-38.5644772372395]},"properties":{"name":"WELLINGTON SHIRE COUNCIL-YARRAM","feature_type":"admin facility","feature_subtype":"municipal office","feature_status":null,"weewoo_role":null}},{"type":"Feature","geometry":{"type":"Point","coordinates":[144.966495939767,-37.8146038411536]},"properties":{"name":"MELBOURNE CITY COUNCIL","feature_type":"admin facility","feature_subtype":"municipal office","feature_status":null,"weewoo_role":"COUNCIL HQ"}},{"type":"Feature","geometry":{"type":"Point","coordinates":[142.024356457578,-37.7419736521034]},"properties":{"name":"SOUTHERN GRAMPIANS SHIRE COUNCIL","feature_type":"admin facility","feature_subtype":"municipal office","feature_status":null,"weewoo_role":"COUNCIL HQ"}},{"type":"Feature","geometry":{"type":"Point","coordinates":[142.93135134572,-37.2827227039356]},"properties":{"name":"ARARAT RURAL CITY COUNCIL","feature_type":"admin facility","feature_subtype":"municipal office","feature_status":null,"weewoo_role":"COUNCIL HQ"}},{"type":"Feature","geometry":{"type":"Point","coordinates":[142.2382793603,-38.3854116690887]},"properties":{"name":"MOYNE SHIRE COUNCIL","feature_type":"admin facility","feature_subtype":"municipal office","feature_status":null,"weewoo_role":"COUNCIL HQ"}},{"type":"Feature","geometry":{"type":"Point","coordinates":[143.856303152149,-37.5631497643153]},"properties":{"name":"BALLARAT CITY COUNCIL","feature_type":"admin facility","feature_subtype":"municipal office","feature_status":null,"weewoo_role":"COUNCIL HQ"}},{"type":"Feature","geometry":{"type":"Point","coordinates":[147.62506647931,-37.8276740383234]},"properties":{"name":"EAST GIPPSLAND SHIRE COUNCIL","feature_type":"admin facility","feature_subtype":"municipal office","feature_status":null,"weewoo_role":"COUNCIL HQ"}},{"type":"Feature","geometry":{"type":"Point","coordinates":[145.398069022411,-36.3776938603092]},"properties":{"name":"GREATER SHEPPARTON CITY COUNCIL","feature_type":"admin facility","feature_subtype":"municipal office","feature_status":null,"weewoo_role":"COUNCIL HQ"}},{"type":"Feature","geometry":{"type":"Point","coordinates":[141.649278641443,-36.332444628044]},"properties":{"name":"HINDMARSH SHIRE COUNCIL","feature_type":"admin facility","feature_subtype":"municipal office","feature_status":null,"weewoo_role":"COUNCIL HQ"}},{"type":"Feature","geometry":{"type":"Point","coordinates":[145.163991895267,-37.8828518519684]},"properties":{"name":"MONASH CITY COUNCIL","feature_type":"admin facility","feature_subtype":"municipal office","feature_status":null,"weewoo_role":"COUNCIL HQ"}},{"type":"Feature","geometry":{"type":"Point","coordinates":[146.394513644188,-38.2364139428955]},"properties":{"name":"LATROBE CITY COUNCIL","feature_type":"admin facility","feature_subtype":"municipal office","feature_status":null,"weewoo_role":"COUNCIL HQ"}},{"type":"Feature","geometry":{"type":"Point","coordinates":[144.142209456366,-37.3430064270309]},"properties":{"name":"HEPBURN SHIRE COUNCIL","feature_type":"admin facility","feature_subtype":"municipal office","feature_status":null,"weewoo_role":"COUNCIL HQ"}},{"type":"Feature","geometry":{"type":"Point","coordinates":[143.585285123006,-38.3430867543283]},"properties":{"name":"COLAC OTWAY SHIRE COUNCIL","feature_type":"admin facility","feature_subtype":"municipal office","feature_status":null,"weewoo_role":"COUNCIL HQ"}},{"type":"Feature","geometry":{"type":"Point","coordinates":[142.201836513939,-36.713937655332]},"properties":{"name":"HORSHAM RURAL CITY COUNCIL","feature_type":"admin facility","feature_subtype":"municipal office","feature_status":null,"weewoo_role":"COUNCIL HQ"}},{"type":"Feature","geometry":{"type":"Point","coordinates":[142.392372531027,-36.2528166662411]},"properties":{"name":"YARRIAMBIACK SHIRE COUNCIL","feature_type":"admin facility","feature_subtype":"municipal office","feature_status":null,"weewoo_role":"COUNCIL HQ"}},{"type":"Feature","geometry":{"type":"Point","coordinates":[143.614511311311,-36.420293736873]},"properties":{"name":"LODDON SHIRE COUNCIL","feature_type":"admin facility","feature_subtype":"municipal office","feature_status":null,"weewoo_role":"COUNCIL HQ"}},{"type":"Feature","geometry":{"type":"Point","coordinates":[145.023269112685,-37.6467318419069]},"properties":{"name":"WORKS DEPOT","feature_type":"admin facility","feature_subtype":"municipal office","feature_status":null,"weewoo_role":null}},{"type":"Feature","geometry":{"type":"Point","coordinates":[145.079915925881,-37.6499028249798]},"properties":{"name":"DANAHER DRIVE OFFICE 495","feature_type":"admin facility","feature_subtype":"municipal office","feature_status":null,"weewoo_role":null}},{"type":"Feature","geometry":{"type":"Point","coordinates":[143.973916991439,-36.4097355341846]},"properties":{"name":null,"feature_type":"admin facility","feature_subtype":"municipal office","feature_status":null,"weewoo_role":null}},{"type":"Feature","geometry":{"type":"Point","coordinates":[142.808604715254,-38.0815701166608]},"properties":{"name":"MOYNE SHIRE OFFICE - MORTLAKE","feature_type":"admin facility","feature_subtype":"municipal office","feature_status":null,"weewoo_role":null}},{"type":"Feature","geometry":{"type":"Point","coordinates":[147.903092628904,-36.1961260449068]},"properties":{"name":"TOWONG SHIRE COUNCIL-CORRYONG OFFICE","feature_type":"admin facility","feature_subtype":"municipal office","feature_status":null,"weewoo_role":null}},{"type":"Feature","geometry":{"type":"Point","coordinates":[147.176960750974,-36.2156359891013]},"properties":{"name":"TOWONG SHIRE COUNCIL-TALLANGATTA OFFICE","feature_type":"admin facility","feature_subtype":"municipal office","feature_status":null,"weewoo_role":"COUNCIL HQ"}},{"type":"Feature","geometry":{"type":"Point","coordinates":[144.357211444153,-38.1470905369494]},"properties":{"name":"GREATER GEELONG CITY COUNCIL","feature_type":"admin facility","feature_subtype":"municipal office","feature_status":null,"weewoo_role":"COUNCIL HQ"}},{"type":"Feature","geometry":{"type":"Point","coordinates":[143.557296418801,-35.3400257303185]},"properties":{"name":"SWAN HILL RURAL CITY COUNCIL","feature_type":"admin facility","feature_subtype":"municipal office","feature_status":null,"weewoo_role":"COUNCIL HQ"}},{"type":"Feature","geometry":{"type":"Point","coordinates":[143.146198207932,-38.2324467252431]},"properties":{"name":"CORANGAMITE SHIRE COUNCIL","feature_type":"admin facility","feature_subtype":"municipal office","feature_status":null,"weewoo_role":"COUNCIL HQ"}},{"type":"Feature","geometry":{"type":"Point","coordinates":[142.481723318828,-38.3859276850497]},"properties":{"name":"WARRNAMBOOL CITY COUNCIL","feature_type":"admin facility","feature_subtype":"municipal office","feature_status":null,"weewoo_role":"COUNCIL HQ"}},{"type":"Feature","geometry":{"type":"Point","coordinates":[143.379942752707,-38.3734402961144]},"properties":{"name":null,"feature_type":"admin facility","feature_subtype":"municipal office","feature_status":null,"weewoo_role":null}},{"type":"Feature","geometry":{"type":"Point","coordinates":[143.225128400097,-36.075341717703]},"properties":{"name":"BULOKE SHIRE COUNCIL","feature_type":"admin facility","feature_subtype":"municipal office","feature_status":null,"weewoo_role":"COUNCIL HQ"}},{"type":"Feature","geometry":{"type":"Point","coordinates":[142.779080385089,-37.0567066907745]},"properties":{"name":"NORTHERN GRAMPIANS SHIRE COUNCIL","feature_type":"admin facility","feature_subtype":"municipal office","feature_status":null,"weewoo_role":"COUNCIL HQ"}},{"type":"Feature","geometry":{"type":"Point","coordinates":[145.944798684632,-38.4756699109916]},"properties":{"name":"SOUTH GIPPSLAND SHIRE COUNCIL","feature_type":"admin facility","feature_subtype":"municipal office","feature_status":null,"weewoo_role":"COUNCIL HQ"}},{"type":"Feature","geometry":{"type":"Point","coordinates":[145.710366875664,-37.1907218901713]},"properties":{"name":"MURRINDINDI SHIRE COUNCIL","feature_type":"admin facility","feature_subtype":"municipal office","feature_status":null,"weewoo_role":"COUNCIL HQ"}},{"type":"Feature","geometry":{"type":"Point","coordinates":[145.116402242617,-38.0508235472113]},"properties":{"name":"CITY OF KINGSTON CUSTOMER SERVICE CENTRE","feature_type":"admin facility","feature_subtype":"municipal office","feature_status":null,"weewoo_role":"COUNCIL HQ"}},{"type":"Feature","geometry":{"type":"Point","coordinates":[144.218782417123,-37.0642990390059]},"properties":{"name":"MOUNT ALEXANDER SHIRE COUNCIL","feature_type":"admin facility","feature_subtype":"municipal office","feature_status":null,"weewoo_role":"COUNCIL HQ"}},{"type":"Feature","geometry":{"type":"Point","coordinates":[144.570165763572,-38.1719831950549]},"properties":{"name":"DRYSDALE CUSTOMER SERVICE","feature_type":"admin facility","feature_subtype":"municipal office","feature_status":null,"weewoo_role":null}},{"type":"Feature","geometry":{"type":"Point","coordinates":[144.522097744559,-38.2663016747538]},"properties":{"name":"OCEAN GROVE CUSTOMER SERVICE","feature_type":"admin facility","feature_subtype":"municipal office","feature_status":null,"weewoo_role":null}},{"type":"Feature","geometry":{"type":"Point","coordinates":[144.365317946379,-38.1466003298047]},"properties":{"name":"BROUGHAM STREET CUSTOMER SERVICE","feature_type":"admin facility","feature_subtype":"municipal office","feature_status":null,"weewoo_role":null}},{"type":"Feature","geometry":{"type":"Point","coordinates":[144.343742048189,-38.1748742118189]},"properties":{"name":"BELMONT CUSTOMER SERVICE","feature_type":"admin facility","feature_subtype":"municipal office","feature_status":null,"weewoo_role":null}},{"type":"Feature","geometry":{"type":"Point","coordinates":[145.088862775106,-37.8983674786511]},"properties":{"name":"MONASH-OAKLEIGH SERVICE CENTRE","feature_type":"admin facility","feature_subtype":"municipal office","feature_status":null,"weewoo_role":null}},{"type":"Feature","geometry":{"type":"Point","coordinates":[144.662421402066,-37.9004544770671]},"properties":{"name":"WERRIBEE DEVELOPMENT CENTRE","feature_type":"admin facility","feature_subtype":"municipal office","feature_status":null,"weewoo_role":null}},{"type":"Feature","geometry":{"type":"Point","coordinates":[145.036590599241,-38.2175781622304]},"properties":{"name":"MORNINGTON PENINSULA SHIRE COUNCIL OFFICE","feature_type":"admin facility","feature_subtype":"municipal office","feature_status":null,"weewoo_role":null}},{"type":"Feature","geometry":{"type":"Point","coordinates":[144.993207711253,-37.8496026741473]},"properties":{"name":"STONNINGTON CITY COUNCIL","feature_type":"admin facility","feature_subtype":"municipal office","feature_status":null,"weewoo_role":null}},{"type":"Feature","geometry":{"type":"Point","coordinates":[144.587810016039,-37.6825398119597]},"properties":{"name":"MELTON CITY COUNCIL","feature_type":"admin facility","feature_subtype":"municipal office","feature_status":null,"weewoo_role":"COUNCIL HQ"}},{"type":"Feature","geometry":{"type":"Point","coordinates":[142.161023734724,-34.1885796389949]},"properties":{"name":"MILDURA RURAL CITY COUNCIL MADDEN AVENUE SERVICE CENTRE","feature_type":"admin facility","feature_subtype":"municipal office","feature_status":null,"weewoo_role":"COUNCIL HQ"}},{"type":"Feature","geometry":{"type":"Point","coordinates":[143.920722517068,-35.7340890062898]},"properties":{"name":"GANNAWARRA SHIRE COUNCIL","feature_type":"admin facility","feature_subtype":"municipal office","feature_status":null,"weewoo_role":"COUNCIL HQ"}},{"type":"Feature","geometry":{"type":"Point","coordinates":[145.122710941974,-38.1468882199607]},"properties":{"name":"FRANKSTON CITY COUNCIL","feature_type":"admin facility","feature_subtype":"municipal office","feature_status":null,"weewoo_role":"COUNCIL HQ"}},{"type":"Feature","geometry":{"type":"Point","coordinates":[144.347987494306,-38.1411236918296]},"properties":{"name":"GEELONG WEST CUSTOMER SERVICE","feature_type":"admin facility","feature_subtype":"municipal office","feature_status":null,"weewoo_role":null}},{"type":"Feature","geometry":{"type":"Point","coordinates":[145.982178412749,-36.5517021350566]},"properties":{"name":"BENALLA RURAL CITY COUNCIL","feature_type":"admin facility","feature_subtype":"municipal office","feature_status":null,"weewoo_role":"COUNCIL HQ"}},{"type":"Feature","geometry":{"type":"Point","coordinates":[145.047647858767,-37.8065996328926]},"properties":{"name":"MONNINGTON CHAMBERS","feature_type":"admin facility","feature_subtype":"municipal office","feature_status":null,"weewoo_role":null}},{"type":"Feature","geometry":{"type":"Point","coordinates":[144.749378153584,-36.1237688162106]},"properties":{"name":"CAMPASPE SHIRE COUNCIL","feature_type":"admin facility","feature_subtype":"municipal office","feature_status":null,"weewoo_role":"COUNCIL HQ"}},{"type":"Feature","geometry":{"type":"Point","coordinates":[144.67087896411,-37.8974249937811]},"properties":{"name":"WYNDHAM CITY COUNCIL","feature_type":"admin facility","feature_subtype":"municipal office","feature_status":null,"weewoo_role":"COUNCIL HQ"}},{"type":"Feature","geometry":{"type":"Point","coordinates":[145.181454892862,-37.8177068551826]},"properties":{"name":"WHITEHORSE CITY COUNCIL","feature_type":"admin facility","feature_subtype":"municipal office","feature_status":null,"weewoo_role":"COUNCIL HQ"}},{"type":"Feature","geometry":{"type":"Point","coordinates":[145.068142936347,-37.6454888458121]},"properties":{"name":"WHITTLESEA CIVIC CENTRE","feature_type":"admin facility","feature_subtype":"municipal office","feature_status":null,"weewoo_role":"COUNCIL HQ"}},{"type":"Feature","geometry":{"type":"Point","coordinates":[146.969164719612,-36.7301759760885]},"properties":{"name":"ALPINE SHIRE COUNCIL","feature_type":"admin facility","feature_subtype":"municipal office","feature_status":null,"weewoo_role":"COUNCIL HQ"}},{"type":"Feature","geometry":{"type":"Point","coordinates":[145.018155371184,-36.5878377172145]},"properties":{"name":null,"feature_type":"admin facility","feature_subtype":"municipal office","feature_status":null,"weewoo_role":null}},{"type":"Feature","geometry":{"type":"Point","coordinates":[145.590965742895,-38.6079998901162]},"properties":{"name":"BASS COAST SHIRE COUNCIL","feature_type":"admin facility","feature_subtype":"municipal office","feature_status":null,"weewoo_role":"COUNCIL HQ"}},{"type":"Feature","geometry":{"type":"Point","coordinates":[146.323692913301,-36.3550159577304]},"properties":{"name":"WANGARATTA RURAL CITY COUNCIL","feature_type":"admin facility","feature_subtype":"municipal office","feature_status":null,"weewoo_role":"COUNCIL HQ"}},{"type":"Feature","geometry":{"type":"Point","coordinates":[145.022582918386,-37.8802938382789]},"properties":{"name":"GLEN EIRA CITY COUNCIL","feature_type":"admin facility","feature_subtype":"municipal office","feature_status":null,"weewoo_role":"COUNCIL HQ"}},{"type":"Feature","geometry":{"type":"Point","coordinates":[145.125393620433,-37.5086483181795]},"properties":{"name":"WHITTLESEA DEPOT","feature_type":"admin facility","feature_subtype":"municipal office","feature_status":null,"weewoo_role":null}},{"type":"Feature","geometry":{"type":"Point","coordinates":[145.05895584258,-37.8343605117282]},"properties":{"name":"BOROONDARA CITY COUNCIL","feature_type":"admin facility","feature_subtype":"municipal office","feature_status":null,"weewoo_role":"COUNCIL HQ"}},{"type":"Feature","geometry":{"type":"Point","coordinates":[144.422304549128,-37.6535222328699]},"properties":{"name":"MOORABOOL SHIRE COUNCIL - DARLEY","feature_type":"admin facility","feature_subtype":"municipal office","feature_status":null,"weewoo_role":null}},{"type":"Feature","geometry":{"type":"Point","coordinates":[145.933641723787,-38.1587579067883]},"properties":{"name":"BAW BAW SHIRE COUNCIL","feature_type":"admin facility","feature_subtype":"municipal office","feature_status":null,"weewoo_role":"COUNCIL HQ"}},{"type":"Feature","geometry":{"type":"Point","coordinates":[146.889755871827,-36.1230947680387]},"properties":{"name":"WODONGA CITY COUNCIL","feature_type":"admin facility","feature_subtype":"municipal office","feature_status":null,"weewoo_role":"COUNCIL HQ"}},{"type":"Feature","geometry":{"type":"Point","coordinates":[145.106291768773,-37.7039044791879]},"properties":{"name":"CIVIC CENTRE","feature_type":"admin facility","feature_subtype":"municipal office","feature_status":null,"weewoo_role":null}},{"type":"Feature","geometry":{"type":"Point","coordinates":[145.106321750046,-37.7039420810997]},"properties":{"name":"BANYULE CITY COUNCIL - GREENSBOROUGH SERVICE CENTRE","feature_type":"admin facility","feature_subtype":"municipal office","feature_status":null,"weewoo_role":"COUNCIL HQ"}},{"type":"Feature","geometry":{"type":"Point","coordinates":[145.242475890637,-37.808140852702]},"properties":{"name":"MAROONDAH CITY COUNCIL","feature_type":"admin facility","feature_subtype":"municipal office","feature_status":null,"weewoo_role":"COUNCIL HQ"}},{"type":"Feature","geometry":{"type":"Point","coordinates":[145.469981816324,-38.0735218733462]},"properties":{"name":"CARDINIA SHIRE COUNCIL","feature_type":"admin facility","feature_subtype":"municipal office","feature_status":null,"weewoo_role":"COUNCIL HQ"}},{"type":"Feature","geometry":{"type":"Point","coordinates":[141.607275218083,-38.3519548317702]},"properties":{"name":"GLENELG SHIRE COUNCIL","feature_type":"admin facility","feature_subtype":"municipal office","feature_status":null,"weewoo_role":"COUNCIL HQ"}},{"type":"Feature","geometry":{"type":"Point","coordinates":[144.989032707426,-37.8686617536709]},"properties":{"name":"PORT PHILLIP CITY COUNCIL","feature_type":"admin facility","feature_subtype":"municipal office","feature_status":null,"weewoo_role":"COUNCIL HQ"}},{"type":"Feature","geometry":{"type":"Point","coordinates":[145.2453489778,-37.8712062448392]},"properties":{"name":"KNOX CITY COUNCIL","feature_type":"admin facility","feature_subtype":"municipal office","feature_status":null,"weewoo_role":"COUNCIL HQ"}},{"type":"Feature","geometry":{"type":"Point","coordinates":[145.048978983253,-37.2029918442074]},"properties":{"name":"MITCHELL SHIRE COUNCIL","feature_type":"admin facility","feature_subtype":"municipal office","feature_status":null,"weewoo_role":"COUNCIL HQ"}},{"type":"Feature","geometry":{"type":"Point","coordinates":[144.734258920753,-37.5803370863]},"properties":{"name":"HUME CITY COUNCIL-SUNBURY OFFICE","feature_type":"admin facility","feature_subtype":"municipal office","feature_status":null,"weewoo_role":null}},{"type":"Feature","geometry":{"type":"Point","coordinates":[145.029831920283,-37.8562558450385]},"properties":{"name":"STONNINGTON CITY COUNCIL","feature_type":"admin facility","feature_subtype":"municipal office","feature_status":null,"weewoo_role":"COUNCIL HQ"}},{"type":"Feature","geometry":{"type":"Point","coordinates":[145.353382880168,-37.7596958682159]},"properties":{"name":"YARRA RANGES SHIRE COUNCIL","feature_type":"admin facility","feature_subtype":"municipal office","feature_status":null,"weewoo_role":"COUNCIL HQ"}},{"type":"Feature","geometry":{"type":"Point","coordinates":[144.925027949147,-37.7641048332912]},"properties":{"name":"MOONEE VALLEY CITY COUNCIL","feature_type":"admin facility","feature_subtype":"municipal office","feature_status":null,"weewoo_role":"COUNCIL HQ"}},{"type":"Feature","geometry":{"type":"Point","coordinates":[145.04530627691,-37.7657699659582]},"properties":{"name":"BANYULE CITY COUNCIL - IVANHOE SERVICE CENTRE","feature_type":"admin facility","feature_subtype":"municipal office","feature_status":null,"weewoo_role":null}},{"type":"Feature","geometry":{"type":"Point","coordinates":[144.528985160182,-37.3545478929744]},"properties":{"name":"MACEDON RANGES SHIRE COUNCIL WOODEND ADMINISTRATION CENTRE","feature_type":"admin facility","feature_subtype":"municipal office","feature_status":null,"weewoo_role":null}},{"type":"Feature","geometry":{"type":"Point","coordinates":[144.743313511219,-37.3501042799696]},"properties":{"name":"MACEDON RANGES SHIRE COUNCIL ROMSEY ADMINISTRATION CENTRE","feature_type":"admin facility","feature_subtype":"municipal office","feature_status":null,"weewoo_role":null}},{"type":"Feature","geometry":{"type":"Point","coordinates":[146.086964161559,-37.0536724732394]},"properties":{"name":"MANSFIELD RECYCLING CENTRE","feature_type":"admin facility","feature_subtype":"municipal office","feature_status":null,"weewoo_role":null}},{"type":"Feature","geometry":{"type":"Point","coordinates":[144.411063926384,-38.0221369958074]},"properties":{"name":"LARA CUSTOMER SERVICE","feature_type":"admin facility","feature_subtype":"municipal office","feature_status":null,"weewoo_role":null}},{"type":"Feature","geometry":{"type":"Point","coordinates":[144.585649177013,-37.4830138132382]},"properties":{"name":"MACEDON RANGES SHIRE COUNCIL GISBORNE ADMINISTRATION CENTRE","feature_type":"admin facility","feature_subtype":"municipal office","feature_status":null,"weewoo_role":null}},{"type":"Feature","geometry":{"type":"Point","coordinates":[145.52987637614,-38.4069006859764]},"properties":{"name":"GRANTVILLE SERVICE CENTRE","feature_type":"admin facility","feature_subtype":"municipal office","feature_status":null,"weewoo_role":null}},{"type":"Feature","geometry":{"type":"Point","coordinates":[141.651020948191,-36.3325392001934]},"properties":{"name":"HINDMARSH MUNICIPAL OFFICES","feature_type":"admin facility","feature_subtype":"municipal office","feature_status":null,"weewoo_role":"COUNCIL HQ"}},{"type":"Feature","geometry":{"type":"Point","coordinates":[145.216853118024,-37.9846708332959]},"properties":{"name":"GREATER DANDENONG COMMUNITY SERVICES","feature_type":"admin facility","feature_subtype":"municipal office","feature_status":null,"weewoo_role":"COUNCIL HQ"}},{"type":"Feature","geometry":{"type":"Point","coordinates":[144.14441546987,-37.3419894346975]},"properties":{"name":"HEPBURN SHIRE COUNCIL CUSTOMER SERVICE OFFICE - CRESWICK","feature_type":"admin facility","feature_subtype":"municipal office","feature_status":null,"weewoo_role":null}},{"type":"Feature","geometry":{"type":"Point","coordinates":[146.687611812959,-36.3587119506955]},"properties":{"name":"INDIGO SHIRE COUNCIL","feature_type":"admin facility","feature_subtype":"municipal office","feature_status":null,"weewoo_role":"COUNCIL HQ"}},{"type":"Feature","geometry":{"type":"Point","coordinates":[144.453307399351,-37.2473674339982]},"properties":{"name":"MACEDON RANGES SHIRE COUNCIL","feature_type":"admin facility","feature_subtype":"municipal office","feature_status":null,"weewoo_role":"COUNCIL HQ"}},{"type":"Feature","geometry":{"type":"Point","coordinates":[144.227848082918,-37.6018347867449]},"properties":{"name":"MOORABOOL SHIRE COUNCIL - BALLAN","feature_type":"admin facility","feature_subtype":"municipal office","feature_status":null,"weewoo_role":"COUNCIL HQ"}},{"type":"Feature","geometry":{"type":"Point","coordinates":[143.740523227105,-37.0507977527367]},"properties":{"name":"CENTRAL GOLDFIELDS SHIRE COUNCIL","feature_type":"admin facility","feature_subtype":"municipal office","feature_status":null,"weewoo_role":"COUNCIL HQ"}},{"type":"Feature","geometry":{"type":"Point","coordinates":[145.645156913428,-35.9219352159399]},"properties":{"name":"MOIRA SHIRE COUNCIL","feature_type":"admin facility","feature_subtype":"municipal office","feature_status":null,"weewoo_role":"COUNCIL HQ"}},{"type":"Feature","geometry":{"type":"Point","coordinates":[144.837800961036,-37.7839248291989]},"properties":{"name":"BRIMBANK CITY COUNCIL","feature_type":"admin facility","feature_subtype":"municipal office","feature_status":null,"weewoo_role":"COUNCIL HQ"}},{"type":"Feature","geometry":{"type":"Point","coordinates":[147.063708534222,-38.1117759880684]},"properties":{"name":"WELLINGTON SHIRE COUNCIL","feature_type":"admin facility","feature_subtype":"municipal office","feature_status":null,"weewoo_role":"COUNCIL HQ"}},{"type":"Feature","geometry":{"type":"Point","coordinates":[147.064554875679,-38.1112793308775]},"properties":{"name":"WELLINGTON SHIRE COUNCIL","feature_type":"admin facility","feature_subtype":"municipal office","feature_status":null,"weewoo_role":null}},{"type":"Feature","geometry":{"type":"Point","coordinates":[145.132607314947,-37.786604691992]},"properties":{"name":"MANNINGHAM CITY COUNCIL","feature_type":"admin facility","feature_subtype":"municipal office","feature_status":null,"weewoo_role":"COUNCIL HQ"}},{"type":"Feature","geometry":{"type":"Point","coordinates":[144.891544851323,-38.3708795062632]},"properties":{"name":"MORNINGTON PENINSULA SHIRE COUNCIL - ROSEBUD","feature_type":"admin facility","feature_subtype":"municipal office","feature_status":null,"weewoo_role":"COUNCIL HQ"}},{"type":"Feature","geometry":{"type":"Point","coordinates":[145.108442927553,-37.6890318490134]},"properties":{"name":"NILLUMBIK SHIRE COUNCIL","feature_type":"admin facility","feature_subtype":"municipal office","feature_status":null,"weewoo_role":"COUNCIL HQ"}},{"type":"Feature","geometry":{"type":"Point","coordinates":[145.00069879834,-37.8184045737782]},"properties":{"name":"YARRA CITY COUNCIL","feature_type":"admin facility","feature_subtype":"municipal office","feature_status":null,"weewoo_role":"COUNCIL HQ"}},{"type":"Feature","geometry":{"type":"Point","coordinates":[144.321531328553,-38.3067898000486]},"properties":{"name":"SURF COAST SHIRE COUNCIL","feature_type":"admin facility","feature_subtype":"municipal office","feature_status":null,"weewoo_role":"COUNCIL HQ"}},{"type":"Feature","geometry":{"type":"Point","coordinates":[145.413482898164,-38.0658483990232]},"properties":{"name":null,"feature_type":"admin facility","feature_subtype":"municipal office","feature_status":null,"weewoo_role":null}},{"type":"Feature","geometry":{"type":"Point","coordinates":[145.020165834926,-37.6535998418777]},"properties":{"name":"EPPING PLAZA COMMUNITY SERVICES CENTRE","feature_type":"admin facility","feature_subtype":"municipal office","feature_status":null,"weewoo_role":null}},{"type":"Feature","geometry":{"type":"Point","coordinates":[141.297315781923,-37.0361881731932]},"properties":{"name":"WEST WIMMERA SHIRE COUNCIL","feature_type":"admin facility","feature_subtype":"municipal office","feature_status":null,"weewoo_role":"COUNCIL HQ"}},{"type":"Feature","geometry":{"type":"Point","coordinates":[144.918695957373,-37.6827728342331]},"properties":{"name":"HUME CITY COUNCIL","feature_type":"admin facility","feature_subtype":"municipal office","feature_status":null,"weewoo_role":"COUNCIL HQ"}},{"type":"Feature","geometry":{"type":"Point","coordinates":[145.239607560951,-38.4518572019563]},"properties":{"name":"COWES SERVICE CENTRE","feature_type":"admin facility","feature_subtype":"municipal office","feature_status":null,"weewoo_role":null}},{"type":"Feature","geometry":{"type":"Point","coordinates":[144.659034942092,-38.267745821704]},"properties":{"name":"BOROUGH OF QUEENSCLIFFE","feature_type":"admin facility","feature_subtype":"municipal office","feature_status":null,"weewoo_role":"COUNCIL HQ"}},{"type":"Feature","geometry":{"type":"Point","coordinates":[144.283588165412,-36.759033790183]},"properties":{"name":"GALKANGU - BENDIGO GOVHUB","feature_type":"admin facility","feature_subtype":"municipal office","feature_status":null,"weewoo_role":"COUNCIL HQ"}},{"type":"Feature","geometry":{"type":"Point","coordinates":[145.57283995391,-36.7530818708191]},"properties":{"name":"STRATHBOGIE SHIRE COUNCIL - EUROA OFFICE","feature_type":"admin facility","feature_subtype":"municipal office","feature_status":null,"weewoo_role":"COUNCIL HQ"}},{"type":"Feature","geometry":{"type":"Point","coordinates":[145.155299915155,-36.7820826117409]},"properties":{"name":"STRATHBOGIE SHIRE COUNCIL","feature_type":"admin facility","feature_subtype":"municipal office","feature_status":null,"weewoo_role":null}},{"type":"Feature","geometry":{"type":"Point","coordinates":[143.384127247234,-37.4283157292311]},"properties":{"name":"PYRENEES SHIRE COUNCIL","feature_type":"admin facility","feature_subtype":"municipal office","feature_status":null,"weewoo_role":"COUNCIL HQ"}},{"type":"Feature","geometry":{"type":"Point","coordinates":[144.830848955646,-37.8636338269938]},"properties":{"name":"HOBSONS BAY CITY COUNCIL","feature_type":"admin facility","feature_subtype":"municipal office","feature_status":null,"weewoo_role":"COUNCIL HQ"}},{"type":"Feature","geometry":{"type":"Point","coordinates":[144.969872475154,-37.7410915653256]},"properties":{"name":"MERRI-BEK CITY COUNCIL","feature_type":"admin facility","feature_subtype":"municipal office","feature_status":null,"weewoo_role":"COUNCIL HQ"}},{"type":"Feature","geometry":{"type":"Point","coordinates":[145.004815468266,-37.7401339926992]},"properties":{"name":"DAREBIN CITY COUNCIL","feature_type":"admin facility","feature_subtype":"municipal office","feature_status":null,"weewoo_role":"COUNCIL HQ"}},{"type":"Feature","geometry":{"type":"Point","coordinates":[141.241678554732,-36.3781162160061]},"properties":{"name":"WEST WIMMERA SHIRE - KANIVA","feature_type":"admin facility","feature_subtype":"municipal office","feature_status":null,"weewoo_role":null}},{"type":"Feature","geometry":{"type":"Point","coordinates":[144.172938055424,-38.050588787733]},"properties":{"name":"GOLDEN PLAINS SHIRE COUNCIL","feature_type":"admin facility","feature_subtype":"municipal office","feature_status":null,"weewoo_role":"COUNCIL HQ"}},{"type":"Feature","geometry":{"type":"Point","coordinates":[145.01719573061,-37.9595796563119]},"properties":{"name":"BAYSIDE CITY COUNCIL","feature_type":"admin facility","feature_subtype":"municipal office","feature_status":null,"weewoo_role":"COUNCIL HQ"}},{"type":"Feature","geometry":{"type":"Point","coordinates":[145.299225960683,-38.019713338756]},"properties":{"name":"CASEY CITY COUNCIL","feature_type":"admin facility","feature_subtype":"municipal office","feature_status":null,"weewoo_role":"COUNCIL HQ"}},{"type":"Feature","geometry":{"type":"Point","coordinates":[145.06995544913,-37.650474763097]},"properties":{"name":"EDGE YOUTH SERVICES","feature_type":"admin facility","feature_subtype":"municipal office","feature_status":null,"weewoo_role":null}},{"type":"Feature","geometry":{"type":"Point","coordinates":[144.900787468161,-37.8045603983378]},"properties":{"name":"MARIBYRNONG CITY COUNCIL","feature_type":"admin facility","feature_subtype":"municipal office","feature_status":null,"weewoo_role":"COUNCIL HQ"}},{"type":"Feature","geometry":{"type":"Point","coordinates":[144.357748756169,-38.1452568942676]},"properties":{"name":"WURRIKI NYAL","feature_type":"admin facility","feature_subtype":"municipal office","feature_status":null,"weewoo_role":null}}]}