{"type":"FeatureCollection","features":[{"type":"Feature","id":290,"geometry":{"type":"Point","coordinates":[138.61201600000004,-33.83456899912689]},"properties":{"objectid":290,"featuretype":"Council Office","description":"A facility where a Local Government\u00e2\u20ac\u2122s main council operations are regularly performed","class":"Council Office","sdedist.spool.NationalLGACouncilOffices_New.fid":"290","name":"Clare and Gilbert Valleys Council","operationalstatus":"Operational","localgovernmentarea_lga":"Clare and Gilbert Valleys (DC)","address":"4 Gleeson Street","suburb":"Clare","state":"South Australia","spatialconfidence":"5","revised":1423699200000,"comment":null}},{"type":"Feature","id":278,"geometry":{"type":"Point","coordinates":[138.60079800000005,-34.92590799911391]},"properties":{"objectid":278,"featuretype":"Council Office","description":"A facility where a Local Government\u00e2\u20ac\u2122s main council operations are regularly performed","class":"Council Office","sdedist.spool.NationalLGACouncilOffices_New.fid":"278","name":"Adelaide City Council","operationalstatus":"Operational","localgovernmentarea_lga":"Adelaide (C)","address":"25 Pirie Street","suburb":"Adelaide","state":"South Australia","spatialconfidence":"5","revised":1423440000000,"comment":null}},{"type":"Feature","id":279,"geometry":{"type":"Point","coordinates":[138.88593100000003,-34.82195199911511]},"properties":{"objectid":279,"featuretype":"Council Office","description":"A facility where a Local Government\u00e2\u20ac\u2122s main council operations are regularly performed","class":"Council Office","sdedist.spool.NationalLGACouncilOffices_New.fid":"279","name":"Adelaide Hills Council - Gumeracha Office","operationalstatus":"Operational","localgovernmentarea_lga":"Adelaide Hills (DC)","address":"45 Albert Street","suburb":"Gumeracha","state":"South Australia","spatialconfidence":"3","revised":1423440000000,"comment":null}},{"type":"Feature","id":280,"geometry":{"type":"Point","coordinates":[138.7175830000001,-35.005529999113044]},"properties":{"objectid":280,"featuretype":"Council Office","description":"A facility where a Local Government\u00e2\u20ac\u2122s main council operations are regularly performed","class":"Council Office","sdedist.spool.NationalLGACouncilOffices_New.fid":"280","name":"Adelaide Hills Council - Stirling Office","operationalstatus":"Operational","localgovernmentarea_lga":"Adelaide Hills (DC)","address":"63 Mount Barker Road","suburb":"Stirling","state":"South Australia","spatialconfidence":"5","revised":1423440000000,"comment":null}},{"type":"Feature","id":281,"geometry":{"type":"Point","coordinates":[138.87517000000003,-34.95361499911361]},"properties":{"objectid":281,"featuretype":"Council Office","description":"A facility where a Local Government\u00e2\u20ac\u2122s main council operations are regularly performed","class":"Council Office","sdedist.spool.NationalLGACouncilOffices_New.fid":"281","name":"Adelaide Hills Council - Woodside Office","operationalstatus":"Operational","localgovernmentarea_lga":"Adelaide Hills (DC)","address":"28 Onkaparinga Valley Road","suburb":"Woodside","state":"South Australia","spatialconfidence":"5","revised":1423440000000,"comment":null}},{"type":"Feature","id":282,"geometry":{"type":"Point","coordinates":[138.78245100000004,-35.5019119991076]},"properties":{"objectid":282,"featuretype":"Council Office","description":"A facility where a Local Government\u00e2\u20ac\u2122s main council operations are regularly performed","class":"Council Office","sdedist.spool.NationalLGACouncilOffices_New.fid":"282","name":"Alexandrina Council","operationalstatus":"Operational","localgovernmentarea_lga":"Alexandrina (DC)","address":"11 Cadell Street","suburb":"Goolwa","state":"South Australia","spatialconfidence":"5","revised":1423440000000,"comment":null}},{"type":"Feature","id":283,"geometry":{"type":"Point","coordinates":[138.99246100000005,-34.48148799911906]},"properties":{"objectid":283,"featuretype":"Council Office","description":"A facility where a Local Government\u00e2\u20ac\u2122s main council operations are regularly performed","class":"Council Office","sdedist.spool.NationalLGACouncilOffices_New.fid":"283","name":"The Barossa Council","operationalstatus":"Operational","localgovernmentarea_lga":"Barossa (DC)","address":"43-51 Tanunda Road","suburb":"Nuriootpa","state":"South Australia","spatialconfidence":"5","revised":1423440000000,"comment":null}},{"type":"Feature","id":284,"geometry":{"type":"Point","coordinates":[137.9318820000001,-33.60011699912987]},"properties":{"objectid":284,"featuretype":"Council Office","description":"A facility where a Local Government\u00e2\u20ac\u2122s main council operations are regularly performed","class":"Council Office","sdedist.spool.NationalLGACouncilOffices_New.fid":"284","name":"District Council of Barunga West","operationalstatus":"Operational","localgovernmentarea_lga":"Barunga West (DC)","address":"11 Bay Street","suburb":"Port Broughton","state":"South Australia","spatialconfidence":"5","revised":1423440000000,"comment":null}},{"type":"Feature","id":285,"geometry":{"type":"Point","coordinates":[140.6006430000001,-34.28568599912137]},"properties":{"objectid":285,"featuretype":"Council Office","description":"A facility where a Local Government\u00e2\u20ac\u2122s main council operations are regularly performed","class":"Council Office","sdedist.spool.NationalLGACouncilOffices_New.fid":"285","name":"Berri Barmera Council","operationalstatus":"Operational","localgovernmentarea_lga":"Berri and Barmera (DC)","address":"19 Wilson Street","suburb":"Berri","state":"South Australia","spatialconfidence":"5","revised":1417737600000,"comment":null}},{"type":"Feature","id":286,"geometry":{"type":"Point","coordinates":[138.64341100000001,-34.93838899911382]},"properties":{"objectid":286,"featuretype":"Council Office","description":"A facility where a Local Government\u00e2\u20ac\u2122s main council operations are regularly performed","class":"Council Office","sdedist.spool.NationalLGACouncilOffices_New.fid":"286","name":"City of Burnside","operationalstatus":"Operational","localgovernmentarea_lga":"Burnside (C)","address":"401 Greenhill Road","suburb":"Tusmore","state":"South Australia","spatialconfidence":"5","revised":1423699200000,"comment":null}},{"type":"Feature","id":287,"geometry":{"type":"Point","coordinates":[138.67717400000004,-34.88877799911436]},"properties":{"objectid":287,"featuretype":"Council Office","description":"A facility where a Local Government\u00e2\u20ac\u2122s main council operations are regularly performed","class":"Council Office","sdedist.spool.NationalLGACouncilOffices_New.fid":"287","name":"Campbelltown City Council","operationalstatus":"Operational","localgovernmentarea_lga":"Campbelltown (C)","address":"172 Montacute Road","suburb":"Rostrevor","state":"South Australia","spatialconfidence":"5","revised":1423699200000,"comment":null}},{"type":"Feature","id":288,"geometry":{"type":"Point","coordinates":[133.67261300000007,-32.12494299914977]},"properties":{"objectid":288,"featuretype":"Council Office","description":"A facility where a Local Government\u00e2\u20ac\u2122s main council operations are regularly performed","class":"Council Office","sdedist.spool.NationalLGACouncilOffices_New.fid":"288","name":"District Council of Ceduna","operationalstatus":"Operational","localgovernmentarea_lga":"Ceduna (DC)","address":"44 O'Loughlin Terrace","suburb":"Ceduna","state":"South Australia","spatialconfidence":"5","revised":1423699200000,"comment":null}},{"type":"Feature","id":289,"geometry":{"type":"Point","coordinates":[138.53753800000004,-34.878658999114485]},"properties":{"objectid":289,"featuretype":"Council Office","description":"A facility where a Local Government\u00e2\u20ac\u2122s main council operations are regularly performed","class":"Council Office","sdedist.spool.NationalLGACouncilOffices_New.fid":"289","name":"City of Charles Sturt","operationalstatus":"Operational","localgovernmentarea_lga":"Charles Sturt (C)","address":"72 Woodville Road","suburb":"Woodville","state":"South Australia","spatialconfidence":"5","revised":1423699200000,"comment":null}},{"type":"Feature","id":291,"geometry":{"type":"Point","coordinates":[136.49561200000005,-33.7015819991286]},"properties":{"objectid":291,"featuretype":"Council Office","description":"A facility where a Local Government\u00e2\u20ac\u2122s main council operations are regularly performed","class":"Council Office","sdedist.spool.NationalLGACouncilOffices_New.fid":"291","name":"District Council of Cleve","operationalstatus":"Operational","localgovernmentarea_lga":"Cleve (DC)","address":"10 Main Street","suburb":"Cleve","state":"South Australia","spatialconfidence":"5","revised":1423699200000,"comment":null}},{"type":"Feature","id":292,"geometry":{"type":"Point","coordinates":[134.75566600000002,-29.014844999199102]},"properties":{"objectid":292,"featuretype":"Council Office","description":"A facility where a Local Government\u00e2\u20ac\u2122s main council operations are regularly performed","class":"Council Office","sdedist.spool.NationalLGACouncilOffices_New.fid":"292","name":"District Council of Coober Pedy","operationalstatus":"Operational","localgovernmentarea_lga":"Coober Pedy (DC)","address":"Hutchison Street","suburb":"Coober Pedy","state":"South Australia","spatialconfidence":"5","revised":1423699200000,"comment":null}},{"type":"Feature","id":293,"geometry":{"type":"Point","coordinates":[139.45478900000012,-35.25461499911027]},"properties":{"objectid":293,"featuretype":"Council Office","description":"A facility where a Local Government\u00e2\u20ac\u2122s main council operations are regularly performed","class":"Council Office","sdedist.spool.NationalLGACouncilOffices_New.fid":"293","name":"Coorong District Council","operationalstatus":"Operational","localgovernmentarea_lga":"The Coorong (DC)","address":"95-101 Railway Terrace","suburb":"Tailem Bend","state":"South Australia","spatialconfidence":"3","revised":1423699200000,"comment":null}},{"type":"Feature","id":294,"geometry":{"type":"Point","coordinates":[137.71489400000007,-33.96176499912533]},"properties":{"objectid":294,"featuretype":"Council Office","description":"A facility where a Local Government\u00e2\u20ac\u2122s main council operations are regularly performed","class":"Council Office","sdedist.spool.NationalLGACouncilOffices_New.fid":"294","name":"District Council of the Copper Coast","operationalstatus":"Operational","localgovernmentarea_lga":"Copper Coast (DC)","address":"51 Taylor Street","suburb":"Kadina","state":"South Australia","spatialconfidence":"5","revised":1423699200000,"comment":null}},{"type":"Feature","id":295,"geometry":{"type":"Point","coordinates":[134.8873390000001,-33.64765899912928]},"properties":{"objectid":295,"featuretype":"Council Office","description":"A facility where a Local Government\u00e2\u20ac\u2122s main council operations are regularly performed","class":"Council Office","sdedist.spool.NationalLGACouncilOffices_New.fid":"295","name":"District Council of Elliston","operationalstatus":"Operational","localgovernmentarea_lga":"Elliston (DC)","address":"21 Beach Terrace","suburb":"Elliston","state":"South Australia","spatialconfidence":"5","revised":1423699200000,"comment":null}},{"type":"Feature","id":296,"geometry":{"type":"Point","coordinates":[138.04195400000003,-32.345766999146655]},"properties":{"objectid":296,"featuretype":"Council Office","description":"A facility where a Local Government\u00e2\u20ac\u2122s main council operations are regularly performed","class":"Council Office","sdedist.spool.NationalLGACouncilOffices_New.fid":"296","name":"The Flinders Ranges Council","operationalstatus":"Operational","localgovernmentarea_lga":"Flinders Ranges (DC)","address":"1 Seventh Street","suburb":"Quorn","state":"South Australia","spatialconfidence":"5","revised":1423699200000,"comment":null}},{"type":"Feature","id":297,"geometry":{"type":"Point","coordinates":[136.92625800000008,-33.68419099912878]},"properties":{"objectid":297,"featuretype":"Council Office","description":"A facility where a Local Government\u00e2\u20ac\u2122s main council operations are regularly performed","class":"Council Office","sdedist.spool.NationalLGACouncilOffices_New.fid":"297","name":"District Council of Franklin Harbour","operationalstatus":"Operational","localgovernmentarea_lga":"Franklin Harbour (DC)","address":"6 Main Street","suburb":"Cowell","state":"South Australia","spatialconfidence":"5","revised":1423699200000,"comment":null}},{"type":"Feature","id":298,"geometry":{"type":"Point","coordinates":[138.74952000000008,-34.59942299911767]},"properties":{"objectid":298,"featuretype":"Council Office","description":"A facility where a Local Government\u00e2\u20ac\u2122s main council operations are regularly performed","class":"Council Office","sdedist.spool.NationalLGACouncilOffices_New.fid":"298","name":"Gawler Town Council","operationalstatus":"Operational","localgovernmentarea_lga":"Gawler (T)","address":"89 Murray Street","suburb":"Gawler","state":"South Australia","spatialconfidence":"5","revised":1423699200000,"comment":null}},{"type":"Feature","id":299,"geometry":{"type":"Point","coordinates":[138.9393550000001,-33.68174599912885]},"properties":{"objectid":299,"featuretype":"Council Office","description":"A facility where a Local Government\u00e2\u20ac\u2122s main council operations are regularly performed","class":"Council Office","sdedist.spool.NationalLGACouncilOffices_New.fid":"299","name":"Regional Council of Goyder - Headquarters","operationalstatus":"Operational","localgovernmentarea_lga":"Goyder (DC)","address":"1 Market Square","suburb":"Burra","state":"South Australia","spatialconfidence":"5","revised":1423699200000,"comment":null}},{"type":"Feature","id":300,"geometry":{"type":"Point","coordinates":[139.084289,-34.17081599912276]},"properties":{"objectid":300,"featuretype":"Council Office","description":"A facility where a Local Government\u00e2\u20ac\u2122s main council operations are regularly performed","class":"Council Office","sdedist.spool.NationalLGACouncilOffices_New.fid":"300","name":"Regional Council of Goyder - Eudunda Office","operationalstatus":"Operational","localgovernmentarea_lga":"Goyder (DC)","address":"25 Bruce Street","suburb":"Eudunda","state":"South Australia","spatialconfidence":"5","revised":1423699200000,"comment":null}},{"type":"Feature","id":301,"geometry":{"type":"Point","coordinates":[140.75287300000002,-37.81930999908583]},"properties":{"objectid":301,"featuretype":"Council Office","description":"A facility where a Local Government\u00e2\u20ac\u2122s main council operations are regularly performed","class":"Council Office","sdedist.spool.NationalLGACouncilOffices_New.fid":"301","name":"District Council of Grant","operationalstatus":"Operational","localgovernmentarea_lga":"Grant (DC)","address":"324 Commercial Street West","suburb":"Mount Gambier","state":"South Australia","spatialconfidence":"5","revised":1423699200000,"comment":null}},{"type":"Feature","id":302,"geometry":{"type":"Point","coordinates":[138.51983200000006,-35.01680599911293]},"properties":{"objectid":302,"featuretype":"Council Office","description":"A facility where a Local Government\u00e2\u20ac\u2122s main council operations are regularly performed","class":"Council Office","sdedist.spool.NationalLGACouncilOffices_New.fid":"302","name":"City of Holdfast Bay","operationalstatus":"Operational","localgovernmentarea_lga":"Holdfast Bay (C)","address":"24 Jetty Road","suburb":"Brighton","state":"South Australia","spatialconfidence":"5","revised":1423699200000,"comment":null}},{"type":"Feature","id":303,"geometry":{"type":"Point","coordinates":[137.6387880000001,-35.655965999106]},"properties":{"objectid":303,"featuretype":"Council Office","description":"A facility where a Local Government\u00e2\u20ac\u2122s main council operations are regularly performed","class":"Council Office","sdedist.spool.NationalLGACouncilOffices_New.fid":"303","name":"Kangaroo Island Council","operationalstatus":"Operational","localgovernmentarea_lga":"Kangaroo Island (DC)","address":"43 Dauncey Street","suburb":"Kingscote","state":"South Australia","spatialconfidence":"5","revised":1423699200000,"comment":null}},{"type":"Feature","id":304,"geometry":{"type":"Point","coordinates":[139.89498400000002,-35.09473699911203]},"properties":{"objectid":304,"featuretype":"Council Office","description":"A facility where a Local Government\u00e2\u20ac\u2122s main council operations are regularly performed","class":"Council Office","sdedist.spool.NationalLGACouncilOffices_New.fid":"304","name":"District Council of Karoonda East Murray","operationalstatus":"Operational","localgovernmentarea_lga":"Karoonda East Murray (DC)","address":"11 Railway Terrace","suburb":"Karoonda","state":"South Australia","spatialconfidence":"5","revised":1423699200000,"comment":null}},{"type":"Feature","id":305,"geometry":{"type":"Point","coordinates":[136.41843100000006,-33.138608999135855]},"properties":{"objectid":305,"featuretype":"Council Office","description":"A facility where a Local Government\u00e2\u20ac\u2122s main council operations are regularly performed","class":"Council Office","sdedist.spool.NationalLGACouncilOffices_New.fid":"305","name":"District Council of Kimba","operationalstatus":"Operational","localgovernmentarea_lga":"Kimba (DC)","address":"Cross Street","suburb":"Kimba","state":"South Australia","spatialconfidence":"5","revised":1423699200000,"comment":null}},{"type":"Feature","id":306,"geometry":{"type":"Point","coordinates":[139.8531200000001,-36.83005199909441]},"properties":{"objectid":306,"featuretype":"Council Office","description":"A facility where a Local Government\u00e2\u20ac\u2122s main council operations are regularly performed","class":"Council Office","sdedist.spool.NationalLGACouncilOffices_New.fid":"306","name":"Kingston District Council","operationalstatus":"Operational","localgovernmentarea_lga":"Kingston (DC)","address":"29 Holland Street","suburb":"Kingston","state":"South Australia","spatialconfidence":"5","revised":1423699200000,"comment":null}},{"type":"Feature","id":307,"geometry":{"type":"Point","coordinates":[135.4602950000001,-33.04646199913707]},"properties":{"objectid":307,"featuretype":"Council Office","description":"A facility where a Local Government\u00e2\u20ac\u2122s main council operations are regularly performed","class":"Council Office","sdedist.spool.NationalLGACouncilOffices_New.fid":"307","name":"Wudinna District Council","operationalstatus":"Operational","localgovernmentarea_lga":"Wudinna (DC)","address":"11 Burton Terrace","suburb":"Wudinna","state":"South Australia","spatialconfidence":"5","revised":1423699200000,"comment":null}},{"type":"Feature","id":308,"geometry":{"type":"Point","coordinates":[138.91378700000007,-34.34246499912069]},"properties":{"objectid":308,"featuretype":"Council Office","description":"A facility where a Local Government\u00e2\u20ac\u2122s main council operations are regularly performed","class":"Council Office","sdedist.spool.NationalLGACouncilOffices_New.fid":"308","name":"Light Regional Council","operationalstatus":"Operational","localgovernmentarea_lga":"Light (RegC)","address":"93 Main Street","suburb":"Kapunda","state":"South Australia","spatialconfidence":"5","revised":1423699200000,"comment":null}},{"type":"Feature","id":309,"geometry":{"type":"Point","coordinates":[135.72797200000002,-34.26381999912165]},"properties":{"objectid":309,"featuretype":"Council Office","description":"A facility where a Local Government\u00e2\u20ac\u2122s main council operations are regularly performed","class":"Council Office","sdedist.spool.NationalLGACouncilOffices_New.fid":"309","name":"District Council of Lower Eyre Peninsula","operationalstatus":"Operational","localgovernmentarea_lga":"Lower Eyre Peninsula (DC)","address":"32 Railway Terrace","suburb":"Cummins","state":"South Australia","spatialconfidence":"5","revised":1423699200000,"comment":null}},{"type":"Feature","id":310,"geometry":{"type":"Point","coordinates":[140.5693970000001,-34.450970999119434]},"properties":{"objectid":310,"featuretype":"Council Office","description":"A facility where a Local Government\u00e2\u20ac\u2122s main council operations are regularly performed","class":"Council Office","sdedist.spool.NationalLGACouncilOffices_New.fid":"310","name":"District Council of Loxton Waikerie","operationalstatus":"Operational","localgovernmentarea_lga":"Loxton Waikerie (DC)","address":"29 East Terrace","suburb":"Loxton","state":"South Australia","spatialconfidence":"5","revised":1423699200000,"comment":null}},{"type":"Feature","id":311,"geometry":{"type":"Point","coordinates":[138.5109940000001,-34.4381619991196]},"properties":{"objectid":311,"featuretype":"Council Office","description":"A facility where a Local Government\u00e2\u20ac\u2122s main council operations are regularly performed","class":"Council Office","sdedist.spool.NationalLGACouncilOffices_New.fid":"311","name":"District Council of Mallala","operationalstatus":"Operational","localgovernmentarea_lga":"Mallala (DC)","address":"2A Wasleys Road","suburb":"Mallala","state":"South Australia","spatialconfidence":"5","revised":1423699200000,"comment":null}},{"type":"Feature","id":312,"geometry":{"type":"Point","coordinates":[138.55171000000007,-35.01787799911288]},"properties":{"objectid":312,"featuretype":"Council Office","description":"A facility where a Local Government\u00e2\u20ac\u2122s main council operations are regularly performed","class":"Council Office","sdedist.spool.NationalLGACouncilOffices_New.fid":"312","name":"City of Marion","operationalstatus":"Operational","localgovernmentarea_lga":"Marion (C)","address":"245 Sturt Road","suburb":"Sturt","state":"South Australia","spatialconfidence":"5","revised":1423699200000,"comment":null}},{"type":"Feature","id":313,"geometry":{"type":"Point","coordinates":[139.30301600000007,-34.9143839991141]},"properties":{"objectid":313,"featuretype":"Council Office","description":"A facility where a Local Government\u00e2\u20ac\u2122s main council operations are regularly performed","class":"Council Office","sdedist.spool.NationalLGACouncilOffices_New.fid":"313","name":"Mid Murray Council","operationalstatus":"Operational","localgovernmentarea_lga":"Mid Murray (DC)","address":"49 Adelaide Road","suburb":"Mannum","state":"South Australia","spatialconfidence":"5","revised":1423699200000,"comment":null}},{"type":"Feature","id":314,"geometry":{"type":"Point","coordinates":[138.6097000000001,-34.97669399911336]},"properties":{"objectid":314,"featuretype":"Council Office","description":"A facility where a Local Government\u00e2\u20ac\u2122s main council operations are regularly performed","class":"Council Office","sdedist.spool.NationalLGACouncilOffices_New.fid":"314","name":"Mitcham City Council","operationalstatus":"Operational","localgovernmentarea_lga":"Mitcham (C)","address":"131 Belair Road","suburb":"Torrens Park","state":"South Australia","spatialconfidence":"5","revised":1423699200000,"comment":null}},{"type":"Feature","id":315,"geometry":{"type":"Point","coordinates":[138.8652830000001,-35.06799699911231]},"properties":{"objectid":315,"featuretype":"Council Office","description":"A facility where a Local Government\u00e2\u20ac\u2122s main council operations are regularly performed","class":"Council Office","sdedist.spool.NationalLGACouncilOffices_New.fid":"315","name":"District Council of Mount Barker","operationalstatus":"Operational","localgovernmentarea_lga":"Mount Barker (DC)","address":"6 Dutton Road","suburb":"Mount Barker","state":"South Australia","spatialconfidence":"5","revised":1423699200000,"comment":null}},{"type":"Feature","id":316,"geometry":{"type":"Point","coordinates":[140.78136000000006,-37.83014299908574]},"properties":{"objectid":316,"featuretype":"Council Office","description":"A facility where a Local Government\u00e2\u20ac\u2122s main council operations are regularly performed","class":"Council Office","sdedist.spool.NationalLGACouncilOffices_New.fid":"316","name":"City of Mount Gambier","operationalstatus":"Operational","localgovernmentarea_lga":"Mount Gambier (C)","address":"10 Watson Terrace","suburb":"Mount Gambier","state":"South Australia","spatialconfidence":"5","revised":1423699200000,"comment":null}},{"type":"Feature","id":317,"geometry":{"type":"Point","coordinates":[138.1868730000001,-32.826335999140035]},"properties":{"objectid":317,"featuretype":"Council Office","description":"A facility where a Local Government\u00e2\u20ac\u2122s main council operations are regularly performed","class":"Council Office","sdedist.spool.NationalLGACouncilOffices_New.fid":"317","name":"District Council of Mount Remarkable","operationalstatus":"Operational","localgovernmentarea_lga":"Mount Remarkable (DC)","address":"Stuart Street","suburb":"Melrose","state":"South Australia","spatialconfidence":"5","revised":1423699200000,"comment":null}},{"type":"Feature","id":318,"geometry":{"type":"Point","coordinates":[139.27571100000011,-35.12064699911176]},"properties":{"objectid":318,"featuretype":"Council Office","description":"A facility where a Local Government\u00e2\u20ac\u2122s main council operations are regularly performed","class":"Council Office","sdedist.spool.NationalLGACouncilOffices_New.fid":"318","name":"Rural City of Murray Bridge","operationalstatus":"Operational","localgovernmentarea_lga":"Murray Bridge (RC)","address":"2 Seventh Street","suburb":"Murray Bridge","state":"South Australia","spatialconfidence":"5","revised":1423699200000,"comment":null}},{"type":"Feature","id":319,"geometry":{"type":"Point","coordinates":[140.74458300000003,-36.95500899909326]},"properties":{"objectid":319,"featuretype":"Council Office","description":"A facility where a Local Government\u00e2\u20ac\u2122s main council operations are regularly performed","class":"Council Office","sdedist.spool.NationalLGACouncilOffices_New.fid":"319","name":"Naracoorte Lucindale Council - Headquarters","operationalstatus":"Operational","localgovernmentarea_lga":"Naracoorte Lucindale (DC)","address":"DeGaris Place","suburb":"Naracoorte","state":"South Australia","spatialconfidence":"5","revised":1423699200000,"comment":null}},{"type":"Feature","id":320,"geometry":{"type":"Point","coordinates":[140.36911300000008,-36.97274699909311]},"properties":{"objectid":320,"featuretype":"Council Office","description":"A facility where a Local Government\u00e2\u20ac\u2122s main council operations are regularly performed","class":"Council Office","sdedist.spool.NationalLGACouncilOffices_New.fid":"320","name":"Naracoorte Lucindale Council - Lucindale Office","operationalstatus":"Operational","localgovernmentarea_lga":"Naracoorte Lucindale (DC)","address":"34 Musgrave Avenue","suburb":"Lucindale","state":"South Australia","spatialconfidence":"5","revised":1423699200000,"comment":null}},{"type":"Feature","id":321,"geometry":{"type":"Point","coordinates":[138.60238000000004,-33.20485899913495]},"properties":{"objectid":321,"featuretype":"Council Office","description":"A facility where a Local Government\u00e2\u20ac\u2122s main council operations are regularly performed","class":"Council Office","sdedist.spool.NationalLGACouncilOffices_New.fid":"321","name":"Northern Areas Council","operationalstatus":"Operational","localgovernmentarea_lga":"Northern Areas (DC)","address":"94 Ayr Street","suburb":"Jamestown","state":"South Australia","spatialconfidence":"5","revised":1423699200000,"comment":null}},{"type":"Feature","id":322,"geometry":{"type":"Point","coordinates":[138.63633400000003,-34.920924999113986]},"properties":{"objectid":322,"featuretype":"Council Office","description":"A facility where a Local Government\u00e2\u20ac\u2122s main council operations are regularly performed","class":"Council Office","sdedist.spool.NationalLGACouncilOffices_New.fid":"322","name":"The City Of Norwood Payneham & St Peters","operationalstatus":"Operational","localgovernmentarea_lga":"Norwood Payneham St Peters (C)","address":"175 The Parade","suburb":"Norwood","state":"South Australia","spatialconfidence":"5","revised":1423699200000,"comment":null}},{"type":"Feature","id":323,"geometry":{"type":"Point","coordinates":[138.49544500000002,-35.140005999111544]},"properties":{"objectid":323,"featuretype":"Council Office","description":"A facility where a Local Government\u00e2\u20ac\u2122s main council operations are regularly performed","class":"Council Office","sdedist.spool.NationalLGACouncilOffices_New.fid":"323","name":"City of Onkaparinga - Headquarters","operationalstatus":"Operational","localgovernmentarea_lga":"Onkaparinga (C)","address":"Ramsay Place","suburb":"Noarlunga Centre","state":"South Australia","spatialconfidence":"5","revised":1423699200000,"comment":null}},{"type":"Feature","id":324,"geometry":{"type":"Point","coordinates":[138.593296,-35.07429599911226]},"properties":{"objectid":324,"featuretype":"Council Office","description":"A facility where a Local Government\u00e2\u20ac\u2122s main council operations are regularly performed","class":"Council Office","sdedist.spool.NationalLGACouncilOffices_New.fid":"324","name":"City of Onkaparinga - Aberfoyle Park Office","operationalstatus":"Operational","localgovernmentarea_lga":"Onkaparinga (C)","address":"The Hub","suburb":"Aberfoyle Park","state":"South Australia","spatialconfidence":"3","revised":1423699200000,"comment":null}},{"type":"Feature","id":325,"geometry":{"type":"Point","coordinates":[138.55486800000006,-35.27188999911011]},"properties":{"objectid":325,"featuretype":"Council Office","description":"A facility where a Local Government\u00e2\u20ac\u2122s main council operations are regularly performed","class":"Council Office","sdedist.spool.NationalLGACouncilOffices_New.fid":"325","name":"City of Onkaparinga - Willunga Office","operationalstatus":"Operational","localgovernmentarea_lga":"Onkaparinga (C)","address":"St Peters Terrace","suburb":"Willunga","state":"South Australia","spatialconfidence":"4","revised":1423699200000,"comment":null}},{"type":"Feature","id":326,"geometry":{"type":"Point","coordinates":[138.5449030000001,-35.11416699911182]},"properties":{"objectid":326,"featuretype":"Council Office","description":"A facility where a Local Government\u00e2\u20ac\u2122s main council operations are regularly performed","class":"Council Office","sdedist.spool.NationalLGACouncilOffices_New.fid":"326","name":"City of Onkaparinga - Woodcroft Office","operationalstatus":"Operational","localgovernmentarea_lga":"Onkaparinga (C)","address":"175 Bains Road","suburb":"Morphett Vale","state":"South Australia","spatialconfidence":"4","revised":1423699200000,"comment":null}},{"type":"Feature","id":327,"geometry":{"type":"Point","coordinates":[138.61315600000012,-32.733689999141276]},"properties":{"objectid":327,"featuretype":"Council Office","description":"A facility where a Local Government\u00e2\u20ac\u2122s main council operations are regularly performed","class":"Council Office","sdedist.spool.NationalLGACouncilOffices_New.fid":"327","name":"District Council of Orroroo-Carrieton","operationalstatus":"Operational","localgovernmentarea_lga":"Orroroo-Carrieton (DC)","address":"17 Second Street","suburb":"Orroroo","state":"South Australia","spatialconfidence":"5","revised":1423699200000,"comment":null}},{"type":"Feature","id":328,"geometry":{"type":"Point","coordinates":[138.83815500000003,-32.97342299913805]},"properties":{"objectid":328,"featuretype":"Council Office","description":"A facility where a Local Government\u00e2\u20ac\u2122s main council operations are regularly performed","class":"Council Office","sdedist.spool.NationalLGACouncilOffices_New.fid":"328","name":"District Council of Peterborough","operationalstatus":"Operational","localgovernmentarea_lga":"Peterborough (DC)","address":"108 Main Street","suburb":"Peterborough","state":"South Australia","spatialconfidence":"5","revised":1423699200000,"comment":null}},{"type":"Feature","id":329,"geometry":{"type":"Point","coordinates":[138.66950900000006,-34.70045799911651]},"properties":{"objectid":329,"featuretype":"Council Office","description":"A facility where a Local Government\u00e2\u20ac\u2122s main council operations are regularly performed","class":"Council Office","sdedist.spool.NationalLGACouncilOffices_New.fid":"329","name":"City of Playford","operationalstatus":"Operational","localgovernmentarea_lga":"Playford (C)","address":"12 Bishopstone Road","suburb":"Davoren Park","state":"South Australia","spatialconfidence":"2","revised":1423699200000,"comment":null}},{"type":"Feature","id":330,"geometry":{"type":"Point","coordinates":[138.50385800000004,-34.844306999114856]},"properties":{"objectid":330,"featuretype":"Council Office","description":"A facility where a Local Government\u00e2\u20ac\u2122s main council operations are regularly performed","class":"Council Office","sdedist.spool.NationalLGACouncilOffices_New.fid":"330","name":"City of Port Adelaide Enfield","operationalstatus":"Operational","localgovernmentarea_lga":"Port Adelaide Enfield (C)","address":"163 St Vincent Street","suburb":"Port Adelaide","state":"South Australia","spatialconfidence":"5","revised":1423699200000,"comment":null}},{"type":"Feature","id":331,"geometry":{"type":"Point","coordinates":[137.76403000000005,-32.49083299914462]},"properties":{"objectid":331,"featuretype":"Council Office","description":"A facility where a Local Government\u00e2\u20ac\u2122s main council operations are regularly performed","class":"Council Office","sdedist.spool.NationalLGACouncilOffices_New.fid":"331","name":"Port Augusta City Council","operationalstatus":"Operational","localgovernmentarea_lga":"Port Augusta (C)","address":"4 Mackay Street","suburb":"Port Augusta","state":"South Australia","spatialconfidence":"5","revised":1423699200000,"comment":null}},{"type":"Feature","id":332,"geometry":{"type":"Point","coordinates":[135.85733300000004,-34.71975599911629]},"properties":{"objectid":332,"featuretype":"Council Office","description":"A facility where a Local Government\u00e2\u20ac\u2122s main council operations are regularly performed","class":"Council Office","sdedist.spool.NationalLGACouncilOffices_New.fid":"332","name":"City of Port Lincoln","operationalstatus":"Operational","localgovernmentarea_lga":"Port Lincoln (C)","address":"Level 1  60 Tasman Terrace","suburb":"Port Lincoln","state":"South Australia","spatialconfidence":"4","revised":1423699200000,"comment":null}},{"type":"Feature","id":333,"geometry":{"type":"Point","coordinates":[138.01068700000008,-33.177460999135306]},"properties":{"objectid":333,"featuretype":"Council Office","description":"A facility where a Local Government\u00e2\u20ac\u2122s main council operations are regularly performed","class":"Council Office","sdedist.spool.NationalLGACouncilOffices_New.fid":"333","name":"Port Pirie Regional Council","operationalstatus":"Operational","localgovernmentarea_lga":"Port Pirie City and Dists (M)","address":"115 Ellen Street","suburb":"Port Pirie","state":"South Australia","spatialconfidence":"5","revised":1423699200000,"comment":null}},{"type":"Feature","id":334,"geometry":{"type":"Point","coordinates":[138.59377700000005,-34.88609899911437]},"properties":{"objectid":334,"featuretype":"Council Office","description":"A facility where a Local Government\u00e2\u20ac\u2122s main council operations are regularly performed","class":"Council Office","sdedist.spool.NationalLGACouncilOffices_New.fid":"334","name":"City of Prospect","operationalstatus":"Operational","localgovernmentarea_lga":"Prospect (C)","address":"128 Prospect Road","suburb":"Prospect","state":"South Australia","spatialconfidence":"5","revised":1423699200000,"comment":null}},{"type":"Feature","id":335,"geometry":{"type":"Point","coordinates":[140.747925,-34.17845099912267]},"properties":{"objectid":335,"featuretype":"Council Office","description":"A facility where a Local Government\u00e2\u20ac\u2122s main council operations are regularly performed","class":"Council Office","sdedist.spool.NationalLGACouncilOffices_New.fid":"335","name":"District Council of Renmark Paringa","operationalstatus":"Operational","localgovernmentarea_lga":"Renmark Paringa (DC)","address":"61 Eighteenth Street","suburb":"Renmark","state":"South Australia","spatialconfidence":"5","revised":1423699200000,"comment":null}},{"type":"Feature","id":336,"geometry":{"type":"Point","coordinates":[139.75269000000003,-37.16269399909136]},"properties":{"objectid":336,"featuretype":"Council Office","description":"A facility where a Local Government\u00e2\u20ac\u2122s main council operations are regularly performed","class":"Council Office","sdedist.spool.NationalLGACouncilOffices_New.fid":"336","name":"District Council of Robe","operationalstatus":"Operational","localgovernmentarea_lga":"Robe (DC)","address":"Royal Circus","suburb":"Robe","state":"South Australia","spatialconfidence":"5","revised":1423699200000,"comment":null}},{"type":"Feature","id":337,"geometry":{"type":"Point","coordinates":[136.89593000000002,-30.5622979991733]},"properties":{"objectid":337,"featuretype":"Council Office","description":"A facility where a Local Government\u00e2\u20ac\u2122s main council operations are regularly performed","class":"Council Office","sdedist.spool.NationalLGACouncilOffices_New.fid":"337","name":"Municipal Council of Roxby Downs","operationalstatus":"Operational","localgovernmentarea_lga":"Roxby Downs (M)","address":"Richardson Place","suburb":"Roxby Downs","state":"South Australia","spatialconfidence":"2","revised":1423699200000,"comment":null}},{"type":"Feature","id":338,"geometry":{"type":"Point","coordinates":[138.64453200000003,-34.76115299911585]},"properties":{"objectid":338,"featuretype":"Council Office","description":"A facility where a Local Government\u00e2\u20ac\u2122s main council operations are regularly performed","class":"Council Office","sdedist.spool.NationalLGACouncilOffices_New.fid":"338","name":"City of Salisbury","operationalstatus":"Operational","localgovernmentarea_lga":"Salisbury (C)","address":"12 James Street","suburb":"Salisbury","state":"South Australia","spatialconfidence":"4","revised":1423699200000,"comment":null}},{"type":"Feature","id":339,"geometry":{"type":"Point","coordinates":[140.90870800000005,-35.2612529991102]},"properties":{"objectid":339,"featuretype":"Council Office","description":"A facility where a Local Government\u00e2\u20ac\u2122s main council operations are regularly performed","class":"Council Office","sdedist.spool.NationalLGACouncilOffices_New.fid":"339","name":"Southern Mallee District Council","operationalstatus":"Operational","localgovernmentarea_lga":"Southern Mallee (DC)","address":"Day Street","suburb":"Pinnaroo","state":"South Australia","spatialconfidence":"5","revised":1423699200000,"comment":null}},{"type":"Feature","id":340,"geometry":{"type":"Point","coordinates":[134.21200800000008,-32.79597299914041]},"properties":{"objectid":340,"featuretype":"Council Office","description":"A facility where a Local Government\u00e2\u20ac\u2122s main council operations are regularly performed","class":"Council Office","sdedist.spool.NationalLGACouncilOffices_New.fid":"340","name":"District Council of Streaky Bay","operationalstatus":"Operational","localgovernmentarea_lga":"Streaky Bay (DC)","address":"29 Alfred Terrace","suburb":"Streaky Bay","state":"South Australia","spatialconfidence":"5","revised":1423699200000,"comment":null}},{"type":"Feature","id":341,"geometry":{"type":"Point","coordinates":[140.77329600000007,-36.31081999909935]},"properties":{"objectid":341,"featuretype":"Council Office","description":"A facility where a Local Government\u00e2\u20ac\u2122s main council operations are regularly performed","class":"Council Office","sdedist.spool.NationalLGACouncilOffices_New.fid":"341","name":"Tatiara District Council","operationalstatus":"Operational","localgovernmentarea_lga":"Tatiara (DC)","address":"43 Woolshed Street","suburb":"Bordertown","state":"South Australia","spatialconfidence":"5","revised":1423699200000,"comment":null}},{"type":"Feature","id":342,"geometry":{"type":"Point","coordinates":[138.69023200000004,-34.828333999115074]},"properties":{"objectid":342,"featuretype":"Council Office","description":"A facility where a Local Government\u00e2\u20ac\u2122s main council operations are regularly performed","class":"Council Office","sdedist.spool.NationalLGACouncilOffices_New.fid":"342","name":"City of Tea Tree Gully Council","operationalstatus":"Operational","localgovernmentarea_lga":"Tea Tree Gully (C)","address":"571 Montague Road","suburb":"Modbury","state":"South Australia","spatialconfidence":"5","revised":1423699200000,"comment":null}},{"type":"Feature","id":343,"geometry":{"type":"Point","coordinates":[136.10066500000005,-34.37606399912027]},"properties":{"objectid":343,"featuretype":"Council Office","description":"A facility where a Local Government\u00e2\u20ac\u2122s main council operations are regularly performed","class":"Council Office","sdedist.spool.NationalLGACouncilOffices_New.fid":"343","name":"District Council of Tumby Bay","operationalstatus":"Operational","localgovernmentarea_lga":"Tumby Bay (DC)","address":"Corner West Terrace and Mortlock Street","suburb":"Tumby Bay","state":"South Australia","spatialconfidence":"5","revised":1423699200000,"comment":null}},{"type":"Feature","id":344,"geometry":{"type":"Point","coordinates":[138.60781400000008,-34.95068599911366]},"properties":{"objectid":344,"featuretype":"Council Office","description":"A facility where a Local Government\u00e2\u20ac\u2122s main council operations are regularly performed","class":"Council Office","sdedist.spool.NationalLGACouncilOffices_New.fid":"344","name":"City of Unley","operationalstatus":"Operational","localgovernmentarea_lga":"Unley (C)","address":"181 Unley Road","suburb":"Unley","state":"South Australia","spatialconfidence":"5","revised":1423699200000,"comment":null}},{"type":"Feature","id":345,"geometry":{"type":"Point","coordinates":[138.6110440000001,-35.55721699910704]},"properties":{"objectid":345,"featuretype":"Council Office","description":"A facility where a Local Government\u00e2\u20ac\u2122s main council operations are regularly performed","class":"Council Office","sdedist.spool.NationalLGACouncilOffices_New.fid":"345","name":"City of Victor Harbor","operationalstatus":"Operational","localgovernmentarea_lga":"Victor Harbor (C)","address":"1 Bay Road","suburb":"Victor Harbor","state":"South Australia","spatialconfidence":"5","revised":1423699200000,"comment":null}},{"type":"Feature","id":346,"geometry":{"type":"Point","coordinates":[138.4130550000001,-34.14611399912308]},"properties":{"objectid":346,"featuretype":"Council Office","description":"A facility where a Local Government\u00e2\u20ac\u2122s main council operations are regularly performed","class":"Council Office","sdedist.spool.NationalLGACouncilOffices_New.fid":"346","name":"Wakefield Regional Council","operationalstatus":"Operational","localgovernmentarea_lga":"Wakefield (DC)","address":"Scotland Street","suburb":"Balaklava","state":"South Australia","spatialconfidence":"5","revised":1423699200000,"comment":null}},{"type":"Feature","id":347,"geometry":{"type":"Point","coordinates":[138.61458900000002,-34.89753599911425]},"properties":{"objectid":347,"featuretype":"Council Office","description":"A facility where a Local Government\u00e2\u20ac\u2122s main council operations are regularly performed","class":"Council Office","sdedist.spool.NationalLGACouncilOffices_New.fid":"347","name":"Town of Walkerville","operationalstatus":"Operational","localgovernmentarea_lga":"Walkerville (M)","address":"66 Walkerville Terrace","suburb":"Gilberton","state":"South Australia","spatialconfidence":"5","revised":1423699200000,"comment":null}},{"type":"Feature","id":348,"geometry":{"type":"Point","coordinates":[140.35018300000002,-37.5929299990877]},"properties":{"objectid":348,"featuretype":"Council Office","description":"A facility where a Local Government\u00e2\u20ac\u2122s main council operations are regularly performed","class":"Council Office","sdedist.spool.NationalLGACouncilOffices_New.fid":"348","name":"Wattle Range Council - Headquarters","operationalstatus":"Operational","localgovernmentarea_lga":"Wattle Range (DC)","address":"George Street","suburb":"Millicent","state":"South Australia","spatialconfidence":"5","revised":1423699200000,"comment":null}},{"type":"Feature","id":349,"geometry":{"type":"Point","coordinates":[140.01336700000002,-37.480283999088655]},"properties":{"objectid":349,"featuretype":"Council Office","description":"A facility where a Local Government\u00e2\u20ac\u2122s main council operations are regularly performed","class":"Council Office","sdedist.spool.NationalLGACouncilOffices_New.fid":"349","name":"Wattle Range Council - Beachport Office","operationalstatus":"Operational","localgovernmentarea_lga":"Wattle Range (DC)","address":"Millicent Road","suburb":"Beachport","state":"South Australia","spatialconfidence":"5","revised":1423699200000,"comment":null}},{"type":"Feature","id":350,"geometry":{"type":"Point","coordinates":[140.83782600000006,-37.3776539990895]},"properties":{"objectid":350,"featuretype":"Council Office","description":"A facility where a Local Government\u00e2\u20ac\u2122s main council operations are regularly performed","class":"Council Office","sdedist.spool.NationalLGACouncilOffices_New.fid":"350","name":"Wattle Range Council - Penola Office","operationalstatus":"Operational","localgovernmentarea_lga":"Wattle Range (DC)","address":"27 Arthur Street","suburb":"Penola","state":"South Australia","spatialconfidence":"5","revised":1423699200000,"comment":null}},{"type":"Feature","id":351,"geometry":{"type":"Point","coordinates":[138.56194100000005,-34.932468999113865]},"properties":{"objectid":351,"featuretype":"Council Office","description":"A facility where a Local Government\u00e2\u20ac\u2122s main council operations are regularly performed","class":"Council Office","sdedist.spool.NationalLGACouncilOffices_New.fid":"351","name":"City of West Torrens","operationalstatus":"Operational","localgovernmentarea_lga":"West Torrens (C)","address":"165 Sir Donald Bradman Drive","suburb":"Hilton","state":"South Australia","spatialconfidence":"5","revised":1423699200000,"comment":null}},{"type":"Feature","id":352,"geometry":{"type":"Point","coordinates":[138.35083600000007,-35.45722499910806]},"properties":{"objectid":352,"featuretype":"Council Office","description":"A facility where a Local Government\u00e2\u20ac\u2122s main council operations are regularly performed","class":"Council Office","sdedist.spool.NationalLGACouncilOffices_New.fid":"352","name":"District Council of Yankalilla","operationalstatus":"Operational","localgovernmentarea_lga":"Yankalilla (DC)","address":"1 Charles Street","suburb":"Yankalilla","state":"South Australia","spatialconfidence":"5","revised":1423699200000,"comment":null}},{"type":"Feature","id":353,"geometry":{"type":"Point","coordinates":[137.67523700000004,-34.37496899912033]},"properties":{"objectid":353,"featuretype":"Council Office","description":"A facility where a Local Government\u00e2\u20ac\u2122s main council operations are regularly performed","class":"Council Office","sdedist.spool.NationalLGACouncilOffices_New.fid":"353","name":"District Council of Yorke Peninsula","operationalstatus":"Operational","localgovernmentarea_lga":"Yorke Peninsula (DC)","address":"8 Elizabeth Street","suburb":"Maitland","state":"South Australia","spatialconfidence":"5","revised":1423699200000,"comment":null}},{"type":"Feature","id":354,"geometry":{"type":"Point","coordinates":[137.585415,-33.03446799913721]},"properties":{"objectid":354,"featuretype":"Council Office","description":"A facility where a Local Government\u00e2\u20ac\u2122s main council operations are regularly performed","class":"Council Office","sdedist.spool.NationalLGACouncilOffices_New.fid":"354","name":"Whyalla City Council","operationalstatus":"Operational","localgovernmentarea_lga":"Whyalla (C)","address":"Darling Terrace","suburb":"Whyalla","state":"South Australia","spatialconfidence":"5","revised":1417564800000,"comment":null}}],"metadata":{"title":"South Australia LGA Council Offices","source":"Geoscience Australia \u2014 National LGA Council Offices","source_url":"https://services.ga.gov.au/gis/rest/services/Local_Government_Area_Council_Offices/MapServer/0","licence":"CC BY 4.0","attribution":"Commonwealth of Australia (Geoscience Australia) 2015","vintage":"2018"}}