{"type":"FeatureCollection","features":[{"type":"Feature","id":168,"geometry":{"type":"Point","coordinates":[133.88215800000012,-23.701804999304837]},"properties":{"objectid":168,"featuretype":"Council Office","description":"A facility where a Local Government\u00e2\u20ac\u2122s main council operations are regularly performed","class":"Council Office","sdedist.spool.NationalLGACouncilOffices_New.fid":"168","name":"Alice Springs Council","operationalstatus":"Operational","localgovernmentarea_lga":"Alice Springs (T)","address":"93 Todd Street","suburb":"Alice Springs","state":"Northern Territory","spatialconfidence":"4","revised":1399852800000,"comment":null}},{"type":"Feature","id":169,"geometry":{"type":"Point","coordinates":[134.19626600000004,-19.646418999401874]},"properties":{"objectid":169,"featuretype":"Council Office","description":"A facility where a Local Government\u00e2\u20ac\u2122s main council operations are regularly performed","class":"Council Office","sdedist.spool.NationalLGACouncilOffices_New.fid":"169","name":"Barkly Regional Council","operationalstatus":"Operational","localgovernmentarea_lga":"Barkly (R)","address":"41 Peko Road","suburb":"Tennant Creek","state":"Northern Territory","spatialconfidence":"5","revised":1418428800000,"comment":null}},{"type":"Feature","id":170,"geometry":{"type":"Point","coordinates":[130.87204800000006,-12.42578899960294]},"properties":{"objectid":170,"featuretype":"Council Office","description":"A facility where a Local Government\u00e2\u20ac\u2122s main council operations are regularly performed","class":"Council Office","sdedist.spool.NationalLGACouncilOffices_New.fid":"170","name":"West Arnhem Regional Council - Darwin","operationalstatus":"Operational","localgovernmentarea_lga":"Belyuen (S)","address":"Terminal One Building  396 Stuart Highway","suburb":"Winnellie","state":"Northern Territory","spatialconfidence":"4","revised":1418428800000,"comment":null}},{"type":"Feature","id":171,"geometry":{"type":"Point","coordinates":[133.87929500000007,-23.70707899930471]},"properties":{"objectid":171,"featuretype":"Council Office","description":"A facility where a Local Government\u00e2\u20ac\u2122s main council operations are regularly performed","class":"Council Office","sdedist.spool.NationalLGACouncilOffices_New.fid":"171","name":"Central Desert Shire Council - Alice Springs","operationalstatus":"Operational","localgovernmentarea_lga":"Central Desert (R)","address":"1 Bagot Street","suburb":"Gillen","state":"Northern Territory","spatialconfidence":"4","revised":1418428800000,"comment":null}},{"type":"Feature","id":172,"geometry":{"type":"Point","coordinates":[130.982118,-12.478446999601376]},"properties":{"objectid":172,"featuretype":"Council Office","description":"A facility where a Local Government\u00e2\u20ac\u2122s main council operations are regularly performed","class":"Council Office","sdedist.spool.NationalLGACouncilOffices_New.fid":"172","name":"Palmerston City Council","operationalstatus":"Operational","localgovernmentarea_lga":"Palmerston (C)","address":"2 Chung Wah Terrace","suburb":"Palmerston","state":"Northern Territory","spatialconfidence":"2","revised":1418428800000,"comment":null}},{"type":"Feature","id":173,"geometry":{"type":"Point","coordinates":[131.03430500000002,-13.051931999584312]},"properties":{"objectid":173,"featuretype":"Council Office","description":"A facility where a Local Government\u00e2\u20ac\u2122s main council operations are regularly performed","class":"Council Office","sdedist.spool.NationalLGACouncilOffices_New.fid":"173","name":"Coomalie Community Government Council","operationalstatus":"Operational","localgovernmentarea_lga":"Coomalie (S)","address":"141 Cameron Road","suburb":"Batchelor","state":"Northern Territory","spatialconfidence":"2","revised":1418428800000,"comment":null}},{"type":"Feature","id":174,"geometry":{"type":"Point","coordinates":[130.84557400000006,-12.464353999601789]},"properties":{"objectid":174,"featuretype":"Council Office","description":"A facility where a Local Government\u00e2\u20ac\u2122s main council operations are regularly performed","class":"Council Office","sdedist.spool.NationalLGACouncilOffices_New.fid":"174","name":"Darwin City Council","operationalstatus":"Operational","localgovernmentarea_lga":"Darwin (C)","address":"17 Harry Chan Avenue","suburb":"Darwin","state":"Northern Territory","spatialconfidence":"3","revised":1418428800000,"comment":null}},{"type":"Feature","id":175,"geometry":{"type":"Point","coordinates":[136.78641900000002,-12.183948999610156]},"properties":{"objectid":175,"featuretype":"Council Office","description":"A facility where a Local Government\u00e2\u20ac\u2122s main council operations are regularly performed","class":"Council Office","sdedist.spool.NationalLGACouncilOffices_New.fid":"175","name":"East Arnhem Regional Council","operationalstatus":"Operational","localgovernmentarea_lga":"East Arnhem (R)","address":"Corner Chesterfield Circuit and Franklyn Street","suburb":"Nhulunbuy","state":"Northern Territory","spatialconfidence":"2","revised":1418428800000,"comment":null}},{"type":"Feature","id":176,"geometry":{"type":"Point","coordinates":[132.26375200000007,-14.466209999542949]},"properties":{"objectid":176,"featuretype":"Council Office","description":"A facility where a Local Government\u00e2\u20ac\u2122s main council operations are regularly performed","class":"Council Office","sdedist.spool.NationalLGACouncilOffices_New.fid":"176","name":"Katherine Town Council","operationalstatus":"Operational","localgovernmentarea_lga":"Katherine (T)","address":"1865 Stuart Highway","suburb":"Katherine","state":"Northern Territory","spatialconfidence":"1","revised":1418428800000,"comment":null}},{"type":"Feature","id":177,"geometry":{"type":"Point","coordinates":[131.05648100000008,-12.53989899959951]},"properties":{"objectid":177,"featuretype":"Council Office","description":"A facility where a Local Government\u00e2\u20ac\u2122s main council operations are regularly performed","class":"Council Office","sdedist.spool.NationalLGACouncilOffices_New.fid":"177","name":"Litchfield Council","operationalstatus":"Operational","localgovernmentarea_lga":"Litchfield (M)","address":"7 Bees Creek Road","suburb":"Freds Pass","state":"Northern Territory","spatialconfidence":"2","revised":1418428800000,"comment":null}},{"type":"Feature","id":178,"geometry":{"type":"Point","coordinates":[133.87929500000007,-23.70707899930471]},"properties":{"objectid":178,"featuretype":"Council Office","description":"A facility where a Local Government\u00e2\u20ac\u2122s main council operations are regularly performed","class":"Council Office","sdedist.spool.NationalLGACouncilOffices_New.fid":"178","name":"MacDonnell Regional Council - Alice Springs","operationalstatus":"Operational","localgovernmentarea_lga":"MacDonnell (R)","address":"Corner Bagot Street and South Terrace","suburb":"Alice Springs","state":"Northern Territory","spatialconfidence":"4","revised":1418428800000,"comment":null}},{"type":"Feature","id":179,"geometry":{"type":"Point","coordinates":[132.28736700000002,-14.476765999542653]},"properties":{"objectid":179,"featuretype":"Council Office","description":"A facility where a Local Government\u00e2\u20ac\u2122s main council operations are regularly performed","class":"Council Office","sdedist.spool.NationalLGACouncilOffices_New.fid":"179","name":"Roper Gulf Regional Council - Katherine","operationalstatus":"Operational","localgovernmentarea_lga":"Roper Gulf (R)","address":"29 Crawford Street","suburb":"Katherine","state":"Northern Territory","spatialconfidence":"3","revised":1418428800000,"comment":null}},{"type":"Feature","id":180,"geometry":{"type":"Point","coordinates":[130.63624300000004,-11.75916199962298]},"properties":{"objectid":180,"featuretype":"Council Office","description":"A facility where a Local Government\u00e2\u20ac\u2122s main council operations are regularly performed","class":"Council Office","sdedist.spool.NationalLGACouncilOffices_New.fid":"180","name":"Tiwi Islands Regional Council","operationalstatus":"Operational","localgovernmentarea_lga":"Tiwi Islands (R)","address":"116-120 Coonawarra Road","suburb":"Winnellie","state":"Northern Territory","spatialconfidence":"1","revised":1418428800000,"comment":null}},{"type":"Feature","id":181,"geometry":{"type":"Point","coordinates":[132.26417800000002,-14.46650599954299]},"properties":{"objectid":181,"featuretype":"Council Office","description":"A facility where a Local Government\u00e2\u20ac\u2122s main council operations are regularly performed","class":"Council Office","sdedist.spool.NationalLGACouncilOffices_New.fid":"181","name":"Victoria Daly Council - Katherine","operationalstatus":"Operational","localgovernmentarea_lga":"Victoria Daly (R)","address":"14 Katherine Terrace","suburb":"Katherine","state":"Northern Territory","spatialconfidence":"2","revised":1418428800000,"comment":null}},{"type":"Feature","id":182,"geometry":{"type":"Point","coordinates":[130.74835426100003,-12.435260532602666]},"properties":{"objectid":182,"featuretype":"Council Office","description":"A facility where a Local Government\u00e2\u20ac\u2122s main council operations are regularly performed","class":"Council Office","sdedist.spool.NationalLGACouncilOffices_New.fid":"182","name":"Wagait Shire Council","operationalstatus":"Operational","localgovernmentarea_lga":"Wagait (S)","address":"142 Wagait Tower Road","suburb":"Wagait Beach","state":"Northern Territory","spatialconfidence":"3","revised":1418601600000,"comment":null}},{"type":"Feature","id":183,"geometry":{"type":"Point","coordinates":[132.83277800000008,-12.672232999595568]},"properties":{"objectid":183,"featuretype":"Council Office","description":"A facility where a Local Government\u00e2\u20ac\u2122s main council operations are regularly performed","class":"Council Office","sdedist.spool.NationalLGACouncilOffices_New.fid":"183","name":"West Arnhem Regional Council","operationalstatus":"Operational","localgovernmentarea_lga":"West Arnhem (R)","address":"13 Tasman Crescent","suburb":"Jabiru","state":"Northern Territory","spatialconfidence":"4","revised":1417564800000,"comment":null}},{"type":"Feature","id":626,"geometry":{"type":"Point","coordinates":[129.52077936000012,-14.241492993549453]},"properties":{"objectid":626,"featuretype":"Council Office","description":"A facility where a Local Government\u00e2\u20ac\u2122s main council operations are regularly performed","class":"Council Office","sdedist.spool.NationalLGACouncilOffices_New.fid":"626","name":"West Daly Regional Council","operationalstatus":"Operational","localgovernmentarea_lga":"West Daly (R)","address":null,"suburb":"Wadeye","state":"Northern Territory","spatialconfidence":"1","revised":1418428800000,"comment":null}}],"metadata":{"title":"Northern Territory LGA Council Offices","source":"Geoscience Australia \u2014 National LGA Council Offices","source_url":"https://services.ga.gov.au/gis/rest/services/Local_Government_Area_Council_Offices/MapServer/0","licence":"CC BY 4.0","attribution":"Commonwealth of Australia (Geoscience Australia) 2015","vintage":"2018"}}