{"type":"FeatureCollection","features":[{"type":"Feature","id":184,"geometry":{"type":"Point","coordinates":[141.72828600000003,-13.358976999575267]},"properties":{"objectid":184,"featuretype":"Council Office","description":"A facility where a Local Government\u00e2\u20ac\u2122s main council operations are regularly performed","class":"Council Office","sdedist.spool.NationalLGACouncilOffices_New.fid":"184","name":"Aurukun Shire Council","operationalstatus":"Operational","localgovernmentarea_lga":"Aurukun (S)","address":"39 Kang Kang Road","suburb":"Aurukun","state":"Queensland","spatialconfidence":"3","revised":1418688000000,"comment":null}},{"type":"Feature","id":185,"geometry":{"type":"Point","coordinates":[148.58062900000004,-28.03686999921658]},"properties":{"objectid":185,"featuretype":"Council Office","description":"A facility where a Local Government\u00e2\u20ac\u2122s main council operations are regularly performed","class":"Council Office","sdedist.spool.NationalLGACouncilOffices_New.fid":"185","name":"Balonne Shire Council","operationalstatus":"Operational","localgovernmentarea_lga":"Balonne (S)","address":"Carnarvon Highway","suburb":"St George","state":"Queensland","spatialconfidence":"5","revised":1417478400000,"comment":null}},{"type":"Feature","id":186,"geometry":{"type":"Point","coordinates":[150.52074500000003,-24.410834999289243]},"properties":{"objectid":186,"featuretype":"Council Office","description":"A facility where a Local Government\u00e2\u20ac\u2122s main council operations are regularly performed","class":"Council Office","sdedist.spool.NationalLGACouncilOffices_New.fid":"186","name":"Banana Shire Council - Biloela Office","operationalstatus":"Operational","localgovernmentarea_lga":"Banana (S)","address":"62 Valentine Plains Road","suburb":"Biloela","state":"Queensland","spatialconfidence":"3","revised":1418688000000,"comment":null}},{"type":"Feature","id":187,"geometry":{"type":"Point","coordinates":[149.9752860000001,-24.56767099928586]},"properties":{"objectid":187,"featuretype":"Council Office","description":"A facility where a Local Government\u00e2\u20ac\u2122s main council operations are regularly performed","class":"Council Office","sdedist.spool.NationalLGACouncilOffices_New.fid":"187","name":"Banana Shire Council - Moura Office","operationalstatus":"Operational","localgovernmentarea_lga":"Banana (S)","address":"Gillespie Street","suburb":"Moura","state":"Queensland","spatialconfidence":"1","revised":1418688000000,"comment":null}},{"type":"Feature","id":188,"geometry":{"type":"Point","coordinates":[149.7941770000001,-25.64171399926324]},"properties":{"objectid":188,"featuretype":"Council Office","description":"A facility where a Local Government\u00e2\u20ac\u2122s main council operations are regularly performed","class":"Council Office","sdedist.spool.NationalLGACouncilOffices_New.fid":"188","name":"Banana Shire Council - Taroom Office","operationalstatus":"Operational","localgovernmentarea_lga":"Banana (S)","address":"Yaldwyn Street","suburb":"Taroom","state":"Queensland","spatialconfidence":"1","revised":1418688000000,"comment":null}},{"type":"Feature","id":189,"geometry":{"type":"Point","coordinates":[145.28943200000003,-23.553934999308126]},"properties":{"objectid":189,"featuretype":"Council Office","description":"A facility where a Local Government\u00e2\u20ac\u2122s main council operations are regularly performed","class":"Council Office","sdedist.spool.NationalLGACouncilOffices_New.fid":"189","name":"Barcaldine Regional Council","operationalstatus":"Operational","localgovernmentarea_lga":"Barcaldine (R)","address":"71 Ash Street","suburb":"Barcaldine","state":"Queensland","spatialconfidence":"3","revised":1418774400000,"comment":null}},{"type":"Feature","id":190,"geometry":{"type":"Point","coordinates":[143.05889600000012,-24.833431999280165]},"properties":{"objectid":190,"featuretype":"Council Office","description":"A facility where a Local Government\u00e2\u20ac\u2122s main council operations are regularly performed","class":"Council Office","sdedist.spool.NationalLGACouncilOffices_New.fid":"190","name":"Barcoo Shire Council","operationalstatus":"Operational","localgovernmentarea_lga":"Barcoo (S)","address":"6 Perkins Street","suburb":"Jundah","state":"Queensland","spatialconfidence":"3","revised":1418774400000,"comment":null}},{"type":"Feature","id":191,"geometry":{"type":"Point","coordinates":[145.46345300000007,-24.422553999288958]},"properties":{"objectid":191,"featuretype":"Council Office","description":"A facility where a Local Government\u00e2\u20ac\u2122s main council operations are regularly performed","class":"Council Office","sdedist.spool.NationalLGACouncilOffices_New.fid":"191","name":"Blackall-Tambo Regional Council","operationalstatus":"Operational","localgovernmentarea_lga":"Blackall-Tambo (R)","address":"6 Coronation Drive","suburb":"Blackall","state":"Queensland","spatialconfidence":"3","revised":1418774400000,"comment":null}},{"type":"Feature","id":192,"geometry":{"type":"Point","coordinates":[139.9066170000001,-22.909100999322742]},"properties":{"objectid":192,"featuretype":"Council Office","description":"A facility where a Local Government\u00e2\u20ac\u2122s main council operations are regularly performed","class":"Council Office","sdedist.spool.NationalLGACouncilOffices_New.fid":"192","name":"Boulia Shire Council","operationalstatus":"Operational","localgovernmentarea_lga":"Boulia (S)","address":"1 Herbert Street","suburb":"Boulia","state":"Queensland","spatialconfidence":"1","revised":1418774400000,"comment":null}},{"type":"Feature","id":193,"geometry":{"type":"Point","coordinates":[153.02258600000005,-27.4706879992271]},"properties":{"objectid":193,"featuretype":"Council Office","description":"A facility where a Local Government\u00e2\u20ac\u2122s main council operations are regularly performed","class":"Council Office","sdedist.spool.NationalLGACouncilOffices_New.fid":"193","name":"Brisbane City Council","operationalstatus":"Operational","localgovernmentarea_lga":"Brisbane (C)","address":"266 George Street","suburb":"Brisbane","state":"Queensland","spatialconfidence":"5","revised":1418774400000,"comment":null}},{"type":"Feature","id":194,"geometry":{"type":"Point","coordinates":[143.82161000000008,-27.99678099921729]},"properties":{"objectid":194,"featuretype":"Council Office","description":"A facility where a Local Government\u00e2\u20ac\u2122s main council operations are regularly performed","class":"Council Office","sdedist.spool.NationalLGACouncilOffices_New.fid":"194","name":"Bulloo Shire Council","operationalstatus":"Operational","localgovernmentarea_lga":"Bulloo (S)","address":"53 Dowling Street","suburb":"Thargomindah","state":"Queensland","spatialconfidence":"1","revised":1418947200000,"comment":null}},{"type":"Feature","id":195,"geometry":{"type":"Point","coordinates":[152.34791000000007,-24.866663999279442]},"properties":{"objectid":195,"featuretype":"Council Office","description":"A facility where a Local Government\u00e2\u20ac\u2122s main council operations are regularly performed","class":"Council Office","sdedist.spool.NationalLGACouncilOffices_New.fid":"195","name":"Bundaberg Regional Council","operationalstatus":"Operational","localgovernmentarea_lga":"Bundaberg (R)","address":"190 Bourbong Street","suburb":"Bundaberg","state":"Queensland","spatialconfidence":"5","revised":1418947200000,"comment":null}},{"type":"Feature","id":196,"geometry":{"type":"Point","coordinates":[147.4062,-19.57725699940364]},"properties":{"objectid":196,"featuretype":"Council Office","description":"A facility where a Local Government\u00e2\u20ac\u2122s main council operations are regularly performed","class":"Council Office","sdedist.spool.NationalLGACouncilOffices_New.fid":"196","name":"Burdekin Shire Council","operationalstatus":"Operational","localgovernmentarea_lga":"Burdekin (S)","address":"145 Young Street","suburb":"Ayr","state":"Queensland","spatialconfidence":"5","revised":1418947200000,"comment":null}},{"type":"Feature","id":197,"geometry":{"type":"Point","coordinates":[139.54686900000002,-17.741224999451678]},"properties":{"objectid":197,"featuretype":"Council Office","description":"A facility where a Local Government\u00e2\u20ac\u2122s main council operations are regularly performed","class":"Council Office","sdedist.spool.NationalLGACouncilOffices_New.fid":"197","name":"Burke Shire Council","operationalstatus":"Operational","localgovernmentarea_lga":"Burke (S)","address":"LOT 65 Musgrave Street","suburb":"Burketown","state":"Queensland","spatialconfidence":"3","revised":1418947200000,"comment":null}},{"type":"Feature","id":198,"geometry":{"type":"Point","coordinates":[145.7701800000001,-16.930262999473687]},"properties":{"objectid":198,"featuretype":"Council Office","description":"A facility where a Local Government\u00e2\u20ac\u2122s main council operations are regularly performed","class":"Council Office","sdedist.spool.NationalLGACouncilOffices_New.fid":"198","name":"Cairns Regional Council","operationalstatus":"Operational","localgovernmentarea_lga":"Cairns (R)","address":"119-145 Spence Street","suburb":"Cairns","state":"Queensland","spatialconfidence":"5","revised":1418947200000,"comment":null}},{"type":"Feature","id":199,"geometry":{"type":"Point","coordinates":[141.0801150000001,-17.668660999453632]},"properties":{"objectid":199,"featuretype":"Council Office","description":"A facility where a Local Government\u00e2\u20ac\u2122s main council operations are regularly performed","class":"Council Office","sdedist.spool.NationalLGACouncilOffices_New.fid":"199","name":"Carpentaria Shire Council","operationalstatus":"Operational","localgovernmentarea_lga":"Carpentaria (S)","address":"LOT 33 Haig Street","suburb":"Normanton","state":"Queensland","spatialconfidence":"5","revised":1418947200000,"comment":null}},{"type":"Feature","id":200,"geometry":{"type":"Point","coordinates":[146.03015400000004,-17.523057999457553]},"properties":{"objectid":200,"featuretype":"Council Office","description":"A facility where a Local Government\u00e2\u20ac\u2122s main council operations are regularly performed","class":"Council Office","sdedist.spool.NationalLGACouncilOffices_New.fid":"200","name":"Cassowary Coast Regional Council - Innisfail Office","operationalstatus":"Operational","localgovernmentarea_lga":"Cassowary Coast (R)","address":"70 Rankin Street","suburb":"Innisfail","state":"Queensland","spatialconfidence":"3","revised":1418947200000,"comment":null}},{"type":"Feature","id":201,"geometry":{"type":"Point","coordinates":[145.92324600000006,-17.935443999446516]},"properties":{"objectid":201,"featuretype":"Council Office","description":"A facility where a Local Government\u00e2\u20ac\u2122s main council operations are regularly performed","class":"Council Office","sdedist.spool.NationalLGACouncilOffices_New.fid":"201","name":"Cassowary Coast Regional Council - Tully Office","operationalstatus":"Operational","localgovernmentarea_lga":"Cassowary Coast (R)","address":"38-40 Bryant Street","suburb":"Tully","state":"Queensland","spatialconfidence":"5","revised":1418947200000,"comment":null}},{"type":"Feature","id":202,"geometry":{"type":"Point","coordinates":[148.1614390000001,-23.525315999308784]},"properties":{"objectid":202,"featuretype":"Council Office","description":"A facility where a Local Government\u00e2\u20ac\u2122s main council operations are regularly performed","class":"Council Office","sdedist.spool.NationalLGACouncilOffices_New.fid":"202","name":"Central Highlands Regional Council - Emerald Office","operationalstatus":"Operational","localgovernmentarea_lga":"Central Highlands (R)","address":"Corner Egerton Street and Borilla Street","suburb":"Emerald","state":"Queensland","spatialconfidence":"5","revised":1418947200000,"comment":null}},{"type":"Feature","id":203,"geometry":{"type":"Point","coordinates":[148.8793730000001,-23.583719999307466]},"properties":{"objectid":203,"featuretype":"Council Office","description":"A facility where a Local Government\u00e2\u20ac\u2122s main council operations are regularly performed","class":"Council Office","sdedist.spool.NationalLGACouncilOffices_New.fid":"203","name":"Central Highlands Regional Council\u00a0- Blackwater Office","operationalstatus":"Operational","localgovernmentarea_lga":"Central Highlands (R)","address":"10 Mackenzie Street","suburb":"Blackwater","state":"Queensland","spatialconfidence":"3","revised":1418947200000,"comment":null}},{"type":"Feature","id":204,"geometry":{"type":"Point","coordinates":[148.02392200000008,-23.086382999318683]},"properties":{"objectid":204,"featuretype":"Council Office","description":"A facility where a Local Government\u00e2\u20ac\u2122s main council operations are regularly performed","class":"Council Office","sdedist.spool.NationalLGACouncilOffices_New.fid":"204","name":"Central Highlands Regional Council - Capella Office","operationalstatus":"Operational","localgovernmentarea_lga":"Central Highlands (R)","address":"4 Conran Street","suburb":"Capella","state":"Queensland","spatialconfidence":"3","revised":1418947200000,"comment":null}},{"type":"Feature","id":205,"geometry":{"type":"Point","coordinates":[149.67114600000002,-23.71793099930446]},"properties":{"objectid":205,"featuretype":"Council Office","description":"A facility where a Local Government\u00e2\u20ac\u2122s main council operations are regularly performed","class":"Council Office","sdedist.spool.NationalLGACouncilOffices_New.fid":"205","name":"Central Highlands Regional Council - Duaringa Office","operationalstatus":"Operational","localgovernmentarea_lga":"Central Highlands (R)","address":"12 William Street","suburb":"Duaringa","state":"Queensland","spatialconfidence":"3","revised":1418947200000,"comment":null}},{"type":"Feature","id":206,"geometry":{"type":"Point","coordinates":[148.08837200000005,-24.114325999295684]},"properties":{"objectid":206,"featuretype":"Council Office","description":"A facility where a Local Government\u00e2\u20ac\u2122s main council operations are regularly performed","class":"Council Office","sdedist.spool.NationalLGACouncilOffices_New.fid":"206","name":"Central Highlands Regional Council - Springsure Office","operationalstatus":"Operational","localgovernmentarea_lga":"Central Highlands (R)","address":"29 Eclipse Street","suburb":"Springsure","state":"Queensland","spatialconfidence":"3","revised":1418947200000,"comment":null}},{"type":"Feature","id":207,"geometry":{"type":"Point","coordinates":[146.25794100000007,-20.072595999391062]},"properties":{"objectid":207,"featuretype":"Council Office","description":"A facility where a Local Government\u00e2\u20ac\u2122s main council operations are regularly performed","class":"Council Office","sdedist.spool.NationalLGACouncilOffices_New.fid":"207","name":"Charters Towers Regional Council","operationalstatus":"Operational","localgovernmentarea_lga":"Charters Towers (R)","address":"12 Mosman Street","suburb":"Lissner","state":"Queensland","spatialconfidence":"5","revised":1418947200000,"comment":null}},{"type":"Feature","id":208,"geometry":{"type":"Point","coordinates":[151.95604000000003,-26.29039299925005]},"properties":{"objectid":208,"featuretype":"Council Office","description":"A facility where a Local Government\u00e2\u20ac\u2122s main council operations are regularly performed","class":"Council Office","sdedist.spool.NationalLGACouncilOffices_New.fid":"208","name":"Cherbourg Aboriginal Shire Council","operationalstatus":"Operational","localgovernmentarea_lga":"Cherbourg (S)","address":"22 Barambah Avenue","suburb":"Cherbourg","state":"Queensland","spatialconfidence":"3","revised":1418947200000,"comment":null}},{"type":"Feature","id":209,"geometry":{"type":"Point","coordinates":[140.50861600000007,-20.70536999937526]},"properties":{"objectid":209,"featuretype":"Council Office","description":"A facility where a Local Government\u00e2\u20ac\u2122s main council operations are regularly performed","class":"Council Office","sdedist.spool.NationalLGACouncilOffices_New.fid":"209","name":"Cloncurry Shire Council","operationalstatus":"Operational","localgovernmentarea_lga":"Cloncurry (S)","address":"19 Scarr Street","suburb":"Cloncurry","state":"Queensland","spatialconfidence":"5","revised":1418947200000,"comment":null}},{"type":"Feature","id":210,"geometry":{"type":"Point","coordinates":[145.2517610000001,-15.46967599951429]},"properties":{"objectid":210,"featuretype":"Council Office","description":"A facility where a Local Government\u00e2\u20ac\u2122s main council operations are regularly performed","class":"Council Office","sdedist.spool.NationalLGACouncilOffices_New.fid":"210","name":"Cook Shire Council","operationalstatus":"Operational","localgovernmentarea_lga":"Cook (S)","address":"10 Furneaux Street","suburb":"Cooktown","state":"Queensland","spatialconfidence":"5","revised":1418947200000,"comment":null}},{"type":"Feature","id":211,"geometry":{"type":"Point","coordinates":[142.24373900000012,-18.203517999439395]},"properties":{"objectid":211,"featuretype":"Council Office","description":"A facility where a Local Government\u00e2\u20ac\u2122s main council operations are regularly performed","class":"Council Office","sdedist.spool.NationalLGACouncilOffices_New.fid":"211","name":"Croydon Shire Council","operationalstatus":"Operational","localgovernmentarea_lga":"Croydon (S)","address":"63 Samwell Street","suburb":"Croydon","state":"Queensland","spatialconfidence":"3","revised":1418947200000,"comment":null}},{"type":"Feature","id":212,"geometry":{"type":"Point","coordinates":[139.47090000000003,-24.360150999290347]},"properties":{"objectid":212,"featuretype":"Council Office","description":"A facility where a Local Government\u00e2\u20ac\u2122s main council operations are regularly performed","class":"Council Office","sdedist.spool.NationalLGACouncilOffices_New.fid":"212","name":"Diamantina Shire Council","operationalstatus":"Operational","localgovernmentarea_lga":"Diamantina (S)","address":"17 Herbert Street","suburb":"Bedourie","state":"Queensland","spatialconfidence":"2","revised":1423180800000,"comment":null}},{"type":"Feature","id":213,"geometry":{"type":"Point","coordinates":[138.82600700000012,-17.942120999446303]},"properties":{"objectid":213,"featuretype":"Council Office","description":"A facility where a Local Government\u00e2\u20ac\u2122s main council operations are regularly performed","class":"Council Office","sdedist.spool.NationalLGACouncilOffices_New.fid":"213","name":"Doomadgee Aboriginal Shire Council","operationalstatus":"Operational","localgovernmentarea_lga":"Doomadgee (S)","address":"275 Sharpe Street","suburb":"Doomadgee","state":"Queensland","spatialconfidence":"2","revised":1423180800000,"comment":null}},{"type":"Feature","id":214,"geometry":{"type":"Point","coordinates":[145.37312300000008,-16.465772999486457]},"properties":{"objectid":214,"featuretype":"Council Office","description":"A facility where a Local Government\u00e2\u20ac\u2122s main council operations are regularly performed","class":"Council Office","sdedist.spool.NationalLGACouncilOffices_New.fid":"214","name":"Douglas Shire Council","operationalstatus":"Operational","localgovernmentarea_lga":"Douglas (S)","address":"64-66 Front Street","suburb":"Mossman","state":"Queensland","spatialconfidence":"3","revised":1423180800000,"comment":null}},{"type":"Feature","id":215,"geometry":{"type":"Point","coordinates":[143.54961400000002,-18.289690999437084]},"properties":{"objectid":215,"featuretype":"Council Office","description":"A facility where a Local Government\u00e2\u20ac\u2122s main council operations are regularly performed","class":"Council Office","sdedist.spool.NationalLGACouncilOffices_New.fid":"215","name":"Etheridge Shire Council","operationalstatus":"Operational","localgovernmentarea_lga":"Etheridge (S)","address":"St. George Street","suburb":"Georgetown","state":"Queensland","spatialconfidence":"2","revised":1423180800000,"comment":null}},{"type":"Feature","id":216,"geometry":{"type":"Point","coordinates":[144.20071900000005,-20.842191999371888]},"properties":{"objectid":216,"featuretype":"Council Office","description":"A facility where a Local Government\u00e2\u20ac\u2122s main council operations are regularly performed","class":"Council Office","sdedist.spool.NationalLGACouncilOffices_New.fid":"216","name":"Flinders Shire Council","operationalstatus":"Operational","localgovernmentarea_lga":"Flinders (S)","address":"34 Gray Street","suburb":"Hughenden","state":"Queensland","spatialconfidence":"3","revised":1423180800000,"comment":null}},{"type":"Feature","id":217,"geometry":{"type":"Point","coordinates":[152.86322400000006,-25.29438499927046]},"properties":{"objectid":217,"featuretype":"Council Office","description":"A facility where a Local Government\u00e2\u20ac\u2122s main council operations are regularly performed","class":"Council Office","sdedist.spool.NationalLGACouncilOffices_New.fid":"217","name":"Fraser Coast Regional Council","operationalstatus":"Operational","localgovernmentarea_lga":"Fraser Coast (R)","address":"77 Tavistock Street","suburb":"Torquay","state":"Queensland","spatialconfidence":"5","revised":1423180800000,"comment":null}},{"type":"Feature","id":218,"geometry":{"type":"Point","coordinates":[151.25543200000004,-23.843109999301685]},"properties":{"objectid":218,"featuretype":"Council Office","description":"A facility where a Local Government\u00e2\u20ac\u2122s main council operations are regularly performed","class":"Council Office","sdedist.spool.NationalLGACouncilOffices_New.fid":"218","name":"Gladstone Regional Council","operationalstatus":"Operational","localgovernmentarea_lga":"Gladstone (R)","address":"101 Goondoon Street","suburb":"Gladstone","state":"Queensland","spatialconfidence":"5","revised":1423180800000,"comment":null}},{"type":"Feature","id":219,"geometry":{"type":"Point","coordinates":[153.41540200000009,-28.001929999217218]},"properties":{"objectid":219,"featuretype":"Council Office","description":"A facility where a Local Government\u00e2\u20ac\u2122s main council operations are regularly performed","class":"Council Office","sdedist.spool.NationalLGACouncilOffices_New.fid":"219","name":"Gold Coast City Council","operationalstatus":"Operational","localgovernmentarea_lga":"Gold Coast (C)","address":"135 Bundall Road","suburb":"Bundall","state":"Queensland","spatialconfidence":"5","revised":1423180800000,"comment":null}},{"type":"Feature","id":220,"geometry":{"type":"Point","coordinates":[150.30622700000004,-28.547037999207305]},"properties":{"objectid":220,"featuretype":"Council Office","description":"A facility where a Local Government\u00e2\u20ac\u2122s main council operations are regularly performed","class":"Council Office","sdedist.spool.NationalLGACouncilOffices_New.fid":"220","name":"Goondiwindi Regional Council","operationalstatus":"Operational","localgovernmentarea_lga":"Goondiwindi (R)","address":"82 Marshall Street","suburb":"Goondiwindi","state":"Queensland","spatialconfidence":"5","revised":1423180800000,"comment":null}},{"type":"Feature","id":221,"geometry":{"type":"Point","coordinates":[152.65856500000007,-26.188601999252096]},"properties":{"objectid":221,"featuretype":"Council Office","description":"A facility where a Local Government\u00e2\u20ac\u2122s main council operations are regularly performed","class":"Council Office","sdedist.spool.NationalLGACouncilOffices_New.fid":"221","name":"Gympie Regional Council","operationalstatus":"Operational","localgovernmentarea_lga":"Gympie (R)","address":"242 Mary Street","suburb":"Gympie","state":"Queensland","spatialconfidence":"5","revised":1423180800000,"comment":null}},{"type":"Feature","id":222,"geometry":{"type":"Point","coordinates":[146.1542320000001,-18.650798999427586]},"properties":{"objectid":222,"featuretype":"Council Office","description":"A facility where a Local Government\u00e2\u20ac\u2122s main council operations are regularly performed","class":"Council Office","sdedist.spool.NationalLGACouncilOffices_New.fid":"222","name":"Hinchinbrook Shire Council","operationalstatus":"Operational","localgovernmentarea_lga":"Hinchinbrook (S)","address":"25 Lannercost Street","suburb":"Ingham","state":"Queensland","spatialconfidence":"5","revised":1423180800000,"comment":null}},{"type":"Feature","id":223,"geometry":{"type":"Point","coordinates":[145.10986100000002,-15.293739999519298]},"properties":{"objectid":223,"featuretype":"Council Office","description":"A facility where a Local Government\u00e2\u20ac\u2122s main council operations are regularly performed","class":"Council Office","sdedist.spool.NationalLGACouncilOffices_New.fid":"223","name":"Hope Vale Aboriginal Shire Council","operationalstatus":"Operational","localgovernmentarea_lga":"Hope Vale (S)","address":"Muni Street","suburb":"Hope Vale","state":"Queensland","spatialconfidence":"3","revised":1423180800000,"comment":null}},{"type":"Feature","id":224,"geometry":{"type":"Point","coordinates":[152.758732,-27.614014999224395]},"properties":{"objectid":224,"featuretype":"Council Office","description":"A facility where a Local Government\u00e2\u20ac\u2122s main council operations are regularly performed","class":"Council Office","sdedist.spool.NationalLGACouncilOffices_New.fid":"224","name":"Ipswich City Council","operationalstatus":"Operational","localgovernmentarea_lga":"Ipswich (C)","address":"143 Brisbane Street","suburb":"Ipswich","state":"Queensland","spatialconfidence":"5","revised":1423180800000,"comment":null}},{"type":"Feature","id":225,"geometry":{"type":"Point","coordinates":[147.64218100000005,-22.82525299932469]},"properties":{"objectid":225,"featuretype":"Council Office","description":"A facility where a Local Government\u00e2\u20ac\u2122s main council operations are regularly performed","class":"Council Office","sdedist.spool.NationalLGACouncilOffices_New.fid":"225","name":"Isaac Regional Council - Clermont Office","operationalstatus":"Operational","localgovernmentarea_lga":"Isaac (R)","address":"Corner Karmoo Street and Daintree Street","suburb":"Clermont","state":"Queensland","spatialconfidence":"5","revised":1423180800000,"comment":null}},{"type":"Feature","id":226,"geometry":{"type":"Point","coordinates":[148.351266,-22.588284999330114]},"properties":{"objectid":226,"featuretype":"Council Office","description":"A facility where a Local Government\u00e2\u20ac\u2122s main council operations are regularly performed","class":"Council Office","sdedist.spool.NationalLGACouncilOffices_New.fid":"226","name":"Isaac Regional Council - Dysart Office","operationalstatus":"Operational","localgovernmentarea_lga":"Isaac (R)","address":"Shannon Crescent","suburb":"Dysart","state":"Queensland","spatialconfidence":"2","revised":1423180800000,"comment":null}},{"type":"Feature","id":227,"geometry":{"type":"Point","coordinates":[148.11512700000003,-21.358354999359303]},"properties":{"objectid":227,"featuretype":"Council Office","description":"A facility where a Local Government\u00e2\u20ac\u2122s main council operations are regularly performed","class":"Council Office","sdedist.spool.NationalLGACouncilOffices_New.fid":"227","name":"Isaac Regional Council - Glenden Office","operationalstatus":"Operational","localgovernmentarea_lga":"Isaac (R)","address":"Ewan Drive","suburb":"Glenden","state":"Queensland","spatialconfidence":"2","revised":1423180800000,"comment":null}},{"type":"Feature","id":228,"geometry":{"type":"Point","coordinates":[148.6993440000001,-22.809637999325023]},"properties":{"objectid":228,"featuretype":"Council Office","description":"A facility where a Local Government\u00e2\u20ac\u2122s main council operations are regularly performed","class":"Council Office","sdedist.spool.NationalLGACouncilOffices_New.fid":"228","name":"Isaac Regional Council - Middlemount Office","operationalstatus":"Operational","localgovernmentarea_lga":"Isaac (R)","address":"Shopping Centre","suburb":"Middlemount","state":"Queensland","spatialconfidence":"1","revised":1423180800000,"comment":null}},{"type":"Feature","id":229,"geometry":{"type":"Point","coordinates":[148.04789900000003,-22.000123999343945]},"properties":{"objectid":229,"featuretype":"Council Office","description":"A facility where a Local Government\u00e2\u20ac\u2122s main council operations are regularly performed","class":"Council Office","sdedist.spool.NationalLGACouncilOffices_New.fid":"229","name":"Isaac Regional Council - Moranbah Office","operationalstatus":"Operational","localgovernmentarea_lga":"Isaac (R)","address":"Grosvenor Complex, Batchelor Parade","suburb":"Moranbah","state":"Queensland","spatialconfidence":"2","revised":1423180800000,"comment":null}},{"type":"Feature","id":230,"geometry":{"type":"Point","coordinates":[148.689296,-21.689054999351324]},"properties":{"objectid":230,"featuretype":"Council Office","description":"A facility where a Local Government\u00e2\u20ac\u2122s main council operations are regularly performed","class":"Council Office","sdedist.spool.NationalLGACouncilOffices_New.fid":"230","name":"Isaac Regional Council - Nebo Office","operationalstatus":"Operational","localgovernmentarea_lga":"Isaac (R)","address":"10 Reynolds Street","suburb":"Nebo","state":"Queensland","spatialconfidence":"3","revised":1423180800000,"comment":null}},{"type":"Feature","id":231,"geometry":{"type":"Point","coordinates":[149.53640900000005,-22.345942999335815]},"properties":{"objectid":231,"featuretype":"Council Office","description":"A facility where a Local Government\u00e2\u20ac\u2122s main council operations are regularly performed","class":"Council Office","sdedist.spool.NationalLGACouncilOffices_New.fid":"231","name":"Isaac Regional Council - St Lawrence Office","operationalstatus":"Operational","localgovernmentarea_lga":"Isaac (R)","address":"36 Macartney Street","suburb":"St Lawrence","state":"Queensland","spatialconfidence":"3","revised":1423180800000,"comment":null}},{"type":"Feature","id":232,"geometry":{"type":"Point","coordinates":[141.74606200000005,-15.472477999514243]},"properties":{"objectid":232,"featuretype":"Council Office","description":"A facility where a Local Government\u00e2\u20ac\u2122s main council operations are regularly performed","class":"Council Office","sdedist.spool.NationalLGACouncilOffices_New.fid":"232","name":"Kowanyama Aboriginal Shire Council","operationalstatus":"Operational","localgovernmentarea_lga":"Kowanyama (S)","address":null,"suburb":"Kowanyama","state":"Queensland","spatialconfidence":"1","revised":1423180800000,"comment":null}},{"type":"Feature","id":233,"geometry":{"type":"Point","coordinates":[150.7465820000001,-23.127982999317766]},"properties":{"objectid":233,"featuretype":"Council Office","description":"A facility where a Local Government\u00e2\u20ac\u2122s main council operations are regularly performed","class":"Council Office","sdedist.spool.NationalLGACouncilOffices_New.fid":"233","name":"Livingstone Shire Council","operationalstatus":"Operational","localgovernmentarea_lga":"Livingstone (S)","address":"25 Normanby Street","suburb":"Yeppoon","state":"Queensland","spatialconfidence":"5","revised":1423180800000,"comment":null}},{"type":"Feature","id":234,"geometry":{"type":"Point","coordinates":[145.75413000000003,-16.913595999474108]},"properties":{"objectid":234,"featuretype":"Council Office","description":"A facility where a Local Government\u00e2\u20ac\u2122s main council operations are regularly performed","class":"Council Office","sdedist.spool.NationalLGACouncilOffices_New.fid":"234","name":"Lockhart River Aboriginal Shire Council","operationalstatus":"Operational","localgovernmentarea_lga":"Lockhart River (S)","address":"7 Anderson Street","suburb":"Manunda","state":"Queensland","spatialconfidence":"5","revised":1423180800000,"comment":null}},{"type":"Feature","id":235,"geometry":{"type":"Point","coordinates":[152.2769340000001,-27.5574449992255]},"properties":{"objectid":235,"featuretype":"Council Office","description":"A facility where a Local Government\u00e2\u20ac\u2122s main council operations are regularly performed","class":"Council Office","sdedist.spool.NationalLGACouncilOffices_New.fid":"235","name":"Lockyer Valley Regional Council","operationalstatus":"Operational","localgovernmentarea_lga":"Lockyer Valley (R)","address":"26 Railway Street","suburb":"Gatton","state":"Queensland","spatialconfidence":"5","revised":1423180800000,"comment":null}},{"type":"Feature","id":236,"geometry":{"type":"Point","coordinates":[153.10403700000006,-27.642613999223908]},"properties":{"objectid":236,"featuretype":"Council Office","description":"A facility where a Local Government\u00e2\u20ac\u2122s main council operations are regularly performed","class":"Council Office","sdedist.spool.NationalLGACouncilOffices_New.fid":"236","name":"Logan City Council","operationalstatus":"Operational","localgovernmentarea_lga":"Logan (C)","address":"150 Wembley Road","suburb":"Logan Central","state":"Queensland","spatialconfidence":"5","revised":1423180800000,"comment":null}},{"type":"Feature","id":237,"geometry":{"type":"Point","coordinates":[144.25056500000005,-23.440820999310677]},"properties":{"objectid":237,"featuretype":"Council Office","description":"A facility where a Local Government\u00e2\u20ac\u2122s main council operations are regularly performed","class":"Council Office","sdedist.spool.NationalLGACouncilOffices_New.fid":"237","name":"Longreach Regional Council","operationalstatus":"Operational","localgovernmentarea_lga":"Longreach (R)","address":"96A Eagle Street","suburb":"Longreach","state":"Queensland","spatialconfidence":"4","revised":1423180800000,"comment":null}},{"type":"Feature","id":238,"geometry":{"type":"Point","coordinates":[149.18103800000006,-21.143455999364527]},"properties":{"objectid":238,"featuretype":"Council Office","description":"A facility where a Local Government\u00e2\u20ac\u2122s main council operations are regularly performed","class":"Council Office","sdedist.spool.NationalLGACouncilOffices_New.fid":"238","name":"Mackay Regional Council","operationalstatus":"Operational","localgovernmentarea_lga":"Mackay (R)","address":"73 Gordon Street","suburb":"Mackay","state":"Queensland","spatialconfidence":"5","revised":1423180800000,"comment":null}},{"type":"Feature","id":239,"geometry":{"type":"Point","coordinates":[141.9047280000001,-12.019822999615146]},"properties":{"objectid":239,"featuretype":"Council Office","description":"A facility where a Local Government\u00e2\u20ac\u2122s main council operations are regularly performed","class":"Council Office","sdedist.spool.NationalLGACouncilOffices_New.fid":"239","name":"Mapoon Aboriginal Shire Council","operationalstatus":"Operational","localgovernmentarea_lga":"Mapoon (S)","address":"Red Beach Road","suburb":"Mapoon","state":"Queensland","spatialconfidence":"1","revised":1423180800000,"comment":null}},{"type":"Feature","id":240,"geometry":{"type":"Point","coordinates":[148.78793700000006,-26.56898099924453]},"properties":{"objectid":240,"featuretype":"Council Office","description":"A facility where a Local Government\u00e2\u20ac\u2122s main council operations are regularly performed","class":"Council Office","sdedist.spool.NationalLGACouncilOffices_New.fid":"240","name":"Maranoa Regional Council","operationalstatus":"Operational","localgovernmentarea_lga":"Maranoa (R)","address":"Bungil Street","suburb":"Roma","state":"Queensland","spatialconfidence":"3","revised":1423180800000,"comment":null}},{"type":"Feature","id":241,"geometry":{"type":"Point","coordinates":[145.42473600000005,-16.996874999471842]},"properties":{"objectid":241,"featuretype":"Council Office","description":"A facility where a Local Government\u00e2\u20ac\u2122s main council operations are regularly performed","class":"Council Office","sdedist.spool.NationalLGACouncilOffices_New.fid":"241","name":"Mareeba Shire Council","operationalstatus":"Operational","localgovernmentarea_lga":"Mareeba (S)","address":"65 Rankin Street","suburb":"Mareeba","state":"Queensland","spatialconfidence":"5","revised":1423180800000,"comment":null}},{"type":"Feature","id":242,"geometry":{"type":"Point","coordinates":[141.74598300000002,-20.656857999376445]},"properties":{"objectid":242,"featuretype":"Council Office","description":"A facility where a Local Government\u00e2\u20ac\u2122s main council operations are regularly performed","class":"Council Office","sdedist.spool.NationalLGACouncilOffices_New.fid":"242","name":"McKinlay Shire Council","operationalstatus":"Operational","localgovernmentarea_lga":"McKinlay (S)","address":"29 Burke Street","suburb":"Julia Creek","state":"Queensland","spatialconfidence":"4","revised":1423180800000,"comment":null}},{"type":"Feature","id":243,"geometry":{"type":"Point","coordinates":[152.95151800000008,-27.08368899923447]},"properties":{"objectid":243,"featuretype":"Council Office","description":"A facility where a Local Government\u00e2\u20ac\u2122s main council operations are regularly performed","class":"Council Office","sdedist.spool.NationalLGACouncilOffices_New.fid":"243","name":"Moreton Bay Regional Council","operationalstatus":"Operational","localgovernmentarea_lga":"Moreton Bay (R)","address":"2 Hasking Street","suburb":"Caboolture","state":"Queensland","spatialconfidence":"4","revised":1423180800000,"comment":null}},{"type":"Feature","id":244,"geometry":{"type":"Point","coordinates":[139.18132200000002,-16.665789999480943]},"properties":{"objectid":244,"featuretype":"Council Office","description":"A facility where a Local Government\u00e2\u20ac\u2122s main council operations are regularly performed","class":"Council Office","sdedist.spool.NationalLGACouncilOffices_New.fid":"244","name":"Mornington Shire Council","operationalstatus":"Operational","localgovernmentarea_lga":"Mornington (S)","address":"Mission Road","suburb":"Gununa","state":"Queensland","spatialconfidence":"1","revised":1423180800000,"comment":null}},{"type":"Feature","id":245,"geometry":{"type":"Point","coordinates":[139.49007700000004,-20.72594599937476]},"properties":{"objectid":245,"featuretype":"Council Office","description":"A facility where a Local Government\u00e2\u20ac\u2122s main council operations are regularly performed","class":"Council Office","sdedist.spool.NationalLGACouncilOffices_New.fid":"245","name":"Mount Isa City Council","operationalstatus":"Operational","localgovernmentarea_lga":"Mount Isa (C)","address":"23 West Street","suburb":"Mount Isa","state":"Queensland","spatialconfidence":"5","revised":1423180800000,"comment":null}},{"type":"Feature","id":246,"geometry":{"type":"Point","coordinates":[146.23925300000008,-26.400119999247874]},"properties":{"objectid":246,"featuretype":"Council Office","description":"A facility where a Local Government\u00e2\u20ac\u2122s main council operations are regularly performed","class":"Council Office","sdedist.spool.NationalLGACouncilOffices_New.fid":"246","name":"Murweh Shire Council","operationalstatus":"Operational","localgovernmentarea_lga":"Murweh (S)","address":"95-101 Alfred Street","suburb":"Charleville","state":"Queensland","spatialconfidence":"2","revised":1423180800000,"comment":null}},{"type":"Feature","id":247,"geometry":{"type":"Point","coordinates":[141.8893230000001,-12.684541999595227]},"properties":{"objectid":247,"featuretype":"Council Office","description":"A facility where a Local Government\u00e2\u20ac\u2122s main council operations are regularly performed","class":"Council Office","sdedist.spool.NationalLGACouncilOffices_New.fid":"247","name":"Napranum Aboriginal Shire Council","operationalstatus":"Operational","localgovernmentarea_lga":"Napranum (S)","address":"Moun-Ding Street","suburb":"Napranum","state":"Queensland","spatialconfidence":"1","revised":1423180800000,"comment":null}},{"type":"Feature","id":248,"geometry":{"type":"Point","coordinates":[153.04076800000007,-26.392254999248063]},"properties":{"objectid":248,"featuretype":"Council Office","description":"A facility where a Local Government\u00e2\u20ac\u2122s main council operations are regularly performed","class":"Council Office","sdedist.spool.NationalLGACouncilOffices_New.fid":"248","name":"Noosa Shire Council","operationalstatus":"Operational","localgovernmentarea_lga":"Noosa (S)","address":"9 Pelican Street","suburb":"Tewantin","state":"Queensland","spatialconfidence":"5","revised":1423180800000,"comment":null}},{"type":"Feature","id":249,"geometry":{"type":"Point","coordinates":[151.61033300000008,-25.62577199926358]},"properties":{"objectid":249,"featuretype":"Council Office","description":"A facility where a Local Government\u00e2\u20ac\u2122s main council operations are regularly performed","class":"Council Office","sdedist.spool.NationalLGACouncilOffices_New.fid":"249","name":"North Burnett Regional Council","operationalstatus":"Operational","localgovernmentarea_lga":"North Burnett (R)","address":"34-36 Capper Street","suburb":"Gayndah","state":"Queensland","spatialconfidence":"4","revised":1423180800000,"comment":null}},{"type":"Feature","id":250,"geometry":{"type":"Point","coordinates":[142.3882480000001,-10.887568999649481]},"properties":{"objectid":250,"featuretype":"Council Office","description":"A facility where a Local Government\u00e2\u20ac\u2122s main council operations are regularly performed","class":"Council Office","sdedist.spool.NationalLGACouncilOffices_New.fid":"250","name":"Northern Peninsula Area Regional Council","operationalstatus":"Operational","localgovernmentarea_lga":"Northern Peninsula Area (R)","address":"180 Adidi Street","suburb":"Bamaga","state":"Queensland","spatialconfidence":"3","revised":1423180800000,"comment":null}},{"type":"Feature","id":251,"geometry":{"type":"Point","coordinates":[146.57778100000007,-18.73411599942542]},"properties":{"objectid":251,"featuretype":"Council Office","description":"A facility where a Local Government\u00e2\u20ac\u2122s main council operations are regularly performed","class":"Council Office","sdedist.spool.NationalLGACouncilOffices_New.fid":"251","name":"Palm Island Aboriginal Shire Council","operationalstatus":"Operational","localgovernmentarea_lga":"Palm Island (S)","address":"1 Main Street","suburb":"Palm Island","state":"Queensland","spatialconfidence":"3","revised":1423180800000,"comment":null}},{"type":"Feature","id":252,"geometry":{"type":"Point","coordinates":[145.68209600000012,-28.070083999215953]},"properties":{"objectid":252,"featuretype":"Council Office","description":"A facility where a Local Government\u00e2\u20ac\u2122s main council operations are regularly performed","class":"Council Office","sdedist.spool.NationalLGACouncilOffices_New.fid":"252","name":"Paroo Shire Council","operationalstatus":"Operational","localgovernmentarea_lga":"Paroo (S)","address":"49 Stockyard Street","suburb":"Cunnamulla","state":"Queensland","spatialconfidence":"5","revised":1423180800000,"comment":null}},{"type":"Feature","id":253,"geometry":{"type":"Point","coordinates":[141.61923500000012,-14.89988199953049]},"properties":{"objectid":253,"featuretype":"Council Office","description":"A facility where a Local Government\u00e2\u20ac\u2122s main council operations are regularly performed","class":"Council Office","sdedist.spool.NationalLGACouncilOffices_New.fid":"253","name":"Pormpuraaw Aboriginal Shire Council","operationalstatus":"Operational","localgovernmentarea_lga":"Pormpuraaw (S)","address":"24 Thinraathin Street","suburb":"Pormpuraaw","state":"Queensland","spatialconfidence":"1","revised":1423180800000,"comment":null}},{"type":"Feature","id":254,"geometry":{"type":"Point","coordinates":[144.26813600000003,-26.613945999243644]},"properties":{"objectid":254,"featuretype":"Council Office","description":"A facility where a Local Government\u00e2\u20ac\u2122s main council operations are regularly performed","class":"Council Office","sdedist.spool.NationalLGACouncilOffices_New.fid":"254","name":"Quilpie Shire Council","operationalstatus":"Operational","localgovernmentarea_lga":"Quilpie (S)","address":"48-50 Brolga Street","suburb":"Quilpie","state":"Queensland","spatialconfidence":"5","revised":1423180800000,"comment":null}},{"type":"Feature","id":255,"geometry":{"type":"Point","coordinates":[153.26683800000012,-27.526228999226063]},"properties":{"objectid":255,"featuretype":"Council Office","description":"A facility where a Local Government\u00e2\u20ac\u2122s main council operations are regularly performed","class":"Council Office","sdedist.spool.NationalLGACouncilOffices_New.fid":"255","name":"Redland City Council","operationalstatus":"Operational","localgovernmentarea_lga":"Redland (C)","address":"Corner Bloomfield Street and Middle Street","suburb":"Cleveland","state":"Queensland","spatialconfidence":"5","revised":1423180800000,"comment":null}},{"type":"Feature","id":256,"geometry":{"type":"Point","coordinates":[143.1411270000001,-20.72916799937468]},"properties":{"objectid":256,"featuretype":"Council Office","description":"A facility where a Local Government\u00e2\u20ac\u2122s main council operations are regularly performed","class":"Council Office","sdedist.spool.NationalLGACouncilOffices_New.fid":"256","name":"Richmond Shire Council","operationalstatus":"Operational","localgovernmentarea_lga":"Richmond (S)","address":"50 Goldring Street","suburb":"Richmond","state":"Queensland","spatialconfidence":"5","revised":1423180800000,"comment":null}},{"type":"Feature","id":257,"geometry":{"type":"Point","coordinates":[150.51394900000003,-23.382025999311963]},"properties":{"objectid":257,"featuretype":"Council Office","description":"A facility where a Local Government\u00e2\u20ac\u2122s main council operations are regularly performed","class":"Council Office","sdedist.spool.NationalLGACouncilOffices_New.fid":"257","name":"Rockhampton Regional Council","operationalstatus":"Operational","localgovernmentarea_lga":"Rockhampton (R)","address":"232 Bolsover Street","suburb":"Rockhampton","state":"Queensland","spatialconfidence":"5","revised":1423180800000,"comment":null}},{"type":"Feature","id":258,"geometry":{"type":"Point","coordinates":[152.99547600000005,-27.987253999217476]},"properties":{"objectid":258,"featuretype":"Council Office","description":"A facility where a Local Government\u00e2\u20ac\u2122s main council operations are regularly performed","class":"Council Office","sdedist.spool.NationalLGACouncilOffices_New.fid":"258","name":"Scenic Rim Regional Council","operationalstatus":"Operational","localgovernmentarea_lga":"Scenic Rim (R)","address":"82 Brisbane Street","suburb":"Beaudesert","state":"Queensland","spatialconfidence":"5","revised":1423180800000,"comment":null}},{"type":"Feature","id":259,"geometry":{"type":"Point","coordinates":[152.42195000000004,-27.24077299923146]},"properties":{"objectid":259,"featuretype":"Council Office","description":"A facility where a Local Government\u00e2\u20ac\u2122s main council operations are regularly performed","class":"Council Office","sdedist.spool.NationalLGACouncilOffices_New.fid":"259","name":"Somerset Regional Council","operationalstatus":"Operational","localgovernmentarea_lga":"Somerset (R)","address":"2 Redbank Street","suburb":"Esk","state":"Queensland","spatialconfidence":"5","revised":1423180800000,"comment":null}},{"type":"Feature","id":260,"geometry":{"type":"Point","coordinates":[151.8374040000001,-26.540002999245107]},"properties":{"objectid":260,"featuretype":"Council Office","description":"A facility where a Local Government\u00e2\u20ac\u2122s main council operations are regularly performed","class":"Council Office","sdedist.spool.NationalLGACouncilOffices_New.fid":"260","name":"South Burnett Regional Council","operationalstatus":"Operational","localgovernmentarea_lga":"South Burnett (R)","address":"41 Glendon Street","suburb":"Kingaroy","state":"Queensland","spatialconfidence":"5","revised":1423180800000,"comment":null}},{"type":"Feature","id":261,"geometry":{"type":"Point","coordinates":[152.03473300000007,-28.214584999213308]},"properties":{"objectid":261,"featuretype":"Council Office","description":"A facility where a Local Government\u00e2\u20ac\u2122s main council operations are regularly performed","class":"Council Office","sdedist.spool.NationalLGACouncilOffices_New.fid":"261","name":"Southern Downs Regional Council","operationalstatus":"Operational","localgovernmentarea_lga":"Southern Downs (R)","address":"64 Fitzroy Street","suburb":"Warwick","state":"Queensland","spatialconfidence":"5","revised":1423180800000,"comment":null}},{"type":"Feature","id":262,"geometry":{"type":"Point","coordinates":[153.13080600000012,-26.803324999239948]},"properties":{"objectid":262,"featuretype":"Council Office","description":"A facility where a Local Government\u00e2\u20ac\u2122s main council operations are regularly performed","class":"Council Office","sdedist.spool.NationalLGACouncilOffices_New.fid":"262","name":"Sunshine Coast Regional Council - Caloundra Office","operationalstatus":"Operational","localgovernmentarea_lga":"Sunshine Coast (R)","address":"1 Omrah Avenue","suburb":"Caloundra","state":"Queensland","spatialconfidence":"5","revised":1423180800000,"comment":null}},{"type":"Feature","id":263,"geometry":{"type":"Point","coordinates":[153.0930350000001,-26.654775999242855]},"properties":{"objectid":263,"featuretype":"Council Office","description":"A facility where a Local Government\u00e2\u20ac\u2122s main council operations are regularly performed","class":"Council Office","sdedist.spool.NationalLGACouncilOffices_New.fid":"263","name":"Sunshine Coast Regional Council - Maroochy on First Office","operationalstatus":"Operational","localgovernmentarea_lga":"Sunshine Coast (R)","address":"10 First Avenue","suburb":"Maroochydore","state":"Queensland","spatialconfidence":"5","revised":1423180800000,"comment":null}},{"type":"Feature","id":264,"geometry":{"type":"Point","coordinates":[152.9589890000001,-26.628154999243343]},"properties":{"objectid":264,"featuretype":"Council Office","description":"A facility where a Local Government\u00e2\u20ac\u2122s main council operations are regularly performed","class":"Council Office","sdedist.spool.NationalLGACouncilOffices_New.fid":"264","name":"Sunshine Coast Regional Council - Nambour Office","operationalstatus":"Operational","localgovernmentarea_lga":"Sunshine Coast (R)","address":"Corner Currie Street and Bury Street","suburb":"Nambour","state":"Queensland","spatialconfidence":"5","revised":1423180800000,"comment":null}},{"type":"Feature","id":265,"geometry":{"type":"Point","coordinates":[145.4761870000001,-17.267240999464498]},"properties":{"objectid":265,"featuretype":"Council Office","description":"A facility where a Local Government\u00e2\u20ac\u2122s main council operations are regularly performed","class":"Council Office","sdedist.spool.NationalLGACouncilOffices_New.fid":"265","name":"Tablelands Regional Council","operationalstatus":"Operational","localgovernmentarea_lga":"Tablelands (R)","address":"45 Mabel Street","suburb":"Atherton","state":"Queensland","spatialconfidence":"5","revised":1423180800000,"comment":null}},{"type":"Feature","id":266,"geometry":{"type":"Point","coordinates":[151.9519100000001,-27.563313999225347]},"properties":{"objectid":266,"featuretype":"Council Office","description":"A facility where a Local Government\u00e2\u20ac\u2122s main council operations are regularly performed","class":"Council Office","sdedist.spool.NationalLGACouncilOffices_New.fid":"266","name":"Toowoomba Regional Council","operationalstatus":"Operational","localgovernmentarea_lga":"Toowoomba (R)","address":"4 Little Street","suburb":"Toowoomba","state":"Queensland","spatialconfidence":"5","revised":1423180800000,"comment":null}},{"type":"Feature","id":267,"geometry":{"type":"Point","coordinates":[142.21971500000006,-10.5836689996588]},"properties":{"objectid":267,"featuretype":"Council Office","description":"A facility where a Local Government\u00e2\u20ac\u2122s main council operations are regularly performed","class":"Council Office","sdedist.spool.NationalLGACouncilOffices_New.fid":"267","name":"Torres Shire Council","operationalstatus":"Operational","localgovernmentarea_lga":"Torres (S)","address":"68 Douglas Street","suburb":"Thursday Island","state":"Queensland","spatialconfidence":"3","revised":1423180800000,"comment":null}},{"type":"Feature","id":268,"geometry":{"type":"Point","coordinates":[145.7744980000001,-16.9228059994739]},"properties":{"objectid":268,"featuretype":"Council Office","description":"A facility where a Local Government\u00e2\u20ac\u2122s main council operations are regularly performed","class":"Council Office","sdedist.spool.NationalLGACouncilOffices_New.fid":"268","name":"Torres Strait Island Regional Council - Cairns Office","operationalstatus":"Operational","localgovernmentarea_lga":"Torres Strait Island (R)","address":"111 Grafton Street","suburb":"Cairns","state":"Queensland","spatialconfidence":"3","revised":1423180800000,"comment":null}},{"type":"Feature","id":269,"geometry":{"type":"Point","coordinates":[142.21586600000012,-10.585162999658792]},"properties":{"objectid":269,"featuretype":"Council Office","description":"A facility where a Local Government\u00e2\u20ac\u2122s main council operations are regularly performed","class":"Council Office","sdedist.spool.NationalLGACouncilOffices_New.fid":"269","name":"Torres Strait Island Regional Council - Thursday Island Office","operationalstatus":"Operational","localgovernmentarea_lga":"Torres Strait Island (R)","address":"46 Victoria Parade","suburb":"Thursday Island","state":"Queensland","spatialconfidence":"3","revised":1423180800000,"comment":null}},{"type":"Feature","id":270,"geometry":{"type":"Point","coordinates":[146.8146680000001,-19.258325999411785]},"properties":{"objectid":270,"featuretype":"Council Office","description":"A facility where a Local Government\u00e2\u20ac\u2122s main council operations are regularly performed","class":"Council Office","sdedist.spool.NationalLGACouncilOffices_New.fid":"270","name":"Townsville City Council","operationalstatus":"Operational","localgovernmentarea_lga":"Townsville (C)","address":"103 Walker Street","suburb":"Townsville","state":"Queensland","spatialconfidence":"5","revised":1423180800000,"comment":null}},{"type":"Feature","id":271,"geometry":{"type":"Point","coordinates":[150.62445900000012,-26.74061299924114]},"properties":{"objectid":271,"featuretype":"Council Office","description":"A facility where a Local Government\u00e2\u20ac\u2122s main council operations are regularly performed","class":"Council Office","sdedist.spool.NationalLGACouncilOffices_New.fid":"271","name":"Western Downs Regional Council","operationalstatus":"Operational","localgovernmentarea_lga":"Western Downs (R)","address":"80-86 Heeney Street","suburb":"Chinchilla","state":"Queensland","spatialconfidence":"3","revised":1423180800000,"comment":null}},{"type":"Feature","id":272,"geometry":{"type":"Point","coordinates":[148.58468400000004,-20.401709999382824]},"properties":{"objectid":272,"featuretype":"Council Office","description":"A facility where a Local Government\u00e2\u20ac\u2122s main council operations are regularly performed","class":"Council Office","sdedist.spool.NationalLGACouncilOffices_New.fid":"272","name":"Whitsunday Regional Council","operationalstatus":"Operational","localgovernmentarea_lga":"Whitsunday (R)","address":"83 Main Street","suburb":"Proserpine","state":"Queensland","spatialconfidence":"5","revised":1423180800000,"comment":null}},{"type":"Feature","id":273,"geometry":{"type":"Point","coordinates":[148.24629900000002,-20.01242199939257]},"properties":{"objectid":273,"featuretype":"Council Office","description":"A facility where a Local Government\u00e2\u20ac\u2122s main council operations are regularly performed","class":"Council Office","sdedist.spool.NationalLGACouncilOffices_New.fid":"273","name":"Bowen Shire Council","operationalstatus":"Operational","localgovernmentarea_lga":"Whitsunday (R)","address":"67 Herbert Street","suburb":"Bowen","state":"Queensland","spatialconfidence":"3","revised":1423180800000,"comment":null}},{"type":"Feature","id":274,"geometry":{"type":"Point","coordinates":[143.03771500000005,-22.387519999334806]},"properties":{"objectid":274,"featuretype":"Council Office","description":"A facility where a Local Government\u00e2\u20ac\u2122s main council operations are regularly performed","class":"Council Office","sdedist.spool.NationalLGACouncilOffices_New.fid":"274","name":"Winton Shire Council","operationalstatus":"Operational","localgovernmentarea_lga":"Winton (S)","address":"75 Vindex Street","suburb":"Winton","state":"Queensland","spatialconfidence":"5","revised":1423180800000,"comment":null}},{"type":"Feature","id":275,"geometry":{"type":"Point","coordinates":[149.4555600000001,-24.133998999295272]},"properties":{"objectid":275,"featuretype":"Council Office","description":"A facility where a Local Government\u00e2\u20ac\u2122s main council operations are regularly performed","class":"Council Office","sdedist.spool.NationalLGACouncilOffices_New.fid":"275","name":"Woorabinda Aboriginal Shire Council","operationalstatus":"Operational","localgovernmentarea_lga":"Woorabinda (S)","address":"112 Munns Drive","suburb":"Woorabinda","state":"Queensland","spatialconfidence":"1","revised":1423180800000,"comment":null}},{"type":"Feature","id":276,"geometry":{"type":"Point","coordinates":[145.31875200000002,-15.94515699950092]},"properties":{"objectid":276,"featuretype":"Council Office","description":"A facility where a Local Government\u00e2\u20ac\u2122s main council operations are regularly performed","class":"Council Office","sdedist.spool.NationalLGACouncilOffices_New.fid":"276","name":"Wujal Wujal Aboriginal Shire Council","operationalstatus":"Operational","localgovernmentarea_lga":"Wujal Wujal (S)","address":"Hartwig Street","suburb":"Wujal Wujal","state":"Queensland","spatialconfidence":"2","revised":1423180800000,"comment":null}},{"type":"Feature","id":277,"geometry":{"type":"Point","coordinates":[145.86657800000012,-16.907619999474292]},"properties":{"objectid":277,"featuretype":"Council Office","description":"A facility where a Local Government\u00e2\u20ac\u2122s main council operations are regularly performed","class":"Council Office","sdedist.spool.NationalLGACouncilOffices_New.fid":"277","name":"Yarrabah Aboriginal Shire Council","operationalstatus":"Operational","localgovernmentarea_lga":"Yarrabah (S)","address":"56 Sawmill Road","suburb":"Yarrabah","state":"Queensland","spatialconfidence":"1","revised":1423180800000,"comment":null}}],"metadata":{"title":"Queensland LGA Council Offices","source":"Geoscience Australia \u2014 National LGA Council Offices","source_url":"https://services.ga.gov.au/gis/rest/services/Local_Government_Area_Council_Offices/MapServer/0","licence":"CC BY 4.0","attribution":"Commonwealth of Australia (Geoscience Australia) 2015","vintage":"2018"}}