{"type":"FeatureCollection","metadata":{"title":"NSW LGA Council Offices","source":"Geoscience Australia — National LGA Council Offices","source_url":"https://services.ga.gov.au/gis/rest/services/Local_Government_Area_Council_Offices/MapServer/0","licence":"CC BY 4.0","attribution":"Commonwealth of Australia (Geoscience Australia) 2015","vintage":"2018"},"features":[{"type":"Feature","geometry":{"type":"Point","coordinates":[146.9158950000001,-36.077654999101604]},"properties":{"name":"Albury City Council","state":"New South Wales","localgovernmentarea_lga":"Albury (C)","class":"Council Office","operationalstatus":"Operational","address":"553 Kiewa Street","suburb":"Albury"}},{"type":"Feature","geometry":{"type":"Point","coordinates":[151.6655740000001,-30.514477999174073]},"properties":{"name":"Armidale Dumaresq Council","state":"New South Wales","localgovernmentarea_lga":"Armidale Dumaresq (A)","class":"Council Office","operationalstatus":"Operational","address":"135 Rusden Street","suburb":"Armidale"}},{"type":"Feature","geometry":{"type":"Point","coordinates":[151.12422600000002,-33.88884599912622]},"properties":{"name":"Ashfield Council","state":"New South Wales","localgovernmentarea_lga":"Ashfield (A)","class":"Council Office","operationalstatus":"Operational","address":"260 Liverpool Road","suburb":"Ashfield"}},{"type":"Feature","geometry":{"type":"Point","coordinates":[151.03358900000012,-33.85328799912668]},"properties":{"name":"Auburn City Council","state":"New South Wales","localgovernmentarea_lga":"Auburn (C)","class":"Council Office","operationalstatus":"Operational","address":"1 Susan Street","suburb":"Auburn"}},{"type":"Feature","geometry":{"type":"Point","coordinates":[153.5617890000001,-28.86944699920165]},"properties":{"name":"Ballina Shire Council","state":"New South Wales","localgovernmentarea_lga":"Ballina (A)","class":"Council Office","operationalstatus":"Operational","address":"40 Cherry Street","suburb":"Ballina"}},{"type":"Feature","geometry":{"type":"Point","coordinates":[143.56553400000007,-34.641636999117196]},"properties":{"name":"Balranald Shire Council","state":"New South Wales","localgovernmentarea_lga":"Balranald (A)","class":"Council Office","operationalstatus":"Operational","address":"70 Market Street","suburb":"Balranald"}},{"type":"Feature","geometry":{"type":"Point","coordinates":[151.0364840000001,-33.91499599912593]},"properties":{"name":"Bankstown City Council","state":"New South Wales","localgovernmentarea_lga":"Bankstown (C)","class":"Council Office","operationalstatus":"Operational","address":"66-72 Rickard Road","suburb":"Bankstown"}},{"type":"Feature","geometry":{"type":"Point","coordinates":[149.57913700000006,-33.41861299913215]},"properties":{"name":"Bathurst Regional Council","state":"New South Wales","localgovernmentarea_lga":"Bathurst Regional (A)","class":"Council Office","operationalstatus":"Operational","address":"158 Russell Street","suburb":"Bathurst"}},{"type":"Feature","geometry":{"type":"Point","coordinates":[149.84216100000003,-36.67577699909584]},"properties":{"name":"Bega Valley Shire Council","state":"New South Wales","localgovernmentarea_lga":"Bega Valley (A)","class":"Council Office","operationalstatus":"Operational","address":"Zingel Place","suburb":"Bega"}},{"type":"Feature","geometry":{"type":"Point","coordinates":[152.89872900000012,-30.451720999175098]},"properties":{"name":"Bellingen Shire Council","state":"New South Wales","localgovernmentarea_lga":"Bellingen (A)","class":"Council Office","operationalstatus":"Operational","address":"33-39 Hyde Street","suburb":"Bellingen"}},{"type":"Feature","geometry":{"type":"Point","coordinates":[145.808983,-35.65741899910595]},"properties":{"name":"Berrigan Shire Council","state":"New South Wales","localgovernmentarea_lga":"Berrigan (A)","class":"Council Office","operationalstatus":"Operational","address":"56 Chanter Street","suburb":"Berrigan"}},{"type":"Feature","geometry":{"type":"Point","coordinates":[150.9084580000001,-33.77169999912768]},"properties":{"name":"Blacktown City Council","state":"New South Wales","localgovernmentarea_lga":"Blacktown (C)","class":"Council Office","operationalstatus":"Operational","address":"62 Flushcombe Road","suburb":"Blacktown"}},{"type":"Feature","geometry":{"type":"Point","coordinates":[147.20378600000004,-33.92442199912578]},"properties":{"name":"Bland Shire Council","state":"New South Wales","localgovernmentarea_lga":"Bland (A)","class":"Council Office","operationalstatus":"Operational","address":"6-8 Shire Street","suburb":"West Wyalong"}},{"type":"Feature","geometry":{"type":"Point","coordinates":[149.2553670000001,-33.53023899913074]},"properties":{"name":"Blayney Shire Council","state":"New South Wales","localgovernmentarea_lga":"Blayney (A)","class":"Council Office","operationalstatus":"Operational","address":"91 Adelaide Street","suburb":"Blayney"}},{"type":"Feature","geometry":{"type":"Point","coordinates":[150.31258800000012,-33.71068999912845]},"properties":{"name":"Blue Mountains City Council","state":"New South Wales","localgovernmentarea_lga":"Blue Mountains (C)","class":"Council Office","operationalstatus":"Operational","address":"2-6 Civic Place","suburb":"Katoomba"}},{"type":"Feature","geometry":{"type":"Point","coordinates":[147.1945350000001,-31.563971999157967]},"properties":{"name":"Bogan Shire Council","state":"New South Wales","localgovernmentarea_lga":"Bogan (A)","class":"Council Office","operationalstatus":"Operational","address":"81-83 Cobar Street","suburb":"Nyngan"}},{"type":"Feature","geometry":{"type":"Point","coordinates":[149.2396010000001,-36.91309599909362]},"properties":{"name":"Bombala Council","state":"New South Wales","localgovernmentarea_lga":"Bombala (A)","class":"Council Office","operationalstatus":"Operational","address":"71 Caveat Street","suburb":"Bombala"}},{"type":"Feature","geometry":{"type":"Point","coordinates":[148.71824500000002,-34.4371919991196]},"properties":{"name":"Boorowa Council","state":"New South Wales","localgovernmentarea_lga":"Boorowa (A)","class":"Council Office","operationalstatus":"Operational","address":"6-8 Market Street","suburb":"Boorowa"}},{"type":"Feature","geometry":{"type":"Point","coordinates":[151.1962870000001,-33.92577099912575]},"properties":{"name":"Botany Bay City Council","state":"New South Wales","localgovernmentarea_lga":"Botany Bay (C)","class":"Council Office","operationalstatus":"Operational","address":"141 Coward Street","suburb":"Mascot"}},{"type":"Feature","geometry":{"type":"Point","coordinates":[145.9370100000001,-30.088515999180963]},"properties":{"name":"Bourke Shire Council","state":"New South Wales","localgovernmentarea_lga":"Bourke (A)","class":"Council Office","operationalstatus":"Operational","address":"29 Mitchell Street","suburb":"Bourke"}},{"type":"Feature","geometry":{"type":"Point","coordinates":[146.85756500000002,-29.96103199918303]},"properties":{"name":"Brewarrina Shire Council","state":"New South Wales","localgovernmentarea_lga":"Brewarrina (A)","class":"Council Office","operationalstatus":"Operational","address":"57 Bathurst Street","suburb":"Brewarrina"}},{"type":"Feature","geometry":{"type":"Point","coordinates":[141.4620430000001,-31.958562999152154]},"properties":{"name":"Broken Hill City Council","state":"New South Wales","localgovernmentarea_lga":"Broken Hill (C)","class":"Council Office","operationalstatus":"Operational","address":"240 Blende Street","suburb":"Broken Hill"}},{"type":"Feature","geometry":{"type":"Point","coordinates":[151.10274600000002,-33.8753939991264]},"properties":{"name":"Burwood Council","state":"New South Wales","localgovernmentarea_lga":"Burwood (A)","class":"Council Office","operationalstatus":"Operational","address":"1-17 Elsie Street","suburb":"Burwood"}},{"type":"Feature","geometry":{"type":"Point","coordinates":[153.50249700000006,-28.553805999207214]},"properties":{"name":"Byron Shire Council","state":"New South Wales","localgovernmentarea_lga":"Byron (A)","class":"Council Office","operationalstatus":"Operational","address":"70-90 Station Street","suburb":"Mullumbimby"}},{"type":"Feature","geometry":{"type":"Point","coordinates":[148.86743,-33.091686999136485]},"properties":{"name":"Cabonne Council","state":"New South Wales","localgovernmentarea_lga":"Cabonne (A)","class":"Council Office","operationalstatus":"Operational","address":"101 Bank Street","suburb":"Molong"}},{"type":"Feature","geometry":{"type":"Point","coordinates":[150.69504300000006,-34.05385899912417]},"properties":{"name":"Camden Council","state":"New South Wales","localgovernmentarea_lga":"Camden (A)","class":"Council Office","operationalstatus":"Operational","address":"37 John Street","suburb":"Camden"}},{"type":"Feature","geometry":{"type":"Point","coordinates":[150.81583000000012,-34.063709999124065]},"properties":{"name":"Campbelltown City Council","state":"New South Wales","localgovernmentarea_lga":"Campbelltown (C)","class":"Council Office","operationalstatus":"Operational","address":"91 Queen Street","suburb":"Campbelltown"}},{"type":"Feature","geometry":{"type":"Point","coordinates":[151.152869,-33.851561999126666]},"properties":{"name":"City of Canada Bay Council","state":"New South Wales","localgovernmentarea_lga":"Canada Bay (A)","class":"Council Office","operationalstatus":"Operational","address":"1A Marlborough Street","suburb":"Drummoyne"}},{"type":"Feature","geometry":{"type":"Point","coordinates":[151.10353400000008,-33.907741999126024]},"properties":{"name":"Canterbury City Council","state":"New South Wales","localgovernmentarea_lga":"Canterbury (C)","class":"Council Office","operationalstatus":"Operational","address":"137 Beamish Street","suburb":"Campsie"}},{"type":"Feature","geometry":{"type":"Point","coordinates":[145.709064,-33.981559999125075]},"properties":{"name":"Carrathool Shire Council - Goolgowi Office","state":"New South Wales","localgovernmentarea_lga":"Carrathool (A)","class":"Council Office","operationalstatus":"Operational","address":"9-11 Cobram Street","suburb":"Goolgowi"}},{"type":"Feature","geometry":{"type":"Point","coordinates":[145.5330590000001,-33.484235999131336]},"properties":{"name":"Carrathool Shire Council - Hillston District Office","state":"New South Wales","localgovernmentarea_lga":"Carrathool (A)","class":"Council Office","operationalstatus":"Operational","address":"139-145 High Street","suburb":"Hillston"}},{"type":"Feature","geometry":{"type":"Point","coordinates":[143.38013,-31.557786999158036]},"properties":{"name":"Central Darling Shire Council","state":"New South Wales","localgovernmentarea_lga":"Central Darling (A)","class":"Council Office","operationalstatus":"Operational","address":"21 Reid Street","suburb":"Wilcannia"}},{"type":"Feature","geometry":{"type":"Point","coordinates":[151.35658200000012,-32.83517799913987]},"properties":{"name":"Cessnock City Council","state":"New South Wales","localgovernmentarea_lga":"Cessnock (C)","class":"Council Office","operationalstatus":"Operational","address":"62-78 Vincent Street","suburb":"Cessnock"}},{"type":"Feature","geometry":{"type":"Point","coordinates":[152.93253700000002,-29.69262099918752]},"properties":{"name":"Clarence Valley Council","state":"New South Wales","localgovernmentarea_lga":"Clarence Valley (A)","class":"Council Office","operationalstatus":"Operational","address":"2 Prince Street","suburb":"Grafton"}},{"type":"Feature","geometry":{"type":"Point","coordinates":[145.83865600000001,-31.49919599915893]},"properties":{"name":"Cobar Shire Council","state":"New South Wales","localgovernmentarea_lga":"Cobar (A)","class":"Council Office","operationalstatus":"Operational","address":"36 Linsley Street","suburb":"Cobar"}},{"type":"Feature","geometry":{"type":"Point","coordinates":[153.11749400000008,-30.29532499917757]},"properties":{"name":"Coffs Harbour City Council","state":"New South Wales","localgovernmentarea_lga":"Coffs Harbour (C)","class":"Council Office","operationalstatus":"Operational","address":"2 Castle Street","suburb":"Coffs Harbour"}},{"type":"Feature","geometry":{"type":"Point","coordinates":[144.96596103700006,-35.53369566210726]},"properties":{"name":"Conargo Shire Council","state":"New South Wales","localgovernmentarea_lga":"Conargo (A)","class":"Council Office","operationalstatus":"Operational","address":"122 End Street","suburb":"Deniliquin"}},{"type":"Feature","geometry":{"type":"Point","coordinates":[147.20222300000012,-34.81903099911513]},"properties":{"name":"Coolamon Shire Council","state":"New South Wales","localgovernmentarea_lga":"Coolamon (A)","class":"Council Office","operationalstatus":"Operational","address":"55 Cowabbie Street","suburb":"Coolamon"}},{"type":"Feature","geometry":{"type":"Point","coordinates":[149.127336,-36.23537799910009]},"properties":{"name":"Cooma-Monaro Shire Council","state":"New South Wales","localgovernmentarea_lga":"Cooma-Monaro (A)","class":"Council Office","operationalstatus":"Operational","address":"81 Commissioner Street","suburb":"Cooma"}},{"type":"Feature","geometry":{"type":"Point","coordinates":[148.38844800000004,-30.954939999167184]},"properties":{"name":"Coonamble Shire Council Council","state":"New South Wales","localgovernmentarea_lga":"Coonamble (A)","class":"Council Office","operationalstatus":"Operational","address":"80 Castlereagh Street","suburb":"Coonamble"}},{"type":"Feature","geometry":{"type":"Point","coordinates":[148.0256720000001,-34.63942299911722]},"properties":{"name":"Cootamundra Shire Council","state":"New South Wales","localgovernmentarea_lga":"Cootamundra (A)","class":"Council Office","operationalstatus":"Operational","address":"81 Wallendoon Street","suburb":"Cootamundra"}},{"type":"Feature","geometry":{"type":"Point","coordinates":[146.39457100000004,-36.00319399910239]},"properties":{"name":"Corowa Shire Council","state":"New South Wales","localgovernmentarea_lga":"Corowa Shire (A)","class":"Council Office","operationalstatus":"Operational","address":"100 Edward Street","suburb":"Corowa"}},{"type":"Feature","geometry":{"type":"Point","coordinates":[148.6933590000001,-33.83472699912687]},"properties":{"name":"Cowra Council","state":"New South Wales","localgovernmentarea_lga":"Cowra (A)","class":"Council Office","operationalstatus":"Operational","address":"116 Kendal Street","suburb":"Cowra"}},{"type":"Feature","geometry":{"type":"Point","coordinates":[144.96468467300008,-35.5317153851073]},"properties":{"name":"Deniliquin Council","state":"New South Wales","localgovernmentarea_lga":"Deniliquin (A)","class":"Council Office","operationalstatus":"Operational","address":"Civic Place","suburb":"Deniliquin"}},{"type":"Feature","geometry":{"type":"Point","coordinates":[148.6055490000001,-32.247127999148056]},"properties":{"name":"Dubbo City Council","state":"New South Wales","localgovernmentarea_lga":"Dubbo (C)","class":"Council Office","operationalstatus":"Operational","address":"70 Church Street","suburb":"Dubbo"}},{"type":"Feature","geometry":{"type":"Point","coordinates":[151.7573880000001,-32.40158299914587]},"properties":{"name":"Dungog Shire Council","state":"New South Wales","localgovernmentarea_lga":"Dungog (A)","class":"Council Office","operationalstatus":"Operational","address":"198 Dowling Street","suburb":"Dungog"}},{"type":"Feature","geometry":{"type":"Point","coordinates":[150.07989500000008,-35.912885999103324]},"properties":{"name":"Eurobodalla Shire Council","state":"New South Wales","localgovernmentarea_lga":"Eurobodalla (A)","class":"Council Office","operationalstatus":"Operational","address":"Vulcan Street","suburb":"Moruya"}},{"type":"Feature","geometry":{"type":"Point","coordinates":[150.91499700000008,-33.87872799912636]},"properties":{"name":"Fairfield City Council","state":"New South Wales","localgovernmentarea_lga":"Fairfield (C)","class":"Council Office","operationalstatus":"Operational","address":"86 Avoca Road","suburb":"Wakeley"}},{"type":"Feature","geometry":{"type":"Point","coordinates":[148.00805900000012,-33.385603999132606]},"properties":{"name":"Forbes Shire Council","state":"New South Wales","localgovernmentarea_lga":"Forbes (A)","class":"Council Office","operationalstatus":"Operational","address":"2 Court Street","suburb":"Forbes"}},{"type":"Feature","geometry":{"type":"Point","coordinates":[148.661784,-31.711747999155737]},"properties":{"name":"Gilgandra Council","state":"New South Wales","localgovernmentarea_lga":"Gilgandra (A)","class":"Council Office","operationalstatus":"Operational","address":"Warren Road","suburb":"Gilgandra"}},{"type":"Feature","geometry":{"type":"Point","coordinates":[151.7373090000001,-29.739974999186717]},"properties":{"name":"Glen Innes Severn Council","state":"New South Wales","localgovernmentarea_lga":"Glen Innes Severn (A)","class":"Council Office","operationalstatus":"Operational","address":"136 Church Street","suburb":"Glen Innes"}},{"type":"Feature","geometry":{"type":"Point","coordinates":[151.96550500000012,-32.00957799915143]},"properties":{"name":"Gloucester Shire Council","state":"New South Wales","localgovernmentarea_lga":"Gloucester (A)","class":"Council Office","operationalstatus":"Operational","address":"89 King Street","suburb":"Gloucester"}},{"type":"Feature","geometry":{"type":"Point","coordinates":[151.342214,-33.42844199913205]},"properties":{"name":"Gosford City Council","state":"New South Wales","localgovernmentarea_lga":"Gosford (C)","class":"Council Office","operationalstatus":"Operational","address":"49 Mann Street","suburb":"Gosford"}},{"type":"Feature","geometry":{"type":"Point","coordinates":[149.71738000000005,-34.751731999115904]},"properties":{"name":"Goulburn Mulwaree Council","state":"New South Wales","localgovernmentarea_lga":"Goulburn Mulwaree (A)","class":"Council Office","operationalstatus":"Operational","address":"184-194 Bourke Street","suburb":"Goulburn"}},{"type":"Feature","geometry":{"type":"Point","coordinates":[152.52286000000004,-32.20082199914869]},"properties":{"name":"Great Lakes Council","state":"New South Wales","localgovernmentarea_lga":"Great Lakes (A)","class":"Council Office","operationalstatus":"Operational","address":"Breese Parade","suburb":"Forster"}},{"type":"Feature","geometry":{"type":"Point","coordinates":[147.03623800000003,-35.66751199910582]},"properties":{"name":"Greater Hume Shire Council - Culcairn Office","state":"New South Wales","localgovernmentarea_lga":"Greater Hume Shire (A)","class":"Council Office","operationalstatus":"Operational","address":"40 Balfour Street","suburb":"Culcairn"}},{"type":"Feature","geometry":{"type":"Point","coordinates":[147.31225000000006,-35.72454399910527]},"properties":{"name":"Greater Hume Shire Council - Holbrook Office","state":"New South Wales","localgovernmentarea_lga":"Greater Hume Shire (A)","class":"Council Office","operationalstatus":"Operational","address":"39 Young Street","suburb":"Holbrook"}},{"type":"Feature","geometry":{"type":"Point","coordinates":[152.45995800000003,-31.914973999152792]},"properties":{"name":"Greater Taree City Council","state":"New South Wales","localgovernmentarea_lga":"Greater Taree (C)","class":"Council Office","operationalstatus":"Operational","address":"2 Pulteney Street","suburb":"Taree"}},{"type":"Feature","geometry":{"type":"Point","coordinates":[146.0367960000001,-34.28632799912139]},"properties":{"name":"Griffith City Council","state":"New South Wales","localgovernmentarea_lga":"Griffith (C)","class":"Council Office","operationalstatus":"Operational","address":"1 Benerembah Street","suburb":"Griffith"}},{"type":"Feature","geometry":{"type":"Point","coordinates":[148.10158400000012,-35.06210099911244]},"properties":{"name":"Gundagai Shire Council","state":"New South Wales","localgovernmentarea_lga":"Gundagai (A)","class":"Council Office","operationalstatus":"Operational","address":"255 Sheridan Street","suburb":"Gundagai"}},{"type":"Feature","geometry":{"type":"Point","coordinates":[150.25610700000004,-30.978278999166772]},"properties":{"name":"Gunnedah Shire Council","state":"New South Wales","localgovernmentarea_lga":"Gunnedah (A)","class":"Council Office","operationalstatus":"Operational","address":"63 Elgin Street","suburb":"Gunnedah"}},{"type":"Feature","geometry":{"type":"Point","coordinates":[151.67117000000007,-30.221575999178793]},"properties":{"name":"Guyra Shire Council","state":"New South Wales","localgovernmentarea_lga":"Guyra (A)","class":"Council Office","operationalstatus":"Operational","address":"158 Bradley Street","suburb":"Guyra"}},{"type":"Feature","geometry":{"type":"Point","coordinates":[150.57225600000004,-29.867995999184583]},"properties":{"name":"Gwydir Shire Council - Bingara Office","state":"New South Wales","localgovernmentarea_lga":"Gwydir (A)","class":"Council Office","operationalstatus":"Operational","address":"33 Maitland Street","suburb":"Bingara"}},{"type":"Feature","geometry":{"type":"Point","coordinates":[150.57530000000008,-29.540901999190062]},"properties":{"name":"Gwydir Shire Council - Warialda Office","state":"New South Wales","localgovernmentarea_lga":"Gwydir (A)","class":"Council Office","operationalstatus":"Operational","address":"52 Hope Street","suburb":"Warialda"}},{"type":"Feature","geometry":{"type":"Point","coordinates":[148.36785400000008,-34.55282199911821]},"properties":{"name":"Harden Shire Council","state":"New South Wales","localgovernmentarea_lga":"Harden (A)","class":"Council Office","operationalstatus":"Operational","address":"3 East Street","suburb":"Harden"}},{"type":"Feature","geometry":{"type":"Point","coordinates":[150.81503700000007,-33.61144799912969]},"properties":{"name":"Hawkesbury City Council","state":"New South Wales","localgovernmentarea_lga":"Hawkesbury (C)","class":"Council Office","operationalstatus":"Operational","address":"366 George Street","suburb":"Windsor"}},{"type":"Feature","geometry":{"type":"Point","coordinates":[144.84315100000003,-34.5090559991187]},"properties":{"name":"Hay Shire Council","state":"New South Wales","localgovernmentarea_lga":"Hay (A)","class":"Council Office","operationalstatus":"Operational","address":"134 Lachlan Street","suburb":"Hay"}},{"type":"Feature","geometry":{"type":"Point","coordinates":[150.9712290000001,-33.7305419991282]},"properties":{"name":"The Hills Shire Council","state":"New South Wales","localgovernmentarea_lga":"The Hills Shire (A)","class":"Council Office","operationalstatus":"Operational","address":"3 Columbia Court","suburb":"Baulkham Hills"}},{"type":"Feature","geometry":{"type":"Point","coordinates":[150.9890580000001,-33.837791999126885]},"properties":{"name":"Holroyd City Council","state":"New South Wales","localgovernmentarea_lga":"Holroyd (C)","class":"Council Office","operationalstatus":"Operational","address":"16 Memorial Avenue","suburb":"Merrylands"}},{"type":"Feature","geometry":{"type":"Point","coordinates":[151.09748400000012,-33.700377999128584]},"properties":{"name":"Hornsby Shire Council","state":"New South Wales","localgovernmentarea_lga":"Hornsby (A)","class":"Council Office","operationalstatus":"Operational","address":"296 Peats Ferry Road","suburb":"Hornsby"}},{"type":"Feature","geometry":{"type":"Point","coordinates":[151.15297800000008,-33.8344739991269]},"properties":{"name":"Hunters Hill Council","state":"New South Wales","localgovernmentarea_lga":"Hunters Hill (A)","class":"Council Office","operationalstatus":"Operational","address":"22 Alexandra Street","suburb":"Hunters Hill"}},{"type":"Feature","geometry":{"type":"Point","coordinates":[151.1018660000001,-33.9650239991253]},"properties":{"name":"Hurstville City Council","state":"New South Wales","localgovernmentarea_lga":"Hurstville (C)","class":"Council Office","operationalstatus":"Operational","address":"24 MacMahon Street","suburb":"Hurstville"}},{"type":"Feature","geometry":{"type":"Point","coordinates":[151.11427700000002,-29.77667199918611]},"properties":{"name":"Inverell Shire Council","state":"New South Wales","localgovernmentarea_lga":"Inverell (A)","class":"Council Office","operationalstatus":"Operational","address":"144 Otho Street","suburb":"Inverell"}},{"type":"Feature","geometry":{"type":"Point","coordinates":[145.72554800000012,-35.3553079991092]},"properties":{"name":"Jerilderie Shire Council","state":"New South Wales","localgovernmentarea_lga":"Jerilderie (A)","class":"Council Office","operationalstatus":"Operational","address":"35 Jerilderie Street","suburb":"Jerilderie"}},{"type":"Feature","geometry":{"type":"Point","coordinates":[147.5859650000001,-34.87202799911453]},"properties":{"name":"Junee Shire Council","state":"New South Wales","localgovernmentarea_lga":"Junee (A)","class":"Council Office","operationalstatus":"Operational","address":"Belmore Street","suburb":"Junee"}},{"type":"Feature","geometry":{"type":"Point","coordinates":[152.82833200000005,-31.079788999165242]},"properties":{"name":"Kempsey Shire Council","state":"New South Wales","localgovernmentarea_lga":"Kempsey (A)","class":"Council Office","operationalstatus":"Operational","address":"22 Tozer Street","suburb":"West Kempsey"}},{"type":"Feature","geometry":{"type":"Point","coordinates":[150.85568000000012,-34.67210699911685]},"properties":{"name":"Kiama Municipal Council","state":"New South Wales","localgovernmentarea_lga":"Kiama (A)","class":"Council Office","operationalstatus":"Operational","address":"11 Manning Street","suburb":"Kiama"}},{"type":"Feature","geometry":{"type":"Point","coordinates":[151.13321100000007,-33.96404399912529]},"properties":{"name":"Kogarah City Council","state":"New South Wales","localgovernmentarea_lga":"Kogarah (C)","class":"Council Office","operationalstatus":"Operational","address":"2 Belgrave Street","suburb":"Kogarah"}},{"type":"Feature","geometry":{"type":"Point","coordinates":[151.15166900000008,-33.75419999912793]},"properties":{"name":"Ku-ring-gai Council","state":"New South Wales","localgovernmentarea_lga":"Ku-ring-gai (A)","class":"Council Office","operationalstatus":"Operational","address":"818 Pacific Highway","suburb":"Gordon"}},{"type":"Feature","geometry":{"type":"Point","coordinates":[153.0028850000001,-28.622270999205995]},"properties":{"name":"Kyogle Shire Council","state":"New South Wales","localgovernmentarea_lga":"Kyogle (A)","class":"Council Office","operationalstatus":"Operational","address":"1 Stratheden Street","suburb":"Kyogle"}},{"type":"Feature","geometry":{"type":"Point","coordinates":[147.15222600000004,-33.08491899913655]},"properties":{"name":"Lachlan Shire Council","state":"New South Wales","localgovernmentarea_lga":"Lachlan (A)","class":"Council Office","operationalstatus":"Operational","address":"58-64 Molong Street","suburb":"Condobolin"}},{"type":"Feature","geometry":{"type":"Point","coordinates":[151.62366300000008,-32.95996799913821]},"properties":{"name":"Lake Macquarie City Council","state":"New South Wales","localgovernmentarea_lga":"Lake Macquarie (C)","class":"Council Office","operationalstatus":"Operational","address":"126-138 Main Road","suburb":"Speers Point"}},{"type":"Feature","geometry":{"type":"Point","coordinates":[151.17085300000008,-33.81297199912714]},"properties":{"name":"Lane Cove Council","state":"New South Wales","localgovernmentarea_lga":"Lane Cove (A)","class":"Council Office","operationalstatus":"Operational","address":"48 Longueville Road","suburb":"Lane Cove"}},{"type":"Feature","geometry":{"type":"Point","coordinates":[146.4065290000001,-34.550700999118234]},"properties":{"name":"Leeton Shire Council","state":"New South Wales","localgovernmentarea_lga":"Leeton (A)","class":"Council Office","operationalstatus":"Operational","address":"23 Chelmsford Place","suburb":"Leeton"}},{"type":"Feature","geometry":{"type":"Point","coordinates":[151.15802100000008,-33.882944999126295]},"properties":{"name":"Leichhardt Municipal Council","state":"New South Wales","localgovernmentarea_lga":"Leichhardt (A)","class":"Council Office","operationalstatus":"Operational","address":"7-15 Wetherill Street","suburb":"Leichhardt"}},{"type":"Feature","geometry":{"type":"Point","coordinates":[153.32789900000012,-28.82422699920241]},"properties":{"name":"Lismore City Council","state":"New South Wales","localgovernmentarea_lga":"Lismore (C)","class":"Council Office","operationalstatus":"Operational","address":"43 Oliver Avenue","suburb":"Goonellabah"}},{"type":"Feature","geometry":{"type":"Point","coordinates":[150.15957400000002,-33.481354999131376]},"properties":{"name":"Lithgow City Council","state":"New South Wales","localgovernmentarea_lga":"Lithgow (C)","class":"Council Office","operationalstatus":"Operational","address":"180 Mort Street","suburb":"Lithgow"}},{"type":"Feature","geometry":{"type":"Point","coordinates":[150.9253950000001,-33.922459999125806]},"properties":{"name":"Liverpool City Council","state":"New South Wales","localgovernmentarea_lga":"Liverpool (C)","class":"Council Office","operationalstatus":"Operational","address":"33 Moore Street","suburb":"Liverpool"}},{"type":"Feature","geometry":{"type":"Point","coordinates":[150.68058300000007,-31.503780999158835]},"properties":{"name":"Liverpool Plains Shire Council","state":"New South Wales","localgovernmentarea_lga":"Liverpool Plains (A)","class":"Council Office","operationalstatus":"Operational","address":"60 Station Street","suburb":"Quirindi"}},{"type":"Feature","geometry":{"type":"Point","coordinates":[146.71791800000005,-35.221090999110636]},"properties":{"name":"Lockhart Shire Council","state":"New South Wales","localgovernmentarea_lga":"Lockhart (A)","class":"Council Office","operationalstatus":"Operational","address":"65 Green Street","suburb":"Lockhart"}},{"type":"Feature","geometry":{"type":"Point","coordinates":[151.56031700000005,-32.73714099914122]},"properties":{"name":"Maitland City Council","state":"New South Wales","localgovernmentarea_lga":"Maitland (C)","class":"Council Office","operationalstatus":"Operational","address":"285-287 High Street","suburb":"Maitland"}},{"type":"Feature","geometry":{"type":"Point","coordinates":[151.28500300000007,-33.79828799912736]},"properties":{"name":"Manly Council","state":"New South Wales","localgovernmentarea_lga":"Manly (A)","class":"Council Office","operationalstatus":"Operational","address":"1 Belgrave Street","suburb":"Manly"}},{"type":"Feature","geometry":{"type":"Point","coordinates":[151.15645800000004,-33.894942999126165]},"properties":{"name":"Marrickville Council","state":"New South Wales","localgovernmentarea_lga":"Marrickville (A)","class":"Council Office","operationalstatus":"Operational","address":"2-14 Fisher Street","suburb":"Petersham"}},{"type":"Feature","geometry":{"type":"Point","coordinates":[149.58441300000004,-32.589890999143265]},"properties":{"name":"Mid Western Regional Council - Mudgee Office","state":"New South Wales","localgovernmentarea_lga":"Mid-Western Regional (A)","class":"Council Office","operationalstatus":"Operational","address":"86 Market Street","suburb":"Mudgee"}},{"type":"Feature","geometry":{"type":"Point","coordinates":[149.53352300000006,-32.3642039991464]},"properties":{"name":"Mid Western Regional Council - Gulong Office","state":"New South Wales","localgovernmentarea_lga":"Mid-Western Regional (A)","class":"Council Office","operationalstatus":"Operational","address":"109 Herbert Street","suburb":"Gulong"}},{"type":"Feature","geometry":{"type":"Point","coordinates":[149.97043000000008,-32.7978389991404]},"properties":{"name":"Mid Western Regional Council - Rylstone Office","state":"New South Wales","localgovernmentarea_lga":"Mid-Western Regional (A)","class":"Council Office","operationalstatus":"Operational","address":"77 Louee Street","suburb":"Rylstone"}},{"type":"Feature","geometry":{"type":"Point","coordinates":[149.84206400000005,-29.46335099919134]},"properties":{"name":"Moree Plains Shire Council - Moree Office","state":"New South Wales","localgovernmentarea_lga":"Moree Plains (A)","class":"Council Office","operationalstatus":"Operational","address":"Level 2  30 Heber Street","suburb":"Moree"}},{"type":"Feature","geometry":{"type":"Point","coordinates":[150.35955,-28.60151099920637]},"properties":{"name":"Moree Plains Shire Council - Boggabilla Office","state":"New South Wales","localgovernmentarea_lga":"Moree Plains (A)","class":"Council Office","operationalstatus":"Operational","address":"134 Merriwa Street","suburb":"Boggabilla"}},{"type":"Feature","geometry":{"type":"Point","coordinates":[148.98860000000002,-28.976218999199748]},"properties":{"name":"Moree Plains Shire Council - Mungindi Office","state":"New South Wales","localgovernmentarea_lga":"Moree Plains (A)","class":"Council Office","operationalstatus":"Operational","address":"153 St George Street","suburb":"Mungindi"}},{"type":"Feature","geometry":{"type":"Point","coordinates":[151.2413570000001,-33.82519399912702]},"properties":{"name":"Mosman Council","state":"New South Wales","localgovernmentarea_lga":"Mosman (A)","class":"Council Office","operationalstatus":"Operational","address":"Mosman Square","suburb":"Spit Junction"}},{"type":"Feature","geometry":{"type":"Point","coordinates":[144.89704900000004,-35.81307199910435]},"properties":{"name":"Murray Shire Council - Mathoura Office","state":"New South Wales","localgovernmentarea_lga":"Murray (A)","class":"Council Office","operationalstatus":"Operational","address":"21-25 Conargo Street","suburb":"Mathoura"}},{"type":"Feature","geometry":{"type":"Point","coordinates":[144.75618400000008,-36.11422899910127]},"properties":{"name":"Murray Shire Council - Moama Office","state":"New South Wales","localgovernmentarea_lga":"Murray (A)","class":"Council Office","operationalstatus":"Operational","address":"6 Meninya Street","suburb":"Moama"}},{"type":"Feature","geometry":{"type":"Point","coordinates":[145.99895300000003,-34.56875699911803]},"properties":{"name":"Murrumbidgee Shire Council - Darlington Point Office","state":"New South Wales","localgovernmentarea_lga":"Murrumbidgee (A)","class":"Council Office","operationalstatus":"Operational","address":"21 Carrington Street","suburb":"Darlington Point"}},{"type":"Feature","geometry":{"type":"Point","coordinates":[145.88038400000005,-34.80686499911529]},"properties":{"name":"Murrumbidgee Shire Council - Coleambally Office","state":"New South Wales","localgovernmentarea_lga":"Murrumbidgee (A)","class":"Council Office","operationalstatus":"Operational","address":"39 Brolga Place","suburb":"Coleambally"}},{"type":"Feature","geometry":{"type":"Point","coordinates":[150.90385500000002,-32.28288599914753]},"properties":{"name":"Muswellbrook Shire Council","state":"New South Wales","localgovernmentarea_lga":"Muswellbrook (A)","class":"Council Office","operationalstatus":"Operational","address":"157 New England Highway","suburb":"Muswellbrook"}},{"type":"Feature","geometry":{"type":"Point","coordinates":[152.91827200000012,-30.710691999170955]},"properties":{"name":"Nambucca Shire Council","state":"New South Wales","localgovernmentarea_lga":"Nambucca (A)","class":"Council Office","operationalstatus":"Operational","address":"44 Princess Street","suburb":"Macksville"}},{"type":"Feature","geometry":{"type":"Point","coordinates":[149.78632300000004,-30.330326999177036]},"properties":{"name":"Narrabri Shire Council","state":"New South Wales","localgovernmentarea_lga":"Narrabri (A)","class":"Council Office","operationalstatus":"Operational","address":"46-48 Maitland Street","suburb":"Narrabri"}},{"type":"Feature","geometry":{"type":"Point","coordinates":[146.5532300000001,-34.747509999115984]},"properties":{"name":"Narrandera Shire Council","state":"New South Wales","localgovernmentarea_lga":"Narrandera (A)","class":"Council Office","operationalstatus":"Operational","address":"141 East Street","suburb":"Narrandera"}},{"type":"Feature","geometry":{"type":"Point","coordinates":[148.23850100000004,-32.23501399914822]},"properties":{"name":"Narromine Shire Council","state":"New South Wales","localgovernmentarea_lga":"Narromine (A)","class":"Council Office","operationalstatus":"Operational","address":"124 Dandaloo Street","suburb":"Narromine"}},{"type":"Feature","geometry":{"type":"Point","coordinates":[151.77289200000007,-32.92771399913868]},"properties":{"name":"Newcastle City Council","state":"New South Wales","localgovernmentarea_lga":"Newcastle (C)","class":"Council Office","operationalstatus":"Operational","address":"282 King Street","suburb":"Newcastle"}},{"type":"Feature","geometry":{"type":"Point","coordinates":[151.20757300000002,-33.83443699912693]},"properties":{"name":"North Sydney Council","state":"New South Wales","localgovernmentarea_lga":"North Sydney (A)","class":"Council Office","operationalstatus":"Operational","address":"200 Miller Street","suburb":"North Sydney"}},{"type":"Feature","geometry":{"type":"Point","coordinates":[149.8575360000001,-33.70382199912854]},"properties":{"name":"Oberon Council","state":"New South Wales","localgovernmentarea_lga":"Oberon (A)","class":"Council Office","operationalstatus":"Operational","address":"137-139 Oberon Street","suburb":"Oberon"}},{"type":"Feature","geometry":{"type":"Point","coordinates":[149.1018140000001,-33.28153599913397]},"properties":{"name":"Orange City Council","state":"New South Wales","localgovernmentarea_lga":"Orange (C)","class":"Council Office","operationalstatus":"Operational","address":"135-137 Byng Street","suburb":"Orange"}},{"type":"Feature","geometry":{"type":"Point","coordinates":[149.44634400000007,-35.254009999110274]},"properties":{"name":"Palerang Council","state":"New South Wales","localgovernmentarea_lga":"Palerang (A)","class":"Council Office","operationalstatus":"Operational","address":"10 Majara Street","suburb":"Bungendore"}},{"type":"Feature","geometry":{"type":"Point","coordinates":[148.1726870000001,-33.13896099913581]},"properties":{"name":"Parkes Shire Council","state":"New South Wales","localgovernmentarea_lga":"Parkes (A)","class":"Council Office","operationalstatus":"Operational","address":"2 Cecile Street","suburb":"Parkes"}},{"type":"Feature","geometry":{"type":"Point","coordinates":[151.00483500000007,-33.8168939991271]},"properties":{"name":"Parramatta City Council","state":"New South Wales","localgovernmentarea_lga":"Parramatta (C)","class":"Council Office","operationalstatus":"Operational","address":"30 Darcy Street","suburb":"Parramatta"}},{"type":"Feature","geometry":{"type":"Point","coordinates":[150.6891320000001,-33.75030399912797]},"properties":{"name":"Penrith City Council","state":"New South Wales","localgovernmentarea_lga":"Penrith (C)","class":"Council Office","operationalstatus":"Operational","address":"601 High Street","suburb":"Penrith"}},{"type":"Feature","geometry":{"type":"Point","coordinates":[151.3003460000001,-33.69440699912865]},"properties":{"name":"Boondah Operations Centre","state":"New South Wales","localgovernmentarea_lga":"Pittwater (A)","class":"Council Office","operationalstatus":"Operational","address":"1 Boondah Road","suburb":"Warriewood"}},{"type":"Feature","geometry":{"type":"Point","coordinates":[152.9169320000001,-31.43459799915986]},"properties":{"name":"Port Macquarie-Hastings Council - Port Macquarie Office","state":"New South Wales","localgovernmentarea_lga":"Port Macquarie - Hastings (A)","class":"Council Office","operationalstatus":"Operational","address":"17 Burrawan Street","suburb":"Port Macquarie"}},{"type":"Feature","geometry":{"type":"Point","coordinates":[152.79578400000003,-31.65199499915661]},"properties":{"name":"Port Macquarie-Hastings Council - Laurieton Office","state":"New South Wales","localgovernmentarea_lga":"Port Macquarie - Hastings (A)","class":"Council Office","operationalstatus":"Operational","address":"9 Laurie Street","suburb":"Laurieton"}},{"type":"Feature","geometry":{"type":"Point","coordinates":[152.73138200000005,-31.45721499915954]},"properties":{"name":"Port Macquarie-Hastings Council - Wauchope Office","state":"New South Wales","localgovernmentarea_lga":"Port Macquarie - Hastings (A)","class":"Council Office","operationalstatus":"Operational","address":"49 High Street","suburb":"Wauchope"}},{"type":"Feature","geometry":{"type":"Point","coordinates":[151.74542300000007,-32.762966999140865]},"properties":{"name":"Port Stephens Council","state":"New South Wales","localgovernmentarea_lga":"Port Stephens (A)","class":"Council Office","operationalstatus":"Operational","address":"116 Adelaide Street","suburb":"Raymond Terrace"}},{"type":"Feature","geometry":{"type":"Point","coordinates":[149.23492700000008,-35.3545689991092]},"properties":{"name":"Queanbeyan City Council","state":"New South Wales","localgovernmentarea_lga":"Queanbeyan (C)","class":"Council Office","operationalstatus":"Operational","address":"257 Crawford Street","suburb":"Queanbeyan"}},{"type":"Feature","geometry":{"type":"Point","coordinates":[151.2424860000001,-33.91092999912594]},"properties":{"name":"Randwick City Council","state":"New South Wales","localgovernmentarea_lga":"Randwick (C)","class":"Council Office","operationalstatus":"Operational","address":"30 Frances Street","suburb":"Randwick"}},{"type":"Feature","geometry":{"type":"Point","coordinates":[153.04753000000005,-28.865923999201673]},"properties":{"name":"Richmond Valley Council","state":"New South Wales","localgovernmentarea_lga":"Richmond Valley (A)","class":"Council Office","operationalstatus":"Operational","address":"Graham Place","suburb":"Casino"}},{"type":"Feature","geometry":{"type":"Point","coordinates":[151.1396840000001,-33.95065599912547]},"properties":{"name":"Rockdale City Council","state":"New South Wales","localgovernmentarea_lga":"Rockdale (C)","class":"Council Office","operationalstatus":"Operational","address":"2 Bryant Street","suburb":"Rockdale"}},{"type":"Feature","geometry":{"type":"Point","coordinates":[151.1047390000001,-33.81245399912716]},"properties":{"name":"City of Ryde Council","state":"New South Wales","localgovernmentarea_lga":"Ryde (C)","class":"Council Office","operationalstatus":"Operational","address":"1 Devlin Street","suburb":"Ryde"}},{"type":"Feature","geometry":{"type":"Point","coordinates":[150.83916900000008,-34.56428699911811]},"properties":{"name":"Shellharbour City Council","state":"New South Wales","localgovernmentarea_lga":"Shellharbour (C)","class":"Council Office","operationalstatus":"Operational","address":"Lamerton Crescent","suburb":"Shellharbour City"}},{"type":"Feature","geometry":{"type":"Point","coordinates":[150.6028510000001,-34.869032999114566]},"properties":{"name":"Shoalhaven City Council","state":"New South Wales","localgovernmentarea_lga":"Shoalhaven (C)","class":"Council Office","operationalstatus":"Operational","address":"36 Bridge Road","suburb":"Nowra"}},{"type":"Feature","geometry":{"type":"Point","coordinates":[151.17626600000006,-32.55859699914368]},"properties":{"name":"Singleton Council","state":"New South Wales","localgovernmentarea_lga":"Singleton (A)","class":"Council Office","operationalstatus":"Operational","address":"Corner Queen Street and Civic Avenue","suburb":"Singleton"}},{"type":"Feature","geometry":{"type":"Point","coordinates":[148.82747400000005,-36.366173999098784]},"properties":{"name":"Snowy River Shire Council  - Berridale Office","state":"New South Wales","localgovernmentarea_lga":"Snowy River (A)","class":"Council Office","operationalstatus":"Operational","address":"2 Myack Street","suburb":"Berridale"}},{"type":"Feature","geometry":{"type":"Point","coordinates":[148.6212841480001,-36.4155916650983]},"properties":{"name":"Snowy River Shire Council - Jindabyne Office","state":"New South Wales","localgovernmentarea_lga":"Snowy River (A)","class":"Council Office","operationalstatus":"Operational","address":"Shop 3, 1 Gippsland Street","suburb":"Jindabyne"}},{"type":"Feature","geometry":{"type":"Point","coordinates":[151.08635800000002,-33.87489299912638]},"properties":{"name":"Strathfield Council","state":"New South Wales","localgovernmentarea_lga":"Strathfield (A)","class":"Council Office","operationalstatus":"Operational","address":"65 Homebush Road","suburb":"Strathfield"}},{"type":"Feature","geometry":{"type":"Point","coordinates":[151.05972100000008,-34.03048899912445]},"properties":{"name":"Sutherland Shire Council","state":"New South Wales","localgovernmentarea_lga":"Sutherland Shire (A)","class":"Council Office","operationalstatus":"Operational","address":"4 Eton Street","suburb":"Sutherland"}},{"type":"Feature","geometry":{"type":"Point","coordinates":[151.20539000000008,-33.8730899991264]},"properties":{"name":"City of Sydney Council","state":"New South Wales","localgovernmentarea_lga":"Sydney (C)","class":"Council Office","operationalstatus":"Operational","address":"Level 2  456 Kent Street","suburb":"Sydney"}},{"type":"Feature","geometry":{"type":"Point","coordinates":[150.9310620000001,-31.092835999165064]},"properties":{"name":"Tamworth Regional Council","state":"New South Wales","localgovernmentarea_lga":"Tamworth Regional (A)","class":"Council Office","operationalstatus":"Operational","address":"437 Peel Street","suburb":"Tamworth"}},{"type":"Feature","geometry":{"type":"Point","coordinates":[147.53470500000003,-34.44639599911945]},"properties":{"name":"Temora Shire Council","state":"New South Wales","localgovernmentarea_lga":"Temora (A)","class":"Council Office","operationalstatus":"Operational","address":"105 Loftus Street","suburb":"Temora"}},{"type":"Feature","geometry":{"type":"Point","coordinates":[152.0169370000001,-29.053753999198406]},"properties":{"name":"Tenterfield Shire Council","state":"New South Wales","localgovernmentarea_lga":"Tenterfield (A)","class":"Council Office","operationalstatus":"Operational","address":"247 Rouse Street","suburb":"Tenterfield"}},{"type":"Feature","geometry":{"type":"Point","coordinates":[148.01184100000012,-35.7775759991047]},"properties":{"name":"Tumbarumba Shire Council","state":"New South Wales","localgovernmentarea_lga":"Tumbarumba (A)","class":"Council Office","operationalstatus":"Operational","address":"Corner Bridge Street and Winton Street","suburb":"Tumbarumba"}},{"type":"Feature","geometry":{"type":"Point","coordinates":[148.21994000000007,-35.301362999109784]},"properties":{"name":"Tumut Shire Council","state":"New South Wales","localgovernmentarea_lga":"Tumut Shire (A)","class":"Council Office","operationalstatus":"Operational","address":"76 Capper Street","suburb":"Tumut"}},{"type":"Feature","geometry":{"type":"Point","coordinates":[153.4012120000001,-28.32672599921128]},"properties":{"name":"Tweed Shire Council - Murwillumbah Office","state":"New South Wales","localgovernmentarea_lga":"Tweed (A)","class":"Council Office","operationalstatus":"Operational","address":"10-14 Tumbulgum Road","suburb":"Murwillumbah"}},{"type":"Feature","geometry":{"type":"Point","coordinates":[153.54258400000003,-28.17761099921399]},"properties":{"name":"Tweed Shire Council - Tweed Heads Office","state":"New South Wales","localgovernmentarea_lga":"Tweed (A)","class":"Council Office","operationalstatus":"Operational","address":"Brett Street","suburb":"Tweed Heads"}},{"type":"Feature","geometry":{"type":"Point","coordinates":[150.86933800000008,-32.05141899915083]},"properties":{"name":"Upper Hunter Shire Council - Scone Office","state":"New South Wales","localgovernmentarea_lga":"Upper Hunter Shire (A)","class":"Council Office","operationalstatus":"Operational","address":"135 Liverpool Street","suburb":"Scone"}},{"type":"Feature","geometry":{"type":"Point","coordinates":[150.35538700000006,-32.13976999914955]},"properties":{"name":"Upper Hunter Shire Council - Merriwa Office","state":"New South Wales","localgovernmentarea_lga":"Upper Hunter Shire (A)","class":"Council Office","operationalstatus":"Operational","address":"34-40 Vennacher Street","suburb":"Merriwa"}},{"type":"Feature","geometry":{"type":"Point","coordinates":[150.83917300000007,-31.765131999154953]},"properties":{"name":"Upper Hunter Shire Council - Murrurundi Office","state":"New South Wales","localgovernmentarea_lga":"Upper Hunter Shire (A)","class":"Council Office","operationalstatus":"Operational","address":"47 Mayne Street","suburb":"Murrurundi"}},{"type":"Feature","geometry":{"type":"Point","coordinates":[149.47122000000002,-34.45775099911935]},"properties":{"name":"Upper Lachlan Shire Council","state":"New South Wales","localgovernmentarea_lga":"Upper Lachlan Shire (A)","class":"Council Office","operationalstatus":"Operational","address":"44 Spring Street","suburb":"Crookwell"}},{"type":"Feature","geometry":{"type":"Point","coordinates":[151.49931200000003,-30.642904999172025]},"properties":{"name":"Uralla Shire Council","state":"New South Wales","localgovernmentarea_lga":"Uralla (A)","class":"Council Office","operationalstatus":"Operational","address":"32 Salisbury Street","suburb":"Uralla"}},{"type":"Feature","geometry":{"type":"Point","coordinates":[146.26830800000005,-35.33106699910945]},"properties":{"name":"Urana Shire Council","state":"New South Wales","localgovernmentarea_lga":"Urana (A)","class":"Council Office","operationalstatus":"Operational","address":"30-32 William Street","suburb":"Urana"}},{"type":"Feature","geometry":{"type":"Point","coordinates":[147.37080100000003,-35.10963599911187]},"properties":{"name":"Wagga Wagga City Council","state":"New South Wales","localgovernmentarea_lga":"Wagga Wagga (C)","class":"Council Office","operationalstatus":"Operational","address":"Corner Baylis Street and Morrow Street","suburb":"Wagga Wagga"}},{"type":"Feature","geometry":{"type":"Point","coordinates":[144.12661900000012,-35.63017599910623]},"properties":{"name":"Wakool Shire Council","state":"New South Wales","localgovernmentarea_lga":"Wakool (A)","class":"Council Office","operationalstatus":"Operational","address":"15 Murray Street","suburb":"Barham"}},{"type":"Feature","geometry":{"type":"Point","coordinates":[151.59329800000012,-30.983573999166754]},"properties":{"name":"Walcha Shire Council","state":"New South Wales","localgovernmentarea_lga":"Walcha (A)","class":"Council Office","operationalstatus":"Operational","address":"2 Hamilton Street","suburb":"Walcha"}},{"type":"Feature","geometry":{"type":"Point","coordinates":[148.11695600000007,-30.023330999181997]},"properties":{"name":"Walgett Shire Council","state":"New South Wales","localgovernmentarea_lga":"Walgett (A)","class":"Council Office","operationalstatus":"Operational","address":"77 Fox Street","suburb":"Walgett"}},{"type":"Feature","geometry":{"type":"Point","coordinates":[147.83660700000007,-31.700649999155907]},"properties":{"name":"Warren Shire Council","state":"New South Wales","localgovernmentarea_lga":"Warren (A)","class":"Council Office","operationalstatus":"Operational","address":"115 Dubbo Street","suburb":"Warren"}},{"type":"Feature","geometry":{"type":"Point","coordinates":[151.2869790000001,-33.75126999912796]},"properties":{"name":"Warringah Council","state":"New South Wales","localgovernmentarea_lga":"Warringah (A)","class":"Council Office","operationalstatus":"Operational","address":"725 Pittwater Road","suburb":"Dee Why"}},{"type":"Feature","geometry":{"type":"Point","coordinates":[149.27761900000007,-31.275093999162277]},"properties":{"name":"Warrumbungle Shire Council","state":"New South Wales","localgovernmentarea_lga":"Warrumbungle Shire (A)","class":"Council Office","operationalstatus":"Operational","address":"14-22 John Street","suburb":"Coonabarabran"}},{"type":"Feature","geometry":{"type":"Point","coordinates":[151.24782800000003,-33.89267699912616]},"properties":{"name":"Waverley Council","state":"New South Wales","localgovernmentarea_lga":"Waverley (A)","class":"Council Office","operationalstatus":"Operational","address":"55 Spring Street","suburb":"Bondi Junction"}},{"type":"Feature","geometry":{"type":"Point","coordinates":[148.1623360000001,-33.89539399912614]},"properties":{"name":"Weddin Shire Council","state":"New South Wales","localgovernmentarea_lga":"Weddin (A)","class":"Council Office","operationalstatus":"Operational","address":"Corner Camp Street and Weddin Street","suburb":"Grenfell"}},{"type":"Feature","geometry":{"type":"Point","coordinates":[148.94055500000002,-32.55140599914374]},"properties":{"name":"Wellington Council","state":"New South Wales","localgovernmentarea_lga":"Wellington (A)","class":"Council Office","operationalstatus":"Operational","address":"Corner Nanima Crescent and Warne Street","suburb":"Wellington"}},{"type":"Feature","geometry":{"type":"Point","coordinates":[141.9168770000001,-34.10864299912354]},"properties":{"name":"Wentworth Shire Council","state":"New South Wales","localgovernmentarea_lga":"Wentworth (A)","class":"Council Office","operationalstatus":"Operational","address":"26-28 Adelaide Street","suburb":"Wentworth"}},{"type":"Feature","geometry":{"type":"Point","coordinates":[151.18239400000004,-33.79753999912738]},"properties":{"name":"Willoughby City Council","state":"New South Wales","localgovernmentarea_lga":"Willoughby (C)","class":"Council Office","operationalstatus":"Operational","address":"31 Victor Street","suburb":"Chatswood"}},{"type":"Feature","geometry":{"type":"Point","coordinates":[150.37309600000003,-34.55043399911823]},"properties":{"name":"Wingecarribee Shire Council","state":"New South Wales","localgovernmentarea_lga":"Wingecarribee (A)","class":"Council Office","operationalstatus":"Operational","address":"Civic Centre, Elizabeth Street","suburb":"Moss Vale"}},{"type":"Feature","geometry":{"type":"Point","coordinates":[150.6128440000001,-34.17006499912279]},"properties":{"name":"Wollondilly Shire Council","state":"New South Wales","localgovernmentarea_lga":"Wollondilly (A)","class":"Council Office","operationalstatus":"Operational","address":"62-64 Menangle Street","suburb":"Picton"}},{"type":"Feature","geometry":{"type":"Point","coordinates":[150.89876600000002,-34.4271619991197]},"properties":{"name":"Wollongong City Council","state":"New South Wales","localgovernmentarea_lga":"Wollongong (C)","class":"Council Office","operationalstatus":"Operational","address":"41 Burelli Street","suburb":"Wollongong"}},{"type":"Feature","geometry":{"type":"Point","coordinates":[151.2476640000001,-33.87267099912645]},"properties":{"name":"Woollahra Municipal Council","state":"New South Wales","localgovernmentarea_lga":"Woollahra (A)","class":"Council Office","operationalstatus":"Operational","address":"536 New South Head Road","suburb":"Double Bay"}},{"type":"Feature","geometry":{"type":"Point","coordinates":[151.42381000000012,-33.282812999133974]},"properties":{"name":"Wyong Shire Council","state":"New South Wales","localgovernmentarea_lga":"Wyong (A)","class":"Council Office","operationalstatus":"Operational","address":"2 Hely Street","suburb":"Wyong"}},{"type":"Feature","geometry":{"type":"Point","coordinates":[148.91342100000008,-34.84491799911484]},"properties":{"name":"Yass Valley Council","state":"New South Wales","localgovernmentarea_lga":"Yass Valley (A)","class":"Council Office","operationalstatus":"Operational","address":"209 Comur Street","suburb":"Yass"}},{"type":"Feature","geometry":{"type":"Point","coordinates":[148.29454800000008,-34.31243999912109]},"properties":{"name":"Young Shire Council","state":"New South Wales","localgovernmentarea_lga":"Young (A)","class":"Council Office","operationalstatus":"Operational","address":"189-205 Boorowa Street","suburb":"Young"}}]}