{"type":"FeatureCollection","metadata":{"title":"LGA Municipal Offices — New South Wales (border region)","description":"Municipal office locations for NSW councils from Vicmap Features of Interest. Enriched with weewoo_role field. These councils appear in this dataset because the source query covered the VIC border region.","source":"Vicmap Features of Interest — FeatureServer Layer 1","source_url":"https://services-ap1.arcgis.com/P744lA0wf4LlBZ84/arcgis/rest/services/Vicmap_Features_of_Interest/FeatureServer/1","licence":"CC BY 4.0","attribution":"Land Use Victoria (Department of Transport and Planning, Victoria)"},"crs":{"type":"name","properties":{"name":"EPSG:4326"}},"features":[{"type":"Feature","geometry":{"type":"Point","coordinates":[147.370799432288,-35.1096751900817]},"properties":{"name":"WAGGA WAGGA CITY COUNCIL","feature_type":"admin facility","feature_subtype":"municipal office","feature_status":null,"weewoo_role":"COUNCIL HQ"}},{"type":"Feature","geometry":{"type":"Point","coordinates":[143.565399616126,-34.6415890420631]},"properties":{"name":"BALRANALD SHIRE COUNCIL","feature_type":"admin facility","feature_subtype":"municipal office","feature_status":null,"weewoo_role":"COUNCIL HQ"}},{"type":"Feature","geometry":{"type":"Point","coordinates":[144.964699691881,-35.5317259588493]},"properties":{"name":"DENILIQUIN COUNCIL","feature_type":"admin facility","feature_subtype":"municipal office","feature_status":null,"weewoo_role":"COUNCIL HQ"}},{"type":"Feature","geometry":{"type":"Point","coordinates":[144.756308834766,-36.1142637428493]},"properties":{"name":"MURRAY SHIRE COUNCIL MOAMA","feature_type":"admin facility","feature_subtype":"municipal office","feature_status":null,"weewoo_role":null}},{"type":"Feature","geometry":{"type":"Point","coordinates":[148.827525757071,-36.3662226087711]},"properties":{"name":"SNOWY RIVER SHIRE COUNCIL","feature_type":"admin facility","feature_subtype":"municipal office","feature_status":null,"weewoo_role":"COUNCIL HQ"}},{"type":"Feature","geometry":{"type":"Point","coordinates":[149.127271651184,-36.2353969361284]},"properties":{"name":"COOMA-MONARO SHIRE COUNCIL","feature_type":"admin facility","feature_subtype":"municipal office","feature_status":null,"weewoo_role":"COUNCIL HQ"}},{"type":"Feature","geometry":{"type":"Point","coordinates":[149.239549476127,-36.9131176731837]},"properties":{"name":"BOMBALA COUNCIL","feature_type":"admin facility","feature_subtype":"municipal office","feature_status":null,"weewoo_role":"COUNCIL HQ"}},{"type":"Feature","geometry":{"type":"Point","coordinates":[146.406210172718,-34.5505113667367]},"properties":{"name":"LEETON SHIRE COUNCIL","feature_type":"admin facility","feature_subtype":"municipal office","feature_status":null,"weewoo_role":"COUNCIL HQ"}},{"type":"Feature","geometry":{"type":"Point","coordinates":[145.809054147064,-35.6574899647602]},"properties":{"name":"BERRIGAN SHIRE COUNCIL","feature_type":"admin facility","feature_subtype":"municipal office","feature_status":null,"weewoo_role":"COUNCIL HQ"}},{"type":"Feature","geometry":{"type":"Point","coordinates":[148.220050086656,-35.3012818761873]},"properties":{"name":"TUMUT SHIRE COUNCIL","feature_type":"admin facility","feature_subtype":"municipal office","feature_status":null,"weewoo_role":"COUNCIL HQ"}},{"type":"Feature","geometry":{"type":"Point","coordinates":[147.312212368572,-35.7245271359239]},"properties":{"name":"GREATER HUME SHIRE COUNCIL HOLBROOK","feature_type":"admin facility","feature_subtype":"municipal office","feature_status":null,"weewoo_role":"COUNCIL HQ"}},{"type":"Feature","geometry":{"type":"Point","coordinates":[146.915823020349,-36.0776549351726]},"properties":{"name":"ALBURY CITY COUNCIL","feature_type":"admin facility","feature_subtype":"municipal office","feature_status":null,"weewoo_role":"COUNCIL HQ"}},{"type":"Feature","geometry":{"type":"Point","coordinates":[145.725555614742,-35.3553170847891]},"properties":{"name":"JERILDERIE SHIRE COUNCIL","feature_type":"admin facility","feature_subtype":"municipal office","feature_status":null,"weewoo_role":"COUNCIL HQ"}},{"type":"Feature","geometry":{"type":"Point","coordinates":[148.011620748409,-35.7775205031804]},"properties":{"name":"TUMBARUMBA SHIRE COUNCIL","feature_type":"admin facility","feature_subtype":"municipal office","feature_status":null,"weewoo_role":"COUNCIL HQ"}},{"type":"Feature","geometry":{"type":"Point","coordinates":[145.880313164182,-34.8068992720388]},"properties":{"name":"MURRUMBIDGEE SHIRE COUNCIL COLEAMBALLY","feature_type":"admin facility","feature_subtype":"municipal office","feature_status":null,"weewoo_role":null}},{"type":"Feature","geometry":{"type":"Point","coordinates":[144.965679433157,-35.5335289973113]},"properties":{"name":"CONARGO SHIRE COUNCIL","feature_type":"admin facility","feature_subtype":"municipal office","feature_status":null,"weewoo_role":"COUNCIL HQ"}},{"type":"Feature","geometry":{"type":"Point","coordinates":[149.842008342244,-36.675878418772]},"properties":{"name":"BEGA VALLEY SHIRE COUNCIL","feature_type":"admin facility","feature_subtype":"municipal office","feature_status":null,"weewoo_role":"COUNCIL HQ"}},{"type":"Feature","geometry":{"type":"Point","coordinates":[144.897716998672,-35.8133459771626]},"properties":{"name":"MURRAY SHIRE COUNCIL MATHOURA","feature_type":"admin facility","feature_subtype":"municipal office","feature_status":null,"weewoo_role":"COUNCIL HQ"}},{"type":"Feature","geometry":{"type":"Point","coordinates":[148.101577280986,-35.0621331236816]},"properties":{"name":"GUNDAGAI SHIRE COUNCIL","feature_type":"admin facility","feature_subtype":"municipal office","feature_status":null,"weewoo_role":"COUNCIL HQ"}},{"type":"Feature","geometry":{"type":"Point","coordinates":[141.916934303427,-34.1086127780652]},"properties":{"name":"WENTWORTH SHIRE COUNCIL","feature_type":"admin facility","feature_subtype":"municipal office","feature_status":null,"weewoo_role":"COUNCIL HQ"}},{"type":"Feature","geometry":{"type":"Point","coordinates":[144.843314961285,-34.5090701897893]},"properties":{"name":"HAY SHIRE COUNCIL","feature_type":"admin facility","feature_subtype":"municipal office","feature_status":null,"weewoo_role":"COUNCIL HQ"}},{"type":"Feature","geometry":{"type":"Point","coordinates":[144.02914298157,-35.089232798332]},"properties":{"name":"THE COUNCIL OF THE SHIRE OF WAKOOL","feature_type":"admin facility","feature_subtype":"municipal office","feature_status":null,"weewoo_role":"COUNCIL HQ"}},{"type":"Feature","geometry":{"type":"Point","coordinates":[146.268311198418,-35.3311272889502]},"properties":{"name":"URANA SHIRE COUNCIL","feature_type":"admin facility","feature_subtype":"municipal office","feature_status":null,"weewoo_role":"COUNCIL HQ"}},{"type":"Feature","geometry":{"type":"Point","coordinates":[146.394198921225,-36.0028222831308]},"properties":{"name":"COROWA SHIRE COUNCIL","feature_type":"admin facility","feature_subtype":"municipal office","feature_status":null,"weewoo_role":"COUNCIL HQ"}},{"type":"Feature","geometry":{"type":"Point","coordinates":[147.036278241663,-35.6675966779841]},"properties":{"name":"GREATER HUME SHIRE COUNCIL CULCAIRN","feature_type":"admin facility","feature_subtype":"municipal office","feature_status":null,"weewoo_role":null}},{"type":"Feature","geometry":{"type":"Point","coordinates":[145.999063824159,-34.5687551633292]},"properties":{"name":"MURRUMBIDGEE SHIRE COUNCIL DARLINGTON POINT","feature_type":"admin facility","feature_subtype":"municipal office","feature_status":null,"weewoo_role":"COUNCIL HQ"}},{"type":"Feature","geometry":{"type":"Point","coordinates":[146.717657911591,-35.2209297218077]},"properties":{"name":"LOCKHART SHIRE COUNCIL","feature_type":"admin facility","feature_subtype":"municipal office","feature_status":null,"weewoo_role":"COUNCIL HQ"}}]}