{"type":"FeatureCollection","features":[{"type":"Feature","id":474,"geometry":{"type":"Point","coordinates":[117.88496800000007,-35.008375999112985]},"properties":{"objectid":474,"featuretype":"Council Office","description":"A facility where a Local Government\u00e2\u20ac\u2122s main council operations are regularly performed","class":"Council Office","sdedist.spool.NationalLGACouncilOffices_New.fid":"474","name":"City of Albany Council Office","operationalstatus":"Operational","localgovernmentarea_lga":"Albany (C)","address":"102 North Road","suburb":"Yakamia","state":"Western Australia","spatialconfidence":"5","revised":1417824000000,"comment":null}},{"type":"Feature","id":475,"geometry":{"type":"Point","coordinates":[116.0165430000001,-32.149770999149396]},"properties":{"objectid":475,"featuretype":"Council Office","description":"A facility where a Local Government\u00e2\u20ac\u2122s main council operations are regularly performed","class":"Council Office","sdedist.spool.NationalLGACouncilOffices_New.fid":"475","name":"City of Armadale Council Office","operationalstatus":"Operational","localgovernmentarea_lga":"Armadale (C)","address":"7 Orchard Avenue","suburb":"Armadale","state":"Western Australia","spatialconfidence":"5","revised":1417910400000,"comment":null}},{"type":"Feature","id":476,"geometry":{"type":"Point","coordinates":[117.79534600000012,-22.696735999327608]},"properties":{"objectid":476,"featuretype":"Council Office","description":"A facility where a Local Government\u00e2\u20ac\u2122s main council operations are regularly performed","class":"Council Office","sdedist.spool.NationalLGACouncilOffices_New.fid":"476","name":"Shire of Ashburton - Headquarters","operationalstatus":"Operational","localgovernmentarea_lga":"Ashburton (S)","address":"LOT 246 Poinciana Street","suburb":"Tom Price","state":"Western Australia","spatialconfidence":"5","revised":1424044800000,"comment":null}},{"type":"Feature","id":477,"geometry":{"type":"Point","coordinates":[115.11261300000004,-21.637028999352562]},"properties":{"objectid":477,"featuretype":"Council Office","description":"A facility where a Local Government\u00e2\u20ac\u2122s main council operations are regularly performed","class":"Council Office","sdedist.spool.NationalLGACouncilOffices_New.fid":"477","name":"Shire of Ashburton - Onslow Office","operationalstatus":"Operational","localgovernmentarea_lga":"Ashburton (S)","address":"Second Avenue","suburb":"Onslow","state":"Western Australia","spatialconfidence":"2","revised":1424044800000,"comment":null}},{"type":"Feature","id":478,"geometry":{"type":"Point","coordinates":[117.67153700000006,-23.200256999316103]},"properties":{"objectid":478,"featuretype":"Council Office","description":"A facility where a Local Government\u00e2\u20ac\u2122s main council operations are regularly performed","class":"Council Office","sdedist.spool.NationalLGACouncilOffices_New.fid":"478","name":"Shire of Ashburton - Paraburdoo Office","operationalstatus":"Operational","localgovernmentarea_lga":"Ashburton (S)","address":"Ashburton Avenue","suburb":"Paraburdoo","state":"Western Australia","spatialconfidence":"2","revised":1424044800000,"comment":null}},{"type":"Feature","id":479,"geometry":{"type":"Point","coordinates":[115.06761000000006,-33.95369499912544]},"properties":{"objectid":479,"featuretype":"Council Office","description":"A facility where a Local Government\u00e2\u20ac\u2122s main council operations are regularly performed","class":"Council Office","sdedist.spool.NationalLGACouncilOffices_New.fid":"479","name":"Shire of Augusta-Margaret River Council Office - Margaret River","operationalstatus":"Operational","localgovernmentarea_lga":"Augusta-Margaret River (S)","address":"41 Wallcliffe Road","suburb":"Margaret River","state":"Western Australia","spatialconfidence":"2","revised":1424044800000,"comment":null}},{"type":"Feature","id":480,"geometry":{"type":"Point","coordinates":[115.15597400000001,-34.31400799912103]},"properties":{"objectid":480,"featuretype":"Council Office","description":"A facility where a Local Government\u00e2\u20ac\u2122s main council operations are regularly performed","class":"Council Office","sdedist.spool.NationalLGACouncilOffices_New.fid":"480","name":"Shire of Augusta-Margaret River Council Office - Augusta","operationalstatus":"Operational","localgovernmentarea_lga":"Augusta-Margaret River (S)","address":"66 Allnutt Terrace","suburb":"Augusta","state":"Western Australia","spatialconfidence":"5","revised":1424044800000,"comment":null}},{"type":"Feature","id":481,"geometry":{"type":"Point","coordinates":[115.94962200000009,-31.90417299915294]},"properties":{"objectid":481,"featuretype":"Council Office","description":"A facility where a Local Government\u00e2\u20ac\u2122s main council operations are regularly performed","class":"Council Office","sdedist.spool.NationalLGACouncilOffices_New.fid":"481","name":"Town of Bassendean","operationalstatus":"Operational","localgovernmentarea_lga":"Bassendean (T)","address":"48 Old Perth Road","suburb":"Bassendean","state":"Western Australia","spatialconfidence":"5","revised":1424044800000,"comment":null}},{"type":"Feature","id":482,"geometry":{"type":"Point","coordinates":[115.90155800000002,-31.90606199915293]},"properties":{"objectid":482,"featuretype":"Council Office","description":"A facility where a Local Government\u00e2\u20ac\u2122s main council operations are regularly performed","class":"Council Office","sdedist.spool.NationalLGACouncilOffices_New.fid":"482","name":"City of Bayswater Council","operationalstatus":"Operational","localgovernmentarea_lga":"Bayswater (C)","address":"61 Broun Avenue","suburb":"Morley","state":"Western Australia","spatialconfidence":"5","revised":1424044800000,"comment":null}},{"type":"Feature","id":483,"geometry":{"type":"Point","coordinates":[115.93397200000004,-31.962368999152115]},"properties":{"objectid":483,"featuretype":"Council Office","description":"A facility where a Local Government\u00e2\u20ac\u2122s main council operations are regularly performed","class":"Council Office","sdedist.spool.NationalLGACouncilOffices_New.fid":"483","name":"City of Belmont","operationalstatus":"Operational","localgovernmentarea_lga":"Belmont (C)","address":"215 Wright Street","suburb":"Cloverdale","state":"Western Australia","spatialconfidence":"5","revised":1424044800000,"comment":null}},{"type":"Feature","id":484,"geometry":{"type":"Point","coordinates":[116.92439700000011,-32.10899299914999]},"properties":{"objectid":484,"featuretype":"Council Office","description":"A facility where a Local Government\u00e2\u20ac\u2122s main council operations are regularly performed","class":"Council Office","sdedist.spool.NationalLGACouncilOffices_New.fid":"484","name":"Shire of Beverley","operationalstatus":"Operational","localgovernmentarea_lga":"Beverley (S)","address":"136 Vincent Street","suburb":"Beverley","state":"Western Australia","spatialconfidence":"5","revised":1424044800000,"comment":null}},{"type":"Feature","id":485,"geometry":{"type":"Point","coordinates":[116.47512200000006,-32.80231899914034]},"properties":{"objectid":485,"featuretype":"Council Office","description":"A facility where a Local Government\u00e2\u20ac\u2122s main council operations are regularly performed","class":"Council Office","sdedist.spool.NationalLGACouncilOffices_New.fid":"485","name":"Shire of Boddington","operationalstatus":"Operational","localgovernmentarea_lga":"Boddington (S)","address":"39 Bannister Road","suburb":"Boddington","state":"Western Australia","spatialconfidence":"5","revised":1424044800000,"comment":null}},{"type":"Feature","id":486,"geometry":{"type":"Point","coordinates":[116.38634000000002,-33.83213099912694]},"properties":{"objectid":486,"featuretype":"Council Office","description":"A facility where a Local Government\u00e2\u20ac\u2122s main council operations are regularly performed","class":"Council Office","sdedist.spool.NationalLGACouncilOffices_New.fid":"486","name":"Shire of Boyup Brook","operationalstatus":"Operational","localgovernmentarea_lga":"Boyup Brook (S)","address":"Abel Street","suburb":"Boyup Brook","state":"Western Australia","spatialconfidence":"3","revised":1424044800000,"comment":null}},{"type":"Feature","id":487,"geometry":{"type":"Point","coordinates":[116.13742700000013,-33.957867999125384]},"properties":{"objectid":487,"featuretype":"Council Office","description":"A facility where a Local Government\u00e2\u20ac\u2122s main council operations are regularly performed","class":"Council Office","sdedist.spool.NationalLGACouncilOffices_New.fid":"487","name":"Shire of Bridgetown - Greenbushes","operationalstatus":"Operational","localgovernmentarea_lga":"Bridgetown - Greenbushes (S)","address":"1 Steere Street","suburb":"Bridgetown","state":"Western Australia","spatialconfidence":"5","revised":1424044800000,"comment":null}},{"type":"Feature","id":488,"geometry":{"type":"Point","coordinates":[117.00717200000008,-32.36875599914633]},"properties":{"objectid":488,"featuretype":"Council Office","description":"A facility where a Local Government\u00e2\u20ac\u2122s main council operations are regularly performed","class":"Council Office","sdedist.spool.NationalLGACouncilOffices_New.fid":"488","name":"Shire of Brookton","operationalstatus":"Operational","localgovernmentarea_lga":"Brookton (S)","address":"14 White Street","suburb":"Brookton","state":"Western Australia","spatialconfidence":"5","revised":1424044800000,"comment":null}},{"type":"Feature","id":489,"geometry":{"type":"Point","coordinates":[122.2393820000001,-17.960084999445826]},"properties":{"objectid":489,"featuretype":"Council Office","description":"A facility where a Local Government\u00e2\u20ac\u2122s main council operations are regularly performed","class":"Council Office","sdedist.spool.NationalLGACouncilOffices_New.fid":"489","name":"Shire of Broome","operationalstatus":"Operational","localgovernmentarea_lga":"Broome (S)","address":"27 Weld Street","suburb":"Broome","state":"Western Australia","spatialconfidence":"5","revised":1424044800000,"comment":null}},{"type":"Feature","id":490,"geometry":{"type":"Point","coordinates":[117.64158500000009,-34.04393199912435]},"properties":{"objectid":490,"featuretype":"Council Office","description":"A facility where a Local Government\u00e2\u20ac\u2122s main council operations are regularly performed","class":"Council Office","sdedist.spool.NationalLGACouncilOffices_New.fid":"490","name":"Shire of Broomehill-Tambellup","operationalstatus":"Operational","localgovernmentarea_lga":"Broomehill-Tambellup (S)","address":"46-48 Norrish Street","suburb":"Tambellup","state":"Western Australia","spatialconfidence":"5","revised":1424044800000,"comment":null}},{"type":"Feature","id":491,"geometry":{"type":"Point","coordinates":[118.14840200000005,-31.879079999153273]},"properties":{"objectid":491,"featuretype":"Council Office","description":"A facility where a Local Government\u00e2\u20ac\u2122s main council operations are regularly performed","class":"Council Office","sdedist.spool.NationalLGACouncilOffices_New.fid":"491","name":"Shire of Bruce Rock","operationalstatus":"Operational","localgovernmentarea_lga":"Bruce Rock (S)","address":"54 Johnson Street","suburb":"Bruce Rock","state":"Western Australia","spatialconfidence":"3","revised":1424044800000,"comment":null}},{"type":"Feature","id":492,"geometry":{"type":"Point","coordinates":[115.63604400000008,-33.3259749991334]},"properties":{"objectid":492,"featuretype":"Council Office","description":"A facility where a Local Government\u00e2\u20ac\u2122s main council operations are regularly performed","class":"Council Office","sdedist.spool.NationalLGACouncilOffices_New.fid":"492","name":"City of Bunbury","operationalstatus":"Operational","localgovernmentarea_lga":"Bunbury (C)","address":"4 Stephen Street","suburb":"Bunbury","state":"Western Australia","spatialconfidence":"5","revised":1424044800000,"comment":null}},{"type":"Feature","id":493,"geometry":{"type":"Point","coordinates":[115.3463650000001,-33.654944999129135]},"properties":{"objectid":493,"featuretype":"Council Office","description":"A facility where a Local Government\u00e2\u20ac\u2122s main council operations are regularly performed","class":"Council Office","sdedist.spool.NationalLGACouncilOffices_New.fid":"493","name":"City of Busselton","operationalstatus":"Operational","localgovernmentarea_lga":"Busselton (C)","address":"2 Southern Drive","suburb":"Busselton","state":"Western Australia","spatialconfidence":"5","revised":1424044800000,"comment":null}},{"type":"Feature","id":494,"geometry":{"type":"Point","coordinates":[115.7775170000001,-31.9363399991525]},"properties":{"objectid":494,"featuretype":"Council Office","description":"A facility where a Local Government\u00e2\u20ac\u2122s main council operations are regularly performed","class":"Council Office","sdedist.spool.NationalLGACouncilOffices_New.fid":"494","name":"Town of Cambridge","operationalstatus":"Operational","localgovernmentarea_lga":"Cambridge (T)","address":"1 Bold Park Drive","suburb":"Floreat","state":"Western Australia","spatialconfidence":"5","revised":1424044800000,"comment":null}},{"type":"Feature","id":495,"geometry":{"type":"Point","coordinates":[115.92982800000004,-32.01701299915132]},"properties":{"objectid":495,"featuretype":"Council Office","description":"A facility where a Local Government\u00e2\u20ac\u2122s main council operations are regularly performed","class":"Council Office","sdedist.spool.NationalLGACouncilOffices_New.fid":"495","name":"City of Canning","operationalstatus":"Operational","localgovernmentarea_lga":"Canning (C)","address":"1317 Albany Highway","suburb":"Cannington","state":"Western Australia","spatialconfidence":"5","revised":1424044800000,"comment":null}},{"type":"Feature","id":496,"geometry":{"type":"Point","coordinates":[115.56294900000012,-33.55323399913048]},"properties":{"objectid":496,"featuretype":"Council Office","description":"A facility where a Local Government\u00e2\u20ac\u2122s main council operations are regularly performed","class":"Council Office","sdedist.spool.NationalLGACouncilOffices_New.fid":"496","name":"Shire of Capel","operationalstatus":"Operational","localgovernmentarea_lga":"Capel (S)","address":"31 Forrest Road","suburb":"Capel","state":"Western Australia","spatialconfidence":"5","revised":1424044800000,"comment":null}},{"type":"Feature","id":497,"geometry":{"type":"Point","coordinates":[115.88951600000009,-29.68714899918762]},"properties":{"objectid":497,"featuretype":"Council Office","description":"A facility where a Local Government\u00e2\u20ac\u2122s main council operations are regularly performed","class":"Council Office","sdedist.spool.NationalLGACouncilOffices_New.fid":"497","name":"Shire of Carnamah","operationalstatus":"Operational","localgovernmentarea_lga":"Carnamah (S)","address":"33-37 Macpherson Street","suburb":"Carnamah","state":"Western Australia","spatialconfidence":"5","revised":1424044800000,"comment":null}},{"type":"Feature","id":498,"geometry":{"type":"Point","coordinates":[113.65760300000012,-24.884484999279046]},"properties":{"objectid":498,"featuretype":"Council Office","description":"A facility where a Local Government\u00e2\u20ac\u2122s main council operations are regularly performed","class":"Council Office","sdedist.spool.NationalLGACouncilOffices_New.fid":"498","name":"Shire of Carnarvon","operationalstatus":"Operational","localgovernmentarea_lga":"Carnarvon (S)","address":"3 Francis Street","suburb":"Carnarvon","state":"Western Australia","spatialconfidence":"3","revised":1424044800000,"comment":null}},{"type":"Feature","id":499,"geometry":{"type":"Point","coordinates":[114.78952400000003,-28.50121199920815]},"properties":{"objectid":499,"featuretype":"Council Office","description":"A facility where a Local Government\u00e2\u20ac\u2122s main council operations are regularly performed","class":"Council Office","sdedist.spool.NationalLGACouncilOffices_New.fid":"499","name":"Shire of Chapman Valley","operationalstatus":"Operational","localgovernmentarea_lga":"Chapman Valley (S)","address":"LOT 7 Chapman Valley Road","suburb":"Nabawa","state":"Western Australia","spatialconfidence":"5","revised":1424044800000,"comment":null}},{"type":"Feature","id":500,"geometry":{"type":"Point","coordinates":[116.09618900000012,-31.38623099916059]},"properties":{"objectid":500,"featuretype":"Council Office","description":"A facility where a Local Government\u00e2\u20ac\u2122s main council operations are regularly performed","class":"Council Office","sdedist.spool.NationalLGACouncilOffices_New.fid":"500","name":"Shire of Chittering","operationalstatus":"Operational","localgovernmentarea_lga":"Chittering (S)","address":"6177 Great Northern Highway","suburb":"Bindoon","state":"Western Australia","spatialconfidence":"5","revised":1424044800000,"comment":null}},{"type":"Feature","id":501,"geometry":{"type":"Point","coordinates":[105.67428300000007,-10.421625999663805]},"properties":{"objectid":501,"featuretype":"Council Office","description":"A facility where a Local Government\u00e2\u20ac\u2122s main council operations are regularly performed","class":"Council Office","sdedist.spool.NationalLGACouncilOffices_New.fid":"501","name":"Shire of Christmas Island","operationalstatus":"Operational","localgovernmentarea_lga":"Unincorp. Other Territories","address":"2 Murray Road","suburb":"Christmas Island","state":"Western Australia","spatialconfidence":"4","revised":1424044800000,"comment":null}},{"type":"Feature","id":502,"geometry":{"type":"Point","coordinates":[115.78182600000001,-31.98327499915179]},"properties":{"objectid":502,"featuretype":"Council Office","description":"A facility where a Local Government\u00e2\u20ac\u2122s main council operations are regularly performed","class":"Council Office","sdedist.spool.NationalLGACouncilOffices_New.fid":"502","name":"Town of Claremont","operationalstatus":"Operational","localgovernmentarea_lga":"Claremont (T)","address":"308 Stirling Highway","suburb":"Claremont","state":"Western Australia","spatialconfidence":"5","revised":1424044800000,"comment":null}},{"type":"Feature","id":503,"geometry":{"type":"Point","coordinates":[115.78376800000001,-32.1002799991501]},"properties":{"objectid":503,"featuretype":"Council Office","description":"A facility where a Local Government\u00e2\u20ac\u2122s main council operations are regularly performed","class":"Council Office","sdedist.spool.NationalLGACouncilOffices_New.fid":"503","name":"City of Cockburn","operationalstatus":"Operational","localgovernmentarea_lga":"Cockburn (C)","address":"9 Coleville Crescent","suburb":"Spearwood","state":"Western Australia","spatialconfidence":"5","revised":1424044800000,"comment":null}},{"type":"Feature","id":504,"geometry":{"type":"Point","coordinates":[96.89389400000005,-12.116711999612205]},"properties":{"objectid":504,"featuretype":"Council Office","description":"A facility where a Local Government\u00e2\u20ac\u2122s main council operations are regularly performed","class":"Council Office","sdedist.spool.NationalLGACouncilOffices_New.fid":"504","name":"Shire of Cocos (Keeling) Islands","operationalstatus":"Operational","localgovernmentarea_lga":"Unincorp. Other Territories","address":"LOT 256 Jalan Melati","suburb":"Home Island","state":"Western Australia","spatialconfidence":"3","revised":1424044800000,"comment":null}},{"type":"Feature","id":505,"geometry":{"type":"Point","coordinates":[96.82921300000004,-12.18850799961005]},"properties":{"objectid":505,"featuretype":"Council Office","description":"A facility where a Local Government\u00e2\u20ac\u2122s main council operations are regularly performed","class":"Council Office","sdedist.spool.NationalLGACouncilOffices_New.fid":"505","name":"Shire of Cocos (Keeling) Islands","operationalstatus":"Operational","localgovernmentarea_lga":"Unincorp. Other Territories","address":"Office 5 Administration Building","suburb":"West Island","state":"Western Australia","spatialconfidence":"3","revised":1424044800000,"comment":null}},{"type":"Feature","id":506,"geometry":{"type":"Point","coordinates":[116.15485400000011,-33.360955999132905]},"properties":{"objectid":506,"featuretype":"Council Office","description":"A facility where a Local Government\u00e2\u20ac\u2122s main council operations are regularly performed","class":"Council Office","sdedist.spool.NationalLGACouncilOffices_New.fid":"506","name":"Shire of Collie","operationalstatus":"Operational","localgovernmentarea_lga":"Collie (S)","address":"87 Throssell Street","suburb":"Collie","state":"Western Australia","spatialconfidence":"5","revised":1424044800000,"comment":null}},{"type":"Feature","id":507,"geometry":{"type":"Point","coordinates":[121.16150500000006,-30.9543019991672]},"properties":{"objectid":507,"featuretype":"Council Office","description":"A facility where a Local Government\u00e2\u20ac\u2122s main council operations are regularly performed","class":"Council Office","sdedist.spool.NationalLGACouncilOffices_New.fid":"507","name":"Shire of Coolgardie - Coolgardie Office","operationalstatus":"Operational","localgovernmentarea_lga":"Coolgardie (S)","address":"Bayley Street","suburb":"Coolgardie","state":"Western Australia","spatialconfidence":"5","revised":1424044800000,"comment":null}},{"type":"Feature","id":508,"geometry":{"type":"Point","coordinates":[121.6217200000001,-31.20904799916326]},"properties":{"objectid":508,"featuretype":"Council Office","description":"A facility where a Local Government\u00e2\u20ac\u2122s main council operations are regularly performed","class":"Council Office","sdedist.spool.NationalLGACouncilOffices_New.fid":"508","name":"Shire of Coolgardie - Kambalda Office","operationalstatus":"Operational","localgovernmentarea_lga":"Coolgardie (S)","address":"Irish Mulga Drive","suburb":"Kambalda West","state":"Western Australia","spatialconfidence":"5","revised":1424044800000,"comment":null}},{"type":"Feature","id":509,"geometry":{"type":"Point","coordinates":[116.0242340000001,-29.881264999184353]},"properties":{"objectid":509,"featuretype":"Council Office","description":"A facility where a Local Government\u00e2\u20ac\u2122s main council operations are regularly performed","class":"Council Office","sdedist.spool.NationalLGACouncilOffices_New.fid":"509","name":"Shire of Coorow - Coorow Office","operationalstatus":"Operational","localgovernmentarea_lga":"Coorow (S)","address":"Main Street","suburb":"Coorow","state":"Western Australia","spatialconfidence":"5","revised":1424044800000,"comment":null}},{"type":"Feature","id":510,"geometry":{"type":"Point","coordinates":[114.98102500000007,-29.949838999183214]},"properties":{"objectid":510,"featuretype":"Council Office","description":"A facility where a Local Government\u00e2\u20ac\u2122s main council operations are regularly performed","class":"Council Office","sdedist.spool.NationalLGACouncilOffices_New.fid":"510","name":"Shire of Coorow - Leeman Office","operationalstatus":"Operational","localgovernmentarea_lga":"Coorow (S)","address":"Morcombe Road","suburb":"Leeman","state":"Western Australia","spatialconfidence":"4","revised":1424044800000,"comment":null}},{"type":"Feature","id":511,"geometry":{"type":"Point","coordinates":[117.87651000000007,-32.33084199914686]},"properties":{"objectid":511,"featuretype":"Council Office","description":"A facility where a Local Government\u00e2\u20ac\u2122s main council operations are regularly performed","class":"Council Office","sdedist.spool.NationalLGACouncilOffices_New.fid":"511","name":"Shire of Corrigin","operationalstatus":"Operational","localgovernmentarea_lga":"Corrigin (S)","address":"9 Lynch Street","suburb":"Corrigin","state":"Western Australia","spatialconfidence":"5","revised":1424044800000,"comment":null}},{"type":"Feature","id":512,"geometry":{"type":"Point","coordinates":[115.75564200000007,-31.99362499915166]},"properties":{"objectid":512,"featuretype":"Council Office","description":"A facility where a Local Government\u00e2\u20ac\u2122s main council operations are regularly performed","class":"Council Office","sdedist.spool.NationalLGACouncilOffices_New.fid":"512","name":"Town of Cottesloe","operationalstatus":"Operational","localgovernmentarea_lga":"Cottesloe (T)","address":"109 Broome Street","suburb":"Cottesloe","state":"Western Australia","spatialconfidence":"5","revised":1424044800000,"comment":null}},{"type":"Feature","id":513,"geometry":{"type":"Point","coordinates":[117.55386400000013,-34.295738999121276]},"properties":{"objectid":513,"featuretype":"Council Office","description":"A facility where a Local Government\u00e2\u20ac\u2122s main council operations are regularly performed","class":"Council Office","sdedist.spool.NationalLGACouncilOffices_New.fid":"513","name":"Shire of Cranbrook","operationalstatus":"Operational","localgovernmentarea_lga":"Cranbrook (S)","address":"19 Gathorne Street","suburb":"Cranbrook","state":"Western Australia","spatialconfidence":"5","revised":1424044800000,"comment":null}},{"type":"Feature","id":514,"geometry":{"type":"Point","coordinates":[117.17748400000004,-32.81911899914011]},"properties":{"objectid":514,"featuretype":"Council Office","description":"A facility where a Local Government\u00e2\u20ac\u2122s main council operations are regularly performed","class":"Council Office","sdedist.spool.NationalLGACouncilOffices_New.fid":"514","name":"Shire of Cuballing","operationalstatus":"Operational","localgovernmentarea_lga":"Cuballing (S)","address":"Campbell Street","suburb":"Cuballing","state":"Western Australia","spatialconfidence":"5","revised":1424044800000,"comment":null}},{"type":"Feature","id":515,"geometry":{"type":"Point","coordinates":[117.89856200000011,-27.422979999228005]},"properties":{"objectid":515,"featuretype":"Council Office","description":"A facility where a Local Government\u00e2\u20ac\u2122s main council operations are regularly performed","class":"Council Office","sdedist.spool.NationalLGACouncilOffices_New.fid":"515","name":"Shire of Cue","operationalstatus":"Operational","localgovernmentarea_lga":"Cue (S)","address":"LOT 2 Austin Street","suburb":"Cue","state":"Western Australia","spatialconfidence":"4","revised":1424044800000,"comment":null}},{"type":"Feature","id":516,"geometry":{"type":"Point","coordinates":[117.23842500000003,-31.64959299915669]},"properties":{"objectid":516,"featuretype":"Council Office","description":"A facility where a Local Government\u00e2\u20ac\u2122s main council operations are regularly performed","class":"Council Office","sdedist.spool.NationalLGACouncilOffices_New.fid":"516","name":"Shire of Cunderdin","operationalstatus":"Operational","localgovernmentarea_lga":"Cunderdin (S)","address":"Lundy Avenue","suburb":"Cunderdin","state":"Western Australia","spatialconfidence":"3","revised":1424044800000,"comment":null}},{"type":"Feature","id":517,"geometry":{"type":"Point","coordinates":[116.66273500000013,-30.275537999177942]},"properties":{"objectid":517,"featuretype":"Council Office","description":"A facility where a Local Government\u00e2\u20ac\u2122s main council operations are regularly performed","class":"Council Office","sdedist.spool.NationalLGACouncilOffices_New.fid":"517","name":"Shire of Dalwallinu","operationalstatus":"Operational","localgovernmentarea_lga":"Dalwallinu (S)","address":"58 Johnston Street","suburb":"Dalwallinu","state":"Western Australia","spatialconfidence":"4","revised":1424044800000,"comment":null}},{"type":"Feature","id":518,"geometry":{"type":"Point","coordinates":[115.03774800000006,-30.307064999177413]},"properties":{"objectid":518,"featuretype":"Council Office","description":"A facility where a Local Government\u00e2\u20ac\u2122s main council operations are regularly performed","class":"Council Office","sdedist.spool.NationalLGACouncilOffices_New.fid":"518","name":"Shire of Dandaragan","operationalstatus":"Operational","localgovernmentarea_lga":"Dandaragan (S)","address":"69 Bashford Street","suburb":"Jurien Bay","state":"Western Australia","spatialconfidence":"5","revised":1424044800000,"comment":null}},{"type":"Feature","id":519,"geometry":{"type":"Point","coordinates":[115.71764100000006,-33.317386999133504]},"properties":{"objectid":519,"featuretype":"Council Office","description":"A facility where a Local Government\u00e2\u20ac\u2122s main council operations are regularly performed","class":"Council Office","sdedist.spool.NationalLGACouncilOffices_New.fid":"519","name":"Shire of Dardanup - Headquarters","operationalstatus":"Operational","localgovernmentarea_lga":"Dardanup (S)","address":"1 Council Drive","suburb":"Eaton","state":"Western Australia","spatialconfidence":"5","revised":1424044800000,"comment":null}},{"type":"Feature","id":520,"geometry":{"type":"Point","coordinates":[115.7567570000001,-33.39883799913245]},"properties":{"objectid":520,"featuretype":"Council Office","description":"A facility where a Local Government\u00e2\u20ac\u2122s main council operations are regularly performed","class":"Council Office","sdedist.spool.NationalLGACouncilOffices_New.fid":"520","name":"Shire of Dardanup - Office","operationalstatus":"Operational","localgovernmentarea_lga":"Dardanup (S)","address":"3 Little Street","suburb":"Dardanup","state":"Western Australia","spatialconfidence":"5","revised":1424044800000,"comment":null}},{"type":"Feature","id":521,"geometry":{"type":"Point","coordinates":[117.36553900000001,-34.95936099911354]},"properties":{"objectid":521,"featuretype":"Council Office","description":"A facility where a Local Government\u00e2\u20ac\u2122s main council operations are regularly performed","class":"Council Office","sdedist.spool.NationalLGACouncilOffices_New.fid":"521","name":"Shire of Denmark","operationalstatus":"Operational","localgovernmentarea_lga":"Denmark (S)","address":"953 South Coast Highway","suburb":"Denmark","state":"Western Australia","spatialconfidence":"5","revised":1424044800000,"comment":null}},{"type":"Feature","id":522,"geometry":{"type":"Point","coordinates":[123.6284350000001,-17.303011999463536]},"properties":{"objectid":522,"featuretype":"Council Office","description":"A facility where a Local Government\u00e2\u20ac\u2122s main council operations are regularly performed","class":"Council Office","sdedist.spool.NationalLGACouncilOffices_New.fid":"522","name":"Shire of Derb -West Kimberley","operationalstatus":"Operational","localgovernmentarea_lga":"Derby-West Kimberley (S)","address":"Corner Loch Street and Johnston Street","suburb":"Derby","state":"Western Australia","spatialconfidence":"5","revised":1424044800000,"comment":null}},{"type":"Feature","id":523,"geometry":{"type":"Point","coordinates":[125.5672360000001,-18.197428999439516]},"properties":{"objectid":523,"featuretype":"Council Office","description":"A facility where a Local Government\u00e2\u20ac\u2122s main council operations are regularly performed","class":"Council Office","sdedist.spool.NationalLGACouncilOffices_New.fid":"523","name":"Shire of Derby-West Kimberley","operationalstatus":"Operational","localgovernmentarea_lga":"Derby-West Kimberley (S)","address":"Corner Great Northern Highway and Forrest Road","suburb":"Fitzroy Crossing","state":"Western Australia","spatialconfidence":"3","revised":1424044800000,"comment":null}},{"type":"Feature","id":524,"geometry":{"type":"Point","coordinates":[115.8236240000001,-33.57610699913019]},"properties":{"objectid":524,"featuretype":"Council Office","description":"A facility where a Local Government\u00e2\u20ac\u2122s main council operations are regularly performed","class":"Council Office","sdedist.spool.NationalLGACouncilOffices_New.fid":"524","name":"Shire of Donnybrook-Balingup","operationalstatus":"Operational","localgovernmentarea_lga":"Donnybrook-Balingup (S)","address":"Corner Collins Street and Bentley Street","suburb":"Donnybrook","state":"Western Australia","spatialconfidence":"5","revised":1424044800000,"comment":null}},{"type":"Feature","id":525,"geometry":{"type":"Point","coordinates":[117.03268400000002,-31.194130999163512]},"properties":{"objectid":525,"featuretype":"Council Office","description":"A facility where a Local Government\u00e2\u20ac\u2122s main council operations are regularly performed","class":"Council Office","sdedist.spool.NationalLGACouncilOffices_New.fid":"525","name":"Shire of Dowerin","operationalstatus":"Operational","localgovernmentarea_lga":"Dowerin (S)","address":"13 Cottrell Street","suburb":"Dowerin","state":"Western Australia","spatialconfidence":"5","revised":1424044800000,"comment":null}},{"type":"Feature","id":526,"geometry":{"type":"Point","coordinates":[117.74014800000008,-33.31305299913356]},"properties":{"objectid":526,"featuretype":"Council Office","description":"A facility where a Local Government\u00e2\u20ac\u2122s main council operations are regularly performed","class":"Council Office","sdedist.spool.NationalLGACouncilOffices_New.fid":"526","name":"Shire of Dumbleyung","operationalstatus":"Operational","localgovernmentarea_lga":"Dumbleyung (S)","address":"Harvey Street","suburb":"Dumbleyung","state":"Western Australia","spatialconfidence":"5","revised":1424044800000,"comment":null}},{"type":"Feature","id":527,"geometry":{"type":"Point","coordinates":[121.779086,-32.19879199914873]},"properties":{"objectid":527,"featuretype":"Council Office","description":"A facility where a Local Government\u00e2\u20ac\u2122s main council operations are regularly performed","class":"Council Office","sdedist.spool.NationalLGACouncilOffices_New.fid":"527","name":"Shire of Dundas","operationalstatus":"Operational","localgovernmentarea_lga":"Dundas (S)","address":"88-92 Prinsep Street","suburb":"Norseman","state":"Western Australia","spatialconfidence":"5","revised":1424044800000,"comment":null}},{"type":"Feature","id":528,"geometry":{"type":"Point","coordinates":[115.76302400000013,-32.04120299915094]},"properties":{"objectid":528,"featuretype":"Council Office","description":"A facility where a Local Government\u00e2\u20ac\u2122s main council operations are regularly performed","class":"Council Office","sdedist.spool.NationalLGACouncilOffices_New.fid":"528","name":"Town of East Fremantle","operationalstatus":"Operational","localgovernmentarea_lga":"East Fremantle (T)","address":"135 Canning Highway","suburb":"East Fremantle","state":"Western Australia","spatialconfidence":"5","revised":1424044800000,"comment":null}},{"type":"Feature","id":529,"geometry":{"type":"Point","coordinates":[119.73780300000013,-23.356851999312536]},"properties":{"objectid":529,"featuretype":"Council Office","description":"A facility where a Local Government\u00e2\u20ac\u2122s main council operations are regularly performed","class":"Council Office","sdedist.spool.NationalLGACouncilOffices_New.fid":"529","name":"Shire of East Pilbara - Newman","operationalstatus":"Operational","localgovernmentarea_lga":"East Pilbara (S)","address":"Corner Kalgan Drive and Newman Drive","suburb":"Newman","state":"Western Australia","spatialconfidence":"5","revised":1424044800000,"comment":null}},{"type":"Feature","id":530,"geometry":{"type":"Point","coordinates":[119.74539300000006,-21.1728359993638]},"properties":{"objectid":530,"featuretype":"Council Office","description":"A facility where a Local Government\u00e2\u20ac\u2122s main council operations are regularly performed","class":"Council Office","sdedist.spool.NationalLGACouncilOffices_New.fid":"530","name":"Shire of East Pilbara - Marble Bar","operationalstatus":"Operational","localgovernmentarea_lga":"East Pilbara (S)","address":"20 Francis Street","suburb":"Marble Bar","state":"Western Australia","spatialconfidence":"5","revised":1424044800000,"comment":null}},{"type":"Feature","id":531,"geometry":{"type":"Point","coordinates":[121.8901750000001,-33.86005299912656]},"properties":{"objectid":531,"featuretype":"Council Office","description":"A facility where a Local Government\u00e2\u20ac\u2122s main council operations are regularly performed","class":"Council Office","sdedist.spool.NationalLGACouncilOffices_New.fid":"531","name":"Shire of Esperance","operationalstatus":"Operational","localgovernmentarea_lga":"Esperance (S)","address":"Windich Street","suburb":"Esperance","state":"Western Australia","spatialconfidence":"5","revised":1424044800000,"comment":null}},{"type":"Feature","id":532,"geometry":{"type":"Point","coordinates":[114.1239220000001,-21.92909299934563]},"properties":{"objectid":532,"featuretype":"Council Office","description":"A facility where a Local Government\u00e2\u20ac\u2122s main council operations are regularly performed","class":"Council Office","sdedist.spool.NationalLGACouncilOffices_New.fid":"532","name":"Shire of Exmouth","operationalstatus":"Operational","localgovernmentarea_lga":"Exmouth (S)","address":"22 Maidstone Crescent","suburb":"Exmouth","state":"Western Australia","spatialconfidence":"5","revised":1424044800000,"comment":null}},{"type":"Feature","id":533,"geometry":{"type":"Point","coordinates":[115.74809200000006,-32.054263999150756]},"properties":{"objectid":533,"featuretype":"Council Office","description":"A facility where a Local Government\u00e2\u20ac\u2122s main council operations are regularly performed","class":"Council Office","sdedist.spool.NationalLGACouncilOffices_New.fid":"533","name":"City of Fremantle","operationalstatus":"Operational","localgovernmentarea_lga":"Fremantle (C)","address":"8 William Street","suburb":"Fremantle","state":"Western Australia","spatialconfidence":"5","revised":1424044800000,"comment":null}},{"type":"Feature","id":534,"geometry":{"type":"Point","coordinates":[115.90401600000007,-31.346779999161196]},"properties":{"objectid":534,"featuretype":"Council Office","description":"A facility where a Local Government\u00e2\u20ac\u2122s main council operations are regularly performed","class":"Council Office","sdedist.spool.NationalLGACouncilOffices_New.fid":"534","name":"Shire of Gingin","operationalstatus":"Operational","localgovernmentarea_lga":"Gingin (S)","address":"7 Brockman Street","suburb":"Gingin","state":"Western Australia","spatialconfidence":"5","revised":1424044800000,"comment":null}},{"type":"Feature","id":535,"geometry":{"type":"Point","coordinates":[118.00727100000006,-33.936003999125646]},"properties":{"objectid":535,"featuretype":"Council Office","description":"A facility where a Local Government\u00e2\u20ac\u2122s main council operations are regularly performed","class":"Council Office","sdedist.spool.NationalLGACouncilOffices_New.fid":"535","name":"Shire of Gnowangerup","operationalstatus":"Operational","localgovernmentarea_lga":"Gnowangerup (S)","address":"28 Yougenup Road","suburb":"Gnowangerup","state":"Western Australia","spatialconfidence":"5","revised":1424044800000,"comment":null}},{"type":"Feature","id":536,"geometry":{"type":"Point","coordinates":[116.82691300000009,-31.299750999161898]},"properties":{"objectid":536,"featuretype":"Council Office","description":"A facility where a Local Government\u00e2\u20ac\u2122s main council operations are regularly performed","class":"Council Office","sdedist.spool.NationalLGACouncilOffices_New.fid":"536","name":"Shire of Goomalling","operationalstatus":"Operational","localgovernmentarea_lga":"Goomalling (S)","address":"32 Quinlan Street","suburb":"Goomalling","state":"Western Australia","spatialconfidence":"5","revised":1424044800000,"comment":null}},{"type":"Feature","id":537,"geometry":{"type":"Point","coordinates":[116.00047100000006,-32.06537499915062]},"properties":{"objectid":537,"featuretype":"Council Office","description":"A facility where a Local Government\u00e2\u20ac\u2122s main council operations are regularly performed","class":"Council Office","sdedist.spool.NationalLGACouncilOffices_New.fid":"537","name":"City of Gosnells","operationalstatus":"Operational","localgovernmentarea_lga":"Gosnells (C)","address":"2120 Albany Highway","suburb":"Gosnells","state":"Western Australia","spatialconfidence":"5","revised":1424044800000,"comment":null}},{"type":"Feature","id":538,"geometry":{"type":"Point","coordinates":[114.61182200000007,-28.776340999203253]},"properties":{"objectid":538,"featuretype":"Council Office","description":"A facility where a Local Government\u00e2\u20ac\u2122s main council operations are regularly performed","class":"Council Office","sdedist.spool.NationalLGACouncilOffices_New.fid":"538","name":"City of Greater Geraldton - Headquarters","operationalstatus":"Operational","localgovernmentarea_lga":"Greater Geraldton (C)","address":"63 Cathedral Avenue","suburb":"Geraldton","state":"Western Australia","spatialconfidence":"5","revised":1424044800000,"comment":null}},{"type":"Feature","id":539,"geometry":{"type":"Point","coordinates":[115.51085600000012,-28.540362999207446]},"properties":{"objectid":539,"featuretype":"Council Office","description":"A facility where a Local Government\u00e2\u20ac\u2122s main council operations are regularly performed","class":"Council Office","sdedist.spool.NationalLGACouncilOffices_New.fid":"539","name":"City of Greater Geraldton - Office","operationalstatus":"Operational","localgovernmentarea_lga":"Greater Geraldton (C)","address":"Corner Thomas Street and Padbury Street","suburb":"Mullewa","state":"Western Australia","spatialconfidence":"5","revised":1424044800000,"comment":null}},{"type":"Feature","id":540,"geometry":{"type":"Point","coordinates":[127.66740300000004,-18.225479999438786]},"properties":{"objectid":540,"featuretype":"Council Office","description":"A facility where a Local Government\u00e2\u20ac\u2122s main council operations are regularly performed","class":"Council Office","sdedist.spool.NationalLGACouncilOffices_New.fid":"540","name":"Shire of Halls Creek","operationalstatus":"Operational","localgovernmentarea_lga":"Halls Creek (S)","address":"LOT 71 Thomas Street","suburb":"Halls Creek","state":"Western Australia","spatialconfidence":"5","revised":1424044800000,"comment":null}},{"type":"Feature","id":541,"geometry":{"type":"Point","coordinates":[115.89326100000007,-33.07972499913661]},"properties":{"objectid":541,"featuretype":"Council Office","description":"A facility where a Local Government\u00e2\u20ac\u2122s main council operations are regularly performed","class":"Council Office","sdedist.spool.NationalLGACouncilOffices_New.fid":"541","name":"Shire of Harvey - Harvey Office","operationalstatus":"Operational","localgovernmentarea_lga":"Harvey (S)","address":"102 Uduc Road","suburb":"Harvey","state":"Western Australia","spatialconfidence":"5","revised":1424044800000,"comment":null}},{"type":"Feature","id":542,"geometry":{"type":"Point","coordinates":[115.71651200000008,-33.27927299913398]},"properties":{"objectid":542,"featuretype":"Council Office","description":"A facility where a Local Government\u00e2\u20ac\u2122s main council operations are regularly performed","class":"Council Office","sdedist.spool.NationalLGACouncilOffices_New.fid":"542","name":"Shire of Harvey","operationalstatus":"Operational","localgovernmentarea_lga":"Harvey (S)","address":"7 Mulgara Street","suburb":"Australind","state":"Western Australia","spatialconfidence":"5","revised":1424044800000,"comment":null}},{"type":"Feature","id":543,"geometry":{"type":"Point","coordinates":[114.9306590000001,-29.251808999195003]},"properties":{"objectid":543,"featuretype":"Council Office","description":"A facility where a Local Government\u00e2\u20ac\u2122s main council operations are regularly performed","class":"Council Office","sdedist.spool.NationalLGACouncilOffices_New.fid":"543","name":"Shire of Irwin","operationalstatus":"Operational","localgovernmentarea_lga":"Irwin (S)","address":"11-13 Waldeck Street","suburb":"Dongara","state":"Western Australia","spatialconfidence":"5","revised":1424044800000,"comment":null}},{"type":"Feature","id":544,"geometry":{"type":"Point","coordinates":[118.91928700000007,-33.94212099912554]},"properties":{"objectid":544,"featuretype":"Council Office","description":"A facility where a Local Government\u00e2\u20ac\u2122s main council operations are regularly performed","class":"Council Office","sdedist.spool.NationalLGACouncilOffices_New.fid":"544","name":"Shire of Jerramungup","operationalstatus":"Operational","localgovernmentarea_lga":"Jerramungup (S)","address":"8 Vasey Street","suburb":"Jerramungup","state":"Western Australia","spatialconfidence":"5","revised":1424044800000,"comment":null}},{"type":"Feature","id":545,"geometry":{"type":"Point","coordinates":[115.77244900000007,-31.74425399915528]},"properties":{"objectid":545,"featuretype":"Council Office","description":"A facility where a Local Government\u00e2\u20ac\u2122s main council operations are regularly performed","class":"Council Office","sdedist.spool.NationalLGACouncilOffices_New.fid":"545","name":"City of Joondalup","operationalstatus":"Operational","localgovernmentarea_lga":"Joondalup (S)","address":"90 Boas Avenue","suburb":"Joondalup","state":"Western Australia","spatialconfidence":"5","revised":1424044800000,"comment":null}},{"type":"Feature","id":546,"geometry":{"type":"Point","coordinates":[116.06127700000005,-31.97804799915186]},"properties":{"objectid":546,"featuretype":"Council Office","description":"A facility where a Local Government\u00e2\u20ac\u2122s main council operations are regularly performed","class":"Council Office","sdedist.spool.NationalLGACouncilOffices_New.fid":"546","name":"Shire of Kalamunda","operationalstatus":"Operational","localgovernmentarea_lga":"Kalamunda (S)","address":"2 Railway Road","suburb":"Kalamunda","state":"Western Australia","spatialconfidence":"5","revised":1424044800000,"comment":null}},{"type":"Feature","id":547,"geometry":{"type":"Point","coordinates":[121.45587800000011,-30.763478999170147]},"properties":{"objectid":547,"featuretype":"Council Office","description":"A facility where a Local Government\u00e2\u20ac\u2122s main council operations are regularly performed","class":"Council Office","sdedist.spool.NationalLGACouncilOffices_New.fid":"547","name":"City of Kalgoorlie-Boulder","operationalstatus":"Operational","localgovernmentarea_lga":"Kalgoorlie-Boulder (C)","address":"577 Hannan Street","suburb":"Kalgoorlie","state":"Western Australia","spatialconfidence":"5","revised":1424044800000,"comment":null}},{"type":"Feature","id":548,"geometry":{"type":"Point","coordinates":[116.84783100000006,-20.7370019993745]},"properties":{"objectid":548,"featuretype":"Council Office","description":"A facility where a Local Government\u00e2\u20ac\u2122s main council operations are regularly performed","class":"Council Office","sdedist.spool.NationalLGACouncilOffices_New.fid":"548","name":"City of Karratha","operationalstatus":"Operational","localgovernmentarea_lga":"Karratha (C)","address":"LOT 1083 Welcome Road","suburb":"Karratha","state":"Western Australia","spatialconfidence":"5","revised":1424044800000,"comment":null}},{"type":"Feature","id":549,"geometry":{"type":"Point","coordinates":[117.55423200000008,-33.69034399912874]},"properties":{"objectid":549,"featuretype":"Council Office","description":"A facility where a Local Government\u00e2\u20ac\u2122s main council operations are regularly performed","class":"Council Office","sdedist.spool.NationalLGACouncilOffices_New.fid":"549","name":"Shire of Katanning","operationalstatus":"Operational","localgovernmentarea_lga":"Katanning (S)","address":"16-24 Austral Terrace","suburb":"Katanning","state":"Western Australia","spatialconfidence":"5","revised":1424044800000,"comment":null}},{"type":"Feature","id":550,"geometry":{"type":"Point","coordinates":[117.72206200000007,-31.633668999156892]},"properties":{"objectid":550,"featuretype":"Council Office","description":"A facility where a Local Government\u00e2\u20ac\u2122s main council operations are regularly performed","class":"Council Office","sdedist.spool.NationalLGACouncilOffices_New.fid":"550","name":"Shire of Kellerberrin","operationalstatus":"Operational","localgovernmentarea_lga":"Kellerberrin (S)","address":"110 Massingham Street","suburb":"Kellerberrin","state":"Western Australia","spatialconfidence":"5","revised":1424044800000,"comment":null}},{"type":"Feature","id":551,"geometry":{"type":"Point","coordinates":[118.14978200000009,-33.54134499913062]},"properties":{"objectid":551,"featuretype":"Council Office","description":"A facility where a Local Government\u00e2\u20ac\u2122s main council operations are regularly performed","class":"Council Office","sdedist.spool.NationalLGACouncilOffices_New.fid":"551","name":"Shire of Kent","operationalstatus":"Operational","localgovernmentarea_lga":"Kent (S)","address":"24-26 Richmond Street","suburb":"Nyabing","state":"Western Australia","spatialconfidence":"5","revised":1424044800000,"comment":null}},{"type":"Feature","id":552,"geometry":{"type":"Point","coordinates":[117.15927300000008,-33.832221999126936]},"properties":{"objectid":552,"featuretype":"Council Office","description":"A facility where a Local Government\u00e2\u20ac\u2122s main council operations are regularly performed","class":"Council Office","sdedist.spool.NationalLGACouncilOffices_New.fid":"552","name":"Shire of Kojonup","operationalstatus":"Operational","localgovernmentarea_lga":"Kojonup (S)","address":"93-95 Albany Highway","suburb":"Kojonup","state":"Western Australia","spatialconfidence":"5","revised":1424044800000,"comment":null}},{"type":"Feature","id":553,"geometry":{"type":"Point","coordinates":[118.26690800000006,-32.49544499914456]},"properties":{"objectid":553,"featuretype":"Council Office","description":"A facility where a Local Government\u00e2\u20ac\u2122s main council operations are regularly performed","class":"Council Office","sdedist.spool.NationalLGACouncilOffices_New.fid":"553","name":"Shire of Kondinin - Kondinin","operationalstatus":"Operational","localgovernmentarea_lga":"Kondinin (S)","address":"11 Gordon Street","suburb":"Kondinin","state":"Western Australia","spatialconfidence":"5","revised":1424044800000,"comment":null}},{"type":"Feature","id":554,"geometry":{"type":"Point","coordinates":[118.86302400000011,-32.448910999145184]},"properties":{"objectid":554,"featuretype":"Council Office","description":"A facility where a Local Government\u00e2\u20ac\u2122s main council operations are regularly performed","class":"Council Office","sdedist.spool.NationalLGACouncilOffices_New.fid":"554","name":"Shire of Kondinin - Hyden","operationalstatus":"Operational","localgovernmentarea_lga":"Kondinin (S)","address":"12 McPherson Street","suburb":"Hyden","state":"Western Australia","spatialconfidence":"3","revised":1424044800000,"comment":null}},{"type":"Feature","id":555,"geometry":{"type":"Point","coordinates":[117.48400500000005,-30.82455499916922]},"properties":{"objectid":555,"featuretype":"Council Office","description":"A facility where a Local Government\u00e2\u20ac\u2122s main council operations are regularly performed","class":"Council Office","sdedist.spool.NationalLGACouncilOffices_New.fid":"555","name":"Shire of Koorda","operationalstatus":"Operational","localgovernmentarea_lga":"Koorda (S)","address":"Corner Allenby Street and Haig Street","suburb":"Koorda","state":"Western Australia","spatialconfidence":"3","revised":1424044800000,"comment":null}},{"type":"Feature","id":556,"geometry":{"type":"Point","coordinates":[118.15398400000005,-32.67192899914214]},"properties":{"objectid":556,"featuretype":"Council Office","description":"A facility where a Local Government\u00e2\u20ac\u2122s main council operations are regularly performed","class":"Council Office","sdedist.spool.NationalLGACouncilOffices_New.fid":"556","name":"Shire of Kulin","operationalstatus":"Operational","localgovernmentarea_lga":"Kulin (S)","address":"24 Johnston Street","suburb":"Kulin","state":"Western Australia","spatialconfidence":"5","revised":1424044800000,"comment":null}},{"type":"Feature","id":557,"geometry":{"type":"Point","coordinates":[115.8133610000001,-32.240779999148145]},"properties":{"objectid":557,"featuretype":"Council Office","description":"A facility where a Local Government\u00e2\u20ac\u2122s main council operations are regularly performed","class":"Council Office","sdedist.spool.NationalLGACouncilOffices_New.fid":"557","name":"City of Kwinana","operationalstatus":"Operational","localgovernmentarea_lga":"Kwinana (C)","address":"Corner Gilmore Avenue and Sulphur Road","suburb":"Kwinana","state":"Western Australia","spatialconfidence":"5","revised":1424044800000,"comment":null}},{"type":"Feature","id":558,"geometry":{"type":"Point","coordinates":[118.45803200000012,-33.101191999136354]},"properties":{"objectid":558,"featuretype":"Council Office","description":"A facility where a Local Government\u00e2\u20ac\u2122s main council operations are regularly performed","class":"Council Office","sdedist.spool.NationalLGACouncilOffices_New.fid":"558","name":"Shire of Lake Grace","operationalstatus":"Operational","localgovernmentarea_lga":"Lake Grace (S)","address":"1 Bishop Street","suburb":"Lake Grace","state":"Western Australia","spatialconfidence":"5","revised":1424044800000,"comment":null}},{"type":"Feature","id":559,"geometry":{"type":"Point","coordinates":[122.40392700000008,-28.627317999205886]},"properties":{"objectid":559,"featuretype":"Council Office","description":"A facility where a Local Government\u00e2\u20ac\u2122s main council operations are regularly performed","class":"Council Office","sdedist.spool.NationalLGACouncilOffices_New.fid":"559","name":"Shire of Laverton","operationalstatus":"Operational","localgovernmentarea_lga":"Laverton (S)","address":"9 Macpherson Place","suburb":"Laverton","state":"Western Australia","spatialconfidence":"3","revised":1424044800000,"comment":null}},{"type":"Feature","id":560,"geometry":{"type":"Point","coordinates":[121.33027100000004,-28.888445999201263]},"properties":{"objectid":560,"featuretype":"Council Office","description":"A facility where a Local Government\u00e2\u20ac\u2122s main council operations are regularly performed","class":"Council Office","sdedist.spool.NationalLGACouncilOffices_New.fid":"560","name":"Shire of Leonora","operationalstatus":"Operational","localgovernmentarea_lga":"Leonora (S)","address":"16 Tower Street","suburb":"Leonora","state":"Western Australia","spatialconfidence":"2","revised":1424044800000,"comment":null}},{"type":"Feature","id":561,"geometry":{"type":"Point","coordinates":[115.72122400000003,-32.52683499914411]},"properties":{"objectid":561,"featuretype":"Council Office","description":"A facility where a Local Government\u00e2\u20ac\u2122s main council operations are regularly performed","class":"Council Office","sdedist.spool.NationalLGACouncilOffices_New.fid":"561","name":"City of Mandurah","operationalstatus":"Operational","localgovernmentarea_lga":"Mandurah (C)","address":"3 Peel Street","suburb":"Mandurah","state":"Western Australia","spatialconfidence":"5","revised":1424044800000,"comment":null}},{"type":"Feature","id":562,"geometry":{"type":"Point","coordinates":[116.14491100000008,-34.24087599912193]},"properties":{"objectid":562,"featuretype":"Council Office","description":"A facility where a Local Government\u00e2\u20ac\u2122s main council operations are regularly performed","class":"Council Office","sdedist.spool.NationalLGACouncilOffices_New.fid":"562","name":"Shire of Manjimup","operationalstatus":"Operational","localgovernmentarea_lga":"Manjimup (S)","address":"37-39 Rose Street","suburb":"Manjimup","state":"Western Australia","spatialconfidence":"5","revised":1424044800000,"comment":null}},{"type":"Feature","id":563,"geometry":{"type":"Point","coordinates":[118.4956360000001,-26.592922999244035]},"properties":{"objectid":563,"featuretype":"Council Office","description":"A facility where a Local Government\u00e2\u20ac\u2122s main council operations are regularly performed","class":"Council Office","sdedist.spool.NationalLGACouncilOffices_New.fid":"563","name":"Shire of Meekatharra","operationalstatus":"Operational","localgovernmentarea_lga":"Meekatharra (S)","address":"Main Street","suburb":"Meekatharra","state":"Western Australia","spatialconfidence":"3","revised":1424044800000,"comment":null}},{"type":"Feature","id":564,"geometry":{"type":"Point","coordinates":[115.83292200000007,-32.03265599915109]},"properties":{"objectid":564,"featuretype":"Council Office","description":"A facility where a Local Government\u00e2\u20ac\u2122s main council operations are regularly performed","class":"Council Office","sdedist.spool.NationalLGACouncilOffices_New.fid":"564","name":"City of Melville","operationalstatus":"Operational","localgovernmentarea_lga":"Melville (C)","address":"10 Almondbury Road","suburb":"Booragoon","state":"Western Australia","spatialconfidence":"5","revised":1424044800000,"comment":null}},{"type":"Feature","id":565,"geometry":{"type":"Point","coordinates":[121.02918700000012,-29.694477999187477]},"properties":{"objectid":565,"featuretype":"Council Office","description":"A facility where a Local Government\u00e2\u20ac\u2122s main council operations are regularly performed","class":"Council Office","sdedist.spool.NationalLGACouncilOffices_New.fid":"565","name":"Shire of Menzies","operationalstatus":"Operational","localgovernmentarea_lga":"Menzies (S)","address":"124 Shenton Street","suburb":"Menzies","state":"Western Australia","spatialconfidence":"5","revised":1424044800000,"comment":null}},{"type":"Feature","id":566,"geometry":{"type":"Point","coordinates":[118.27254400000002,-31.480898999159177]},"properties":{"objectid":566,"featuretype":"Council Office","description":"A facility where a Local Government\u00e2\u20ac\u2122s main council operations are regularly performed","class":"Council Office","sdedist.spool.NationalLGACouncilOffices_New.fid":"566","name":"Shire of Merredin","operationalstatus":"Operational","localgovernmentarea_lga":"Merredin (S)","address":"Corner King Street and Barrack Street","suburb":"Merredin","state":"Western Australia","spatialconfidence":"5","revised":1424044800000,"comment":null}},{"type":"Feature","id":567,"geometry":{"type":"Point","coordinates":[115.44175700000004,-29.192430999195984]},"properties":{"objectid":567,"featuretype":"Council Office","description":"A facility where a Local Government\u00e2\u20ac\u2122s main council operations are regularly performed","class":"Council Office","sdedist.spool.NationalLGACouncilOffices_New.fid":"567","name":"Shire of Mingenew","operationalstatus":"Operational","localgovernmentarea_lga":"Mingenew (S)","address":"22 Victoria Street","suburb":"Mingenew","state":"Western Australia","spatialconfidence":"5","revised":1424044800000,"comment":null}},{"type":"Feature","id":568,"geometry":{"type":"Point","coordinates":[116.00780700000007,-30.64156099917208]},"properties":{"objectid":568,"featuretype":"Council Office","description":"A facility where a Local Government\u00e2\u20ac\u2122s main council operations are regularly performed","class":"Council Office","sdedist.spool.NationalLGACouncilOffices_New.fid":"568","name":"Shire of Moora","operationalstatus":"Operational","localgovernmentarea_lga":"Moora (S)","address":"34 Padbury Street","suburb":"Moora","state":"Western Australia","spatialconfidence":"5","revised":1424044800000,"comment":null}},{"type":"Feature","id":569,"geometry":{"type":"Point","coordinates":[116.00776400000007,-29.210743999195717]},"properties":{"objectid":569,"featuretype":"Council Office","description":"A facility where a Local Government\u00e2\u20ac\u2122s main council operations are regularly performed","class":"Council Office","sdedist.spool.NationalLGACouncilOffices_New.fid":"569","name":"Shire of Morowa","operationalstatus":"Operational","localgovernmentarea_lga":"Morawa (S)","address":"LOT 66 Winfield Street","suburb":"Morawa","state":"Western Australia","spatialconfidence":"5","revised":1424044800000,"comment":null}},{"type":"Feature","id":570,"geometry":{"type":"Point","coordinates":[115.76813900000002,-32.00773699915146]},"properties":{"objectid":570,"featuretype":"Council Office","description":"A facility where a Local Government\u00e2\u20ac\u2122s main council operations are regularly performed","class":"Council Office","sdedist.spool.NationalLGACouncilOffices_New.fid":"570","name":"Town of Mosman Park","operationalstatus":"Operational","localgovernmentarea_lga":"Mosman Park (T)","address":"Corner Bay View Terrace and Memorial Drive","suburb":"Mosman Park","state":"Western Australia","spatialconfidence":"5","revised":1424044800000,"comment":null}},{"type":"Feature","id":571,"geometry":{"type":"Point","coordinates":[117.84947800000009,-28.06252999921613]},"properties":{"objectid":571,"featuretype":"Council Office","description":"A facility where a Local Government\u00e2\u20ac\u2122s main council operations are regularly performed","class":"Council Office","sdedist.spool.NationalLGACouncilOffices_New.fid":"571","name":"Shire of Mount Magnet","operationalstatus":"Operational","localgovernmentarea_lga":"Mount Magnet (S)","address":"LOT 163 Hepburn Street","suburb":"Mount Magnet","state":"Western Australia","spatialconfidence":"5","revised":1424044800000,"comment":null}},{"type":"Feature","id":572,"geometry":{"type":"Point","coordinates":[117.86224400000003,-30.811882999169413]},"properties":{"objectid":572,"featuretype":"Council Office","description":"A facility where a Local Government\u00e2\u20ac\u2122s main council operations are regularly performed","class":"Council Office","sdedist.spool.NationalLGACouncilOffices_New.fid":"572","name":"Shire of Mt Marshall","operationalstatus":"Operational","localgovernmentarea_lga":"Mount Marshall (S)","address":"71 Monger Street","suburb":"Bencubbin","state":"Western Australia","spatialconfidence":"5","revised":1424044800000,"comment":null}},{"type":"Feature","id":573,"geometry":{"type":"Point","coordinates":[118.20749500000012,-30.916050999167794]},"properties":{"objectid":573,"featuretype":"Council Office","description":"A facility where a Local Government\u00e2\u20ac\u2122s main council operations are regularly performed","class":"Council Office","sdedist.spool.NationalLGACouncilOffices_New.fid":"573","name":"Shire of Mukinbudin","operationalstatus":"Operational","localgovernmentarea_lga":"Mukinbudin (S)","address":"15 Maddock Street","suburb":"Mukinbudin","state":"Western Australia","spatialconfidence":"3","revised":1424044800000,"comment":null}},{"type":"Feature","id":574,"geometry":{"type":"Point","coordinates":[116.16342500000007,-31.902319999152986]},"properties":{"objectid":574,"featuretype":"Council Office","description":"A facility where a Local Government\u00e2\u20ac\u2122s main council operations are regularly performed","class":"Council Office","sdedist.spool.NationalLGACouncilOffices_New.fid":"574","name":"Shire of Mundaring","operationalstatus":"Operational","localgovernmentarea_lga":"Mundaring (S)","address":"7000 Great Eastern Highway","suburb":"Mundaring","state":"Western Australia","spatialconfidence":"5","revised":1424044800000,"comment":null}},{"type":"Feature","id":575,"geometry":{"type":"Point","coordinates":[115.92259700000011,-26.590682999244095]},"properties":{"objectid":575,"featuretype":"Council Office","description":"A facility where a Local Government\u00e2\u20ac\u2122s main council operations are regularly performed","class":"Council Office","sdedist.spool.NationalLGACouncilOffices_New.fid":"575","name":"Shire of Murchison","operationalstatus":"Operational","localgovernmentarea_lga":"Murchison (S)","address":"114 Carnarvon Mullewa Road","suburb":"Murchison","state":"Western Australia","spatialconfidence":"1","revised":1424044800000,"comment":null}},{"type":"Feature","id":576,"geometry":{"type":"Point","coordinates":[115.87215900000001,-32.62805599914273]},"properties":{"objectid":576,"featuretype":"Council Office","description":"A facility where a Local Government\u00e2\u20ac\u2122s main council operations are regularly performed","class":"Council Office","sdedist.spool.NationalLGACouncilOffices_New.fid":"576","name":"Shire of Murray","operationalstatus":"Operational","localgovernmentarea_lga":"Murray (S)","address":"1915 Pinjarra Road","suburb":"Pinjarra","state":"Western Australia","spatialconfidence":"5","revised":1424044800000,"comment":null}},{"type":"Feature","id":577,"geometry":{"type":"Point","coordinates":[115.7650450000001,-33.979455999125136]},"properties":{"objectid":577,"featuretype":"Council Office","description":"A facility where a Local Government\u00e2\u20ac\u2122s main council operations are regularly performed","class":"Council Office","sdedist.spool.NationalLGACouncilOffices_New.fid":"577","name":"Shire of Nannup","operationalstatus":"Operational","localgovernmentarea_lga":"Nannup (S)","address":"15 Adam Street","suburb":"Nannup","state":"Western Australia","spatialconfidence":"5","revised":1424044800000,"comment":null}},{"type":"Feature","id":578,"geometry":{"type":"Point","coordinates":[118.39424800000006,-32.06682099915058]},"properties":{"objectid":578,"featuretype":"Council Office","description":"A facility where a Local Government\u00e2\u20ac\u2122s main council operations are regularly performed","class":"Council Office","sdedist.spool.NationalLGACouncilOffices_New.fid":"578","name":"Shire of Narembeen","operationalstatus":"Operational","localgovernmentarea_lga":"Narembeen (S)","address":"1 Longhurst Street","suburb":"Narembeen","state":"Western Australia","spatialconfidence":"5","revised":1424044800000,"comment":null}},{"type":"Feature","id":579,"geometry":{"type":"Point","coordinates":[117.17886900000006,-32.933703999138594]},"properties":{"objectid":579,"featuretype":"Council Office","description":"A facility where a Local Government\u00e2\u20ac\u2122s main council operations are regularly performed","class":"Council Office","sdedist.spool.NationalLGACouncilOffices_New.fid":"579","name":"Shire of Narrogin","operationalstatus":"Operational","localgovernmentarea_lga":"Narrogin (S)","address":"43 Federal Street","suburb":"Narrogin","state":"Western Australia","spatialconfidence":"5","revised":1424044800000,"comment":null}},{"type":"Feature","id":580,"geometry":{"type":"Point","coordinates":[117.17639600000007,-32.93530399913856]},"properties":{"objectid":580,"featuretype":"Council Office","description":"A facility where a Local Government\u00e2\u20ac\u2122s main council operations are regularly performed","class":"Council Office","sdedist.spool.NationalLGACouncilOffices_New.fid":"580","name":"Town of Narrogin","operationalstatus":"Operational","localgovernmentarea_lga":"Narrogin (T)","address":"89 Earl Street","suburb":"Narrogin","state":"Western Australia","spatialconfidence":"5","revised":1424044800000,"comment":null}},{"type":"Feature","id":581,"geometry":{"type":"Point","coordinates":[115.80613700000004,-31.978375999151897]},"properties":{"objectid":581,"featuretype":"Council Office","description":"A facility where a Local Government\u00e2\u20ac\u2122s main council operations are regularly performed","class":"Council Office","sdedist.spool.NationalLGACouncilOffices_New.fid":"581","name":"City of Nedlands","operationalstatus":"Operational","localgovernmentarea_lga":"Nedlands (C)","address":"71 Stirling Highway","suburb":"Nedlands","state":"Western Australia","spatialconfidence":"5","revised":1424044800000,"comment":null}},{"type":"Feature","id":582,"geometry":{"type":"Point","coordinates":[126.579155,-26.1349609992532]},"properties":{"objectid":582,"featuretype":"Council Office","description":"A facility where a Local Government\u00e2\u20ac\u2122s main council operations are regularly performed","class":"Council Office","sdedist.spool.NationalLGACouncilOffices_New.fid":"582","name":"Shire of Ngaanyatjarraku","operationalstatus":"Operational","localgovernmentarea_lga":"Ngaanyatjarraku (S)","address":"Great Central Road","suburb":"Warburton Aboriginal Community","state":"Western Australia","spatialconfidence":"1","revised":1424044800000,"comment":null}},{"type":"Feature","id":583,"geometry":{"type":"Point","coordinates":[116.6641880000001,-31.66030799915649]},"properties":{"objectid":583,"featuretype":"Council Office","description":"A facility where a Local Government\u00e2\u20ac\u2122s main council operations are regularly performed","class":"Council Office","sdedist.spool.NationalLGACouncilOffices_New.fid":"583","name":"Shire of Northam","operationalstatus":"Operational","localgovernmentarea_lga":"Northam (S)","address":"395 Fitzgerald Street","suburb":"Northam","state":"Western Australia","spatialconfidence":"5","revised":1424044800000,"comment":null}},{"type":"Feature","id":584,"geometry":{"type":"Point","coordinates":[114.63009700000009,-28.351669999210838]},"properties":{"objectid":584,"featuretype":"Council Office","description":"A facility where a Local Government\u00e2\u20ac\u2122s main council operations are regularly performed","class":"Council Office","sdedist.spool.NationalLGACouncilOffices_New.fid":"584","name":"Shire of Northampton","operationalstatus":"Operational","localgovernmentarea_lga":"Northampton (S)","address":"199 Hampton Road","suburb":"Northampton","state":"Western Australia","spatialconfidence":"5","revised":1424044800000,"comment":null}},{"type":"Feature","id":585,"geometry":{"type":"Point","coordinates":[115.76367000000006,-31.997582999151618]},"properties":{"objectid":585,"featuretype":"Council Office","description":"A facility where a Local Government\u00e2\u20ac\u2122s main council operations are regularly performed","class":"Council Office","sdedist.spool.NationalLGACouncilOffices_New.fid":"585","name":"Shire of Peppermint Grove","operationalstatus":"Operational","localgovernmentarea_lga":"Peppermint Grove (S)","address":"1 Leake Street","suburb":"Peppermint Grove","state":"Western Australia","spatialconfidence":"3","revised":1424044800000,"comment":null}},{"type":"Feature","id":586,"geometry":{"type":"Point","coordinates":[116.2847780000001,-29.439689999191742]},"properties":{"objectid":586,"featuretype":"Council Office","description":"A facility where a Local Government\u00e2\u20ac\u2122s main council operations are regularly performed","class":"Council Office","sdedist.spool.NationalLGACouncilOffices_New.fid":"586","name":"Shire of Perenjori","operationalstatus":"Operational","localgovernmentarea_lga":"Perenjori (S)","address":"56 Fowler Street","suburb":"Perenjori","state":"Western Australia","spatialconfidence":"5","revised":1424044800000,"comment":null}},{"type":"Feature","id":587,"geometry":{"type":"Point","coordinates":[115.86081400000003,-31.956595999152174]},"properties":{"objectid":587,"featuretype":"Council Office","description":"A facility where a Local Government\u00e2\u20ac\u2122s main council operations are regularly performed","class":"Council Office","sdedist.spool.NationalLGACouncilOffices_New.fid":"587","name":"City of Perth","operationalstatus":"Operational","localgovernmentarea_lga":"Perth (C)","address":"27 St Georges Terrace","suburb":"Perth","state":"Western Australia","spatialconfidence":"5","revised":1424044800000,"comment":null}},{"type":"Feature","id":588,"geometry":{"type":"Point","coordinates":[117.08238000000007,-32.53313599914404]},"properties":{"objectid":588,"featuretype":"Council Office","description":"A facility where a Local Government\u00e2\u20ac\u2122s main council operations are regularly performed","class":"Council Office","sdedist.spool.NationalLGACouncilOffices_New.fid":"588","name":"Shire of Pingelly","operationalstatus":"Operational","localgovernmentarea_lga":"Pingelly (S)","address":"17 Queen Street","suburb":"Pingelly","state":"Western Australia","spatialconfidence":"5","revised":1424044800000,"comment":null}},{"type":"Feature","id":589,"geometry":{"type":"Point","coordinates":[117.89475200000003,-34.65942799911696]},"properties":{"objectid":589,"featuretype":"Council Office","description":"A facility where a Local Government\u00e2\u20ac\u2122s main council operations are regularly performed","class":"Council Office","sdedist.spool.NationalLGACouncilOffices_New.fid":"589","name":"Shire of Plantagenet","operationalstatus":"Operational","localgovernmentarea_lga":"Plantagenet (S)","address":"Lowood Road","suburb":"Mount Magnet","state":"Western Australia","spatialconfidence":"1","revised":1424044800000,"comment":null}},{"type":"Feature","id":590,"geometry":{"type":"Point","coordinates":[118.613919,-20.308009999385146]},"properties":{"objectid":590,"featuretype":"Council Office","description":"A facility where a Local Government\u00e2\u20ac\u2122s main council operations are regularly performed","class":"Council Office","sdedist.spool.NationalLGACouncilOffices_New.fid":"590","name":"Town of Port Hedland","operationalstatus":"Operational","localgovernmentarea_lga":"Port Hedland (T)","address":"McGregor Street","suburb":"Port Hedland","state":"Western Australia","spatialconfidence":"3","revised":1424044800000,"comment":null}},{"type":"Feature","id":591,"geometry":{"type":"Point","coordinates":[117.40234800000007,-32.00955599915144]},"properties":{"objectid":591,"featuretype":"Council Office","description":"A facility where a Local Government\u00e2\u20ac\u2122s main council operations are regularly performed","class":"Council Office","sdedist.spool.NationalLGACouncilOffices_New.fid":"591","name":"Shire of Quairading","operationalstatus":"Operational","localgovernmentarea_lga":"Quairading (S)","address":"10 Jennaberring Road","suburb":"Quairading","state":"Western Australia","spatialconfidence":"5","revised":1424044800000,"comment":null}},{"type":"Feature","id":592,"geometry":{"type":"Point","coordinates":[120.04674900000008,-33.58146199913006]},"properties":{"objectid":592,"featuretype":"Council Office","description":"A facility where a Local Government\u00e2\u20ac\u2122s main council operations are regularly performed","class":"Council Office","sdedist.spool.NationalLGACouncilOffices_New.fid":"592","name":"Shire of Ravensthorpe","operationalstatus":"Operational","localgovernmentarea_lga":"Ravensthorpe (S)","address":"65 Morgans Street","suburb":"Ravensthorpe","state":"Western Australia","spatialconfidence":"5","revised":1424044800000,"comment":null}},{"type":"Feature","id":593,"geometry":{"type":"Point","coordinates":[115.74646800000005,-32.286734999147484]},"properties":{"objectid":593,"featuretype":"Council Office","description":"A facility where a Local Government\u00e2\u20ac\u2122s main council operations are regularly performed","class":"Council Office","sdedist.spool.NationalLGACouncilOffices_New.fid":"593","name":"City of Rockingham","operationalstatus":"Operational","localgovernmentarea_lga":"Rockingham (C)","address":"Civic Boulevard","suburb":"Rockingham","state":"Western Australia","spatialconfidence":"3","revised":1424044800000,"comment":null}},{"type":"Feature","id":594,"geometry":{"type":"Point","coordinates":[119.2969330000001,-27.987157999217487]},"properties":{"objectid":594,"featuretype":"Council Office","description":"A facility where a Local Government\u00e2\u20ac\u2122s main council operations are regularly performed","class":"Council Office","sdedist.spool.NationalLGACouncilOffices_New.fid":"594","name":"Shire of Sandstone","operationalstatus":"Operational","localgovernmentarea_lga":"Sandstone (S)","address":"Hack Street","suburb":"Sandstone","state":"Western Australia","spatialconfidence":"5","revised":1424044800000,"comment":null}},{"type":"Feature","id":595,"geometry":{"type":"Point","coordinates":[115.98434300000008,-32.297821999147295]},"properties":{"objectid":595,"featuretype":"Council Office","description":"A facility where a Local Government\u00e2\u20ac\u2122s main council operations are regularly performed","class":"Council Office","sdedist.spool.NationalLGACouncilOffices_New.fid":"595","name":"Shire of Serpentine-Jarrahdale","operationalstatus":"Operational","localgovernmentarea_lga":"Serpentine-Jarrahdale (S)","address":"6 Paterson Street","suburb":"Mundijong","state":"Western Australia","spatialconfidence":"5","revised":1424044800000,"comment":null}},{"type":"Feature","id":596,"geometry":{"type":"Point","coordinates":[113.53541300000008,-25.928457999257386]},"properties":{"objectid":596,"featuretype":"Council Office","description":"A facility where a Local Government\u00e2\u20ac\u2122s main council operations are regularly performed","class":"Council Office","sdedist.spool.NationalLGACouncilOffices_New.fid":"596","name":"Shire of Shark Bay","operationalstatus":"Operational","localgovernmentarea_lga":"Shark Bay (S)","address":"65 Knight Terrace","suburb":"Denham","state":"Western Australia","spatialconfidence":"5","revised":1424044800000,"comment":null}},{"type":"Feature","id":597,"geometry":{"type":"Point","coordinates":[115.86665800000003,-31.98796699915174]},"properties":{"objectid":597,"featuretype":"Council Office","description":"A facility where a Local Government\u00e2\u20ac\u2122s main council operations are regularly performed","class":"Council Office","sdedist.spool.NationalLGACouncilOffices_New.fid":"597","name":"City of South Perth","operationalstatus":"Operational","localgovernmentarea_lga":"South Perth (C)","address":"Corner Sandgate Street and South Terrace","suburb":"South Perth","state":"Western Australia","spatialconfidence":"5","revised":1424044800000,"comment":null}},{"type":"Feature","id":598,"geometry":{"type":"Point","coordinates":[115.80885300000011,-31.889807999153163]},"properties":{"objectid":598,"featuretype":"Council Office","description":"A facility where a Local Government\u00e2\u20ac\u2122s main council operations are regularly performed","class":"Council Office","sdedist.spool.NationalLGACouncilOffices_New.fid":"598","name":"City of Stirling","operationalstatus":"Operational","localgovernmentarea_lga":"Stirling (C)","address":"25 Cedric Street","suburb":"Stirling","state":"Western Australia","spatialconfidence":"5","revised":1424044800000,"comment":null}},{"type":"Feature","id":599,"geometry":{"type":"Point","coordinates":[115.8234130000001,-31.95164399915224]},"properties":{"objectid":599,"featuretype":"Council Office","description":"A facility where a Local Government\u00e2\u20ac\u2122s main council operations are regularly performed","class":"Council Office","sdedist.spool.NationalLGACouncilOffices_New.fid":"599","name":"City of Subiaco","operationalstatus":"Operational","localgovernmentarea_lga":"Subiaco (C)","address":"241 Rokeby Road","suburb":"Subiaco","state":"Western Australia","spatialconfidence":"5","revised":1424044800000,"comment":null}},{"type":"Feature","id":600,"geometry":{"type":"Point","coordinates":[116.0038320000001,-31.88667199915322]},"properties":{"objectid":600,"featuretype":"Council Office","description":"A facility where a Local Government\u00e2\u20ac\u2122s main council operations are regularly performed","class":"Council Office","sdedist.spool.NationalLGACouncilOffices_New.fid":"600","name":"City of Swan","operationalstatus":"Operational","localgovernmentarea_lga":"Swan (C)","address":"2 Midland Square","suburb":"Midland","state":"Western Australia","spatialconfidence":"5","revised":1424044800000,"comment":null}},{"type":"Feature","id":601,"geometry":{"type":"Point","coordinates":[117.4843830000001,-31.6413819991568]},"properties":{"objectid":601,"featuretype":"Council Office","description":"A facility where a Local Government\u00e2\u20ac\u2122s main council operations are regularly performed","class":"Council Office","sdedist.spool.NationalLGACouncilOffices_New.fid":"601","name":"Shire of Tammin","operationalstatus":"Operational","localgovernmentarea_lga":"Tammin (S)","address":"1 Donnan Street","suburb":"Tammin","state":"Western Australia","spatialconfidence":"5","revised":1424044800000,"comment":null}},{"type":"Feature","id":602,"geometry":{"type":"Point","coordinates":[115.76497500000008,-29.536148999190143]},"properties":{"objectid":602,"featuretype":"Council Office","description":"A facility where a Local Government\u00e2\u20ac\u2122s main council operations are regularly performed","class":"Council Office","sdedist.spool.NationalLGACouncilOffices_New.fid":"602","name":"Shire of Three Springs","operationalstatus":"Operational","localgovernmentarea_lga":"Three Springs (S)","address":"132 Railway Road","suburb":"Three Springs","state":"Western Australia","spatialconfidence":"5","revised":1424044800000,"comment":null}},{"type":"Feature","id":603,"geometry":{"type":"Point","coordinates":[116.46601800000012,-31.552900999158105]},"properties":{"objectid":603,"featuretype":"Council Office","description":"A facility where a Local Government\u00e2\u20ac\u2122s main council operations are regularly performed","class":"Council Office","sdedist.spool.NationalLGACouncilOffices_New.fid":"603","name":"Shire of Toodyay","operationalstatus":"Operational","localgovernmentarea_lga":"Toodyay (S)","address":"15 Fiennes Street","suburb":"Toodyay","state":"Western Australia","spatialconfidence":"5","revised":1424044800000,"comment":null}},{"type":"Feature","id":604,"geometry":{"type":"Point","coordinates":[117.79173300000004,-31.114348999164704]},"properties":{"objectid":604,"featuretype":"Council Office","description":"A facility where a Local Government\u00e2\u20ac\u2122s main council operations are regularly performed","class":"Council Office","sdedist.spool.NationalLGACouncilOffices_New.fid":"604","name":"Shire of Trayning","operationalstatus":"Operational","localgovernmentarea_lga":"Trayning (S)","address":"Railway Street","suburb":"Trayning","state":"Western Australia","spatialconfidence":"3","revised":1424044800000,"comment":null}},{"type":"Feature","id":605,"geometry":{"type":"Point","coordinates":[115.20877500000007,-25.054344999275465]},"properties":{"objectid":605,"featuretype":"Council Office","description":"A facility where a Local Government\u00e2\u20ac\u2122s main council operations are regularly performed","class":"Council Office","sdedist.spool.NationalLGACouncilOffices_New.fid":"605","name":"Shire of Upper Gascoyne","operationalstatus":"Operational","localgovernmentarea_lga":"Upper Gascoyne (S)","address":"4 Scott Street","suburb":"Gascoyne Junction","state":"Western Australia","spatialconfidence":"5","revised":1424044800000,"comment":null}},{"type":"Feature","id":606,"geometry":{"type":"Point","coordinates":[115.89634300000012,-31.971793999151945]},"properties":{"objectid":606,"featuretype":"Council Office","description":"A facility where a Local Government\u00e2\u20ac\u2122s main council operations are regularly performed","class":"Council Office","sdedist.spool.NationalLGACouncilOffices_New.fid":"606","name":"Town of Victoria Park","operationalstatus":"Operational","localgovernmentarea_lga":"Victoria Park (T)","address":"99 Shepperton Road","suburb":"Victoria Park","state":"Western Australia","spatialconfidence":"5","revised":1424044800000,"comment":null}},{"type":"Feature","id":607,"geometry":{"type":"Point","coordinates":[116.44813600000009,-31.089056999165116]},"properties":{"objectid":607,"featuretype":"Council Office","description":"A facility where a Local Government\u00e2\u20ac\u2122s main council operations are regularly performed","class":"Council Office","sdedist.spool.NationalLGACouncilOffices_New.fid":"607","name":"Shire of Victoria Plains","operationalstatus":"Operational","localgovernmentarea_lga":"Victoria Plains (S)","address":"28 Cavell Street","suburb":"Calingiri","state":"Western Australia","spatialconfidence":"5","revised":1424044800000,"comment":null}},{"type":"Feature","id":608,"geometry":{"type":"Point","coordinates":[115.84544300000005,-31.935925999152467]},"properties":{"objectid":608,"featuretype":"Council Office","description":"A facility where a Local Government\u00e2\u20ac\u2122s main council operations are regularly performed","class":"Council Office","sdedist.spool.NationalLGACouncilOffices_New.fid":"608","name":"City of Vincent","operationalstatus":"Operational","localgovernmentarea_lga":"Vincent (C)","address":"244 Vincent Street","suburb":"Leederville","state":"Western Australia","spatialconfidence":"5","revised":1424044800000,"comment":null}},{"type":"Feature","id":609,"geometry":{"type":"Point","coordinates":[117.33920200000013,-33.310577999133585]},"properties":{"objectid":609,"featuretype":"Council Office","description":"A facility where a Local Government\u00e2\u20ac\u2122s main council operations are regularly performed","class":"Council Office","sdedist.spool.NationalLGACouncilOffices_New.fid":"609","name":"Shire of Wagin","operationalstatus":"Operational","localgovernmentarea_lga":"Wagin (S)","address":"2 Arthur Road","suburb":"Wagin","state":"Western Australia","spatialconfidence":"3","revised":1424044800000,"comment":null}},{"type":"Feature","id":610,"geometry":{"type":"Point","coordinates":[116.67555900000004,-32.68133999914202]},"properties":{"objectid":610,"featuretype":"Council Office","description":"A facility where a Local Government\u00e2\u20ac\u2122s main council operations are regularly performed","class":"Council Office","sdedist.spool.NationalLGACouncilOffices_New.fid":"610","name":"Shire of Wandering","operationalstatus":"Operational","localgovernmentarea_lga":"Wandering (S)","address":"22 Watts Street","suburb":"Wandering","state":"Western Australia","spatialconfidence":"3","revised":1424044800000,"comment":null}},{"type":"Feature","id":611,"geometry":{"type":"Point","coordinates":[115.80548400000013,-31.749968999155207]},"properties":{"objectid":611,"featuretype":"Council Office","description":"A facility where a Local Government\u00e2\u20ac\u2122s main council operations are regularly performed","class":"Council Office","sdedist.spool.NationalLGACouncilOffices_New.fid":"611","name":"City of Wanneroo","operationalstatus":"Operational","localgovernmentarea_lga":"Wanneroo (C)","address":"23 Dundebar Road","suburb":"Wanneroo","state":"Western Australia","spatialconfidence":"5","revised":1424044800000,"comment":null}},{"type":"Feature","id":612,"geometry":{"type":"Point","coordinates":[115.92346000000008,-32.84314499913975]},"properties":{"objectid":612,"featuretype":"Council Office","description":"A facility where a Local Government\u00e2\u20ac\u2122s main council operations are regularly performed","class":"Council Office","sdedist.spool.NationalLGACouncilOffices_New.fid":"612","name":"Shire of Waroona","operationalstatus":"Operational","localgovernmentarea_lga":"Waroona (S)","address":"52 Hesse Street","suburb":"Waroona","state":"Western Australia","spatialconfidence":"5","revised":1424044800000,"comment":null}},{"type":"Feature","id":613,"geometry":{"type":"Point","coordinates":[116.74129200000003,-33.336922999133265]},"properties":{"objectid":613,"featuretype":"Council Office","description":"A facility where a Local Government\u00e2\u20ac\u2122s main council operations are regularly performed","class":"Council Office","sdedist.spool.NationalLGACouncilOffices_New.fid":"613","name":"Shire of West Arthur","operationalstatus":"Operational","localgovernmentarea_lga":"West Arthur (S)","address":"31 Burrowes Street","suburb":"Darkan","state":"Western Australia","spatialconfidence":"5","revised":1424044800000,"comment":null}},{"type":"Feature","id":614,"geometry":{"type":"Point","coordinates":[118.69668100000003,-31.302285999161885]},"properties":{"objectid":614,"featuretype":"Council Office","description":"A facility where a Local Government\u00e2\u20ac\u2122s main council operations are regularly performed","class":"Council Office","sdedist.spool.NationalLGACouncilOffices_New.fid":"614","name":"Shire of Westonia","operationalstatus":"Operational","localgovernmentarea_lga":"Westonia (S)","address":"41 Wolfram Street","suburb":"Westonia","state":"Western Australia","spatialconfidence":"3","revised":1424044800000,"comment":null}},{"type":"Feature","id":615,"geometry":{"type":"Point","coordinates":[117.5046910000001,-32.780998999140614]},"properties":{"objectid":615,"featuretype":"Council Office","description":"A facility where a Local Government\u00e2\u20ac\u2122s main council operations are regularly performed","class":"Council Office","sdedist.spool.NationalLGACouncilOffices_New.fid":"615","name":"Shire of Wickepin","operationalstatus":"Operational","localgovernmentarea_lga":"Wickepin (S)","address":"77 Wogolin Road","suburb":"Wickepin","state":"Western Australia","spatialconfidence":"5","revised":1424044800000,"comment":null}},{"type":"Feature","id":616,"geometry":{"type":"Point","coordinates":[116.8807770000001,-33.02593499913732]},"properties":{"objectid":616,"featuretype":"Council Office","description":"A facility where a Local Government\u00e2\u20ac\u2122s main council operations are regularly performed","class":"Council Office","sdedist.spool.NationalLGACouncilOffices_New.fid":"616","name":"Shire of Williams","operationalstatus":"Operational","localgovernmentarea_lga":"Williams (S)","address":"9 Brooking Street","suburb":"Williams","state":"Western Australia","spatialconfidence":"5","revised":1424044800000,"comment":null}},{"type":"Feature","id":617,"geometry":{"type":"Point","coordinates":[120.22813200000007,-26.597196999243955]},"properties":{"objectid":617,"featuretype":"Council Office","description":"A facility where a Local Government\u00e2\u20ac\u2122s main council operations are regularly performed","class":"Council Office","sdedist.spool.NationalLGACouncilOffices_New.fid":"617","name":"Shire of Wiluna","operationalstatus":"Operational","localgovernmentarea_lga":"Wiluna (S)","address":"Scotia Street","suburb":"Wiluna","state":"Western Australia","spatialconfidence":"3","revised":1424044800000,"comment":null}},{"type":"Feature","id":618,"geometry":{"type":"Point","coordinates":[116.71872300000008,-30.892535999168132]},"properties":{"objectid":618,"featuretype":"Council Office","description":"A facility where a Local Government\u00e2\u20ac\u2122s main council operations are regularly performed","class":"Council Office","sdedist.spool.NationalLGACouncilOffices_New.fid":"618","name":"Shire of Wongan-Ballidu","operationalstatus":"Operational","localgovernmentarea_lga":"Wongan-Ballidu (S)","address":"Corner Quinlan Street and Elphin Crescent","suburb":"Wongan Hills","state":"Western Australia","spatialconfidence":"5","revised":1424044800000,"comment":null}},{"type":"Feature","id":619,"geometry":{"type":"Point","coordinates":[117.43251600000009,-33.56371999913029]},"properties":{"objectid":619,"featuretype":"Council Office","description":"A facility where a Local Government\u00e2\u20ac\u2122s main council operations are regularly performed","class":"Council Office","sdedist.spool.NationalLGACouncilOffices_New.fid":"619","name":"Shire of Woodanilling","operationalstatus":"Operational","localgovernmentarea_lga":"Woodanilling (S)","address":"3316 Robinson Road","suburb":"Woodanilling","state":"Western Australia","spatialconfidence":"4","revised":1424044800000,"comment":null}},{"type":"Feature","id":620,"geometry":{"type":"Point","coordinates":[117.38384000000009,-31.178772999163744]},"properties":{"objectid":620,"featuretype":"Council Office","description":"A facility where a Local Government\u00e2\u20ac\u2122s main council operations are regularly performed","class":"Council Office","sdedist.spool.NationalLGACouncilOffices_New.fid":"620","name":"Shire of Wyalkatchem","operationalstatus":"Operational","localgovernmentarea_lga":"Wyalkatchem (S)","address":"Corner Flint Street and Honour Avenue","suburb":"Wyalkatchem","state":"Western Australia","spatialconfidence":"4","revised":1424044800000,"comment":null}},{"type":"Feature","id":621,"geometry":{"type":"Point","coordinates":[128.73485700000003,-15.776477999505651]},"properties":{"objectid":621,"featuretype":"Council Office","description":"A facility where a Local Government\u00e2\u20ac\u2122s main council operations are regularly performed","class":"Council Office","sdedist.spool.NationalLGACouncilOffices_New.fid":"621","name":"Shire of Wyndham-East Kimberley - Kununurra Office","operationalstatus":"Operational","localgovernmentarea_lga":"Wyndham-East Kimberley (S)","address":"20 Coolibah Drive","suburb":"Kununurra","state":"Western Australia","spatialconfidence":"5","revised":1424044800000,"comment":null}},{"type":"Feature","id":622,"geometry":{"type":"Point","coordinates":[128.12278700000002,-15.485802999513869]},"properties":{"objectid":622,"featuretype":"Council Office","description":"A facility where a Local Government\u00e2\u20ac\u2122s main council operations are regularly performed","class":"Council Office","sdedist.spool.NationalLGACouncilOffices_New.fid":"622","name":"Shire of Wyndham-East Kimberley - Wyndham Office","operationalstatus":"Operational","localgovernmentarea_lga":"Wyndham-East Kimberley (S)","address":"Koolama Street","suburb":"Wyndham","state":"Western Australia","spatialconfidence":"5","revised":1424044800000,"comment":null}},{"type":"Feature","id":623,"geometry":{"type":"Point","coordinates":[116.68238100000006,-28.341814999210992]},"properties":{"objectid":623,"featuretype":"Council Office","description":"A facility where a Local Government\u00e2\u20ac\u2122s main council operations are regularly performed","class":"Council Office","sdedist.spool.NationalLGACouncilOffices_New.fid":"623","name":"Shire of Yalgoo","operationalstatus":"Operational","localgovernmentarea_lga":"Yalgoo (S)","address":"37 Gibbons Street","suburb":"Yalgoo","state":"Western Australia","spatialconfidence":"5","revised":1424044800000,"comment":null}},{"type":"Feature","id":624,"geometry":{"type":"Point","coordinates":[119.32843400000002,-31.23132499916295]},"properties":{"objectid":624,"featuretype":"Council Office","description":"A facility where a Local Government\u00e2\u20ac\u2122s main council operations are regularly performed","class":"Council Office","sdedist.spool.NationalLGACouncilOffices_New.fid":"624","name":"Shire of Yilgarn","operationalstatus":"Operational","localgovernmentarea_lga":"Yilgarn (S)","address":"23 Antares Street","suburb":"Yalgarn","state":"Western Australia","spatialconfidence":"5","revised":1424044800000,"comment":null}},{"type":"Feature","id":625,"geometry":{"type":"Point","coordinates":[116.76782300000004,-31.89162199915316]},"properties":{"objectid":625,"featuretype":"Council Office","description":"A facility where a Local Government\u00e2\u20ac\u2122s main council operations are regularly performed","class":"Council Office","sdedist.spool.NationalLGACouncilOffices_New.fid":"625","name":"Shire of York","operationalstatus":"Operational","localgovernmentarea_lga":"York (S)","address":"1 Joaquina Street","suburb":"York","state":"Western Australia","spatialconfidence":"5","revised":1424044800000,"comment":null}}],"metadata":{"title":"Western Australia LGA Council Offices","source":"Geoscience Australia \u2014 National LGA Council Offices","source_url":"https://services.ga.gov.au/gis/rest/services/Local_Government_Area_Council_Offices/MapServer/0","licence":"CC BY 4.0","attribution":"Commonwealth of Australia (Geoscience Australia) 2015","vintage":"2018"}}